<?xml version="1.0" encoding="UTF-8"?>
<gpx version="1.1" creator="Flock Finder simulator" xmlns="http://www.topografix.com/GPX/1/1">
<trk><trkseg>
<trkpt lat="33.7812970" lon="-84.3831592"><time>2026-09-21T14:13:21.000Z</time></trkpt>
<trkpt lat="33.7814058" lon="-84.3833298"><time>2026-09-21T14:13:22.000Z</time></trkpt>
<trkpt lat="33.7815002" lon="-84.3834891"><time>2026-09-21T14:13:23.000Z</time></trkpt>
<trkpt lat="33.7816560" lon="-84.3835753"><time>2026-09-21T14:13:24.000Z</time></trkpt>
<trkpt lat="33.7817586" lon="-84.3837545"><time>2026-09-21T14:13:25.000Z</time></trkpt>
<trkpt lat="33.7816933" lon="-84.3839084"><time>2026-09-21T14:13:26.000Z</time></trkpt>
<trkpt lat="33.7818091" lon="-84.3841648"><time>2026-09-21T14:13:27.000Z</time></trkpt>
<trkpt lat="33.7817258" lon="-84.3844569"><time>2026-09-21T14:13:28.000Z</time></trkpt>
<trkpt lat="33.7816961" lon="-84.3844681"><time>2026-09-21T14:13:29.000Z</time></trkpt>
<trkpt lat="33.7816533" lon="-84.3848182"><time>2026-09-21T14:13:30.000Z</time></trkpt>
<trkpt lat="33.7816200" lon="-84.3849594"><time>2026-09-21T14:13:31.000Z</time></trkpt>
<trkpt lat="33.7814968" lon="-84.3852134"><time>2026-09-21T14:13:32.000Z</time></trkpt>
<trkpt lat="33.7814672" lon="-84.3853714"><time>2026-09-21T14:13:33.000Z</time></trkpt>
<trkpt lat="33.7814744" lon="-84.3855312"><time>2026-09-21T14:13:34.000Z</time></trkpt>
<trkpt lat="33.7814352" lon="-84.3857981"><time>2026-09-21T14:13:35.000Z</time></trkpt>
<trkpt lat="33.7815249" lon="-84.3860331"><time>2026-09-21T14:13:36.000Z</time></trkpt>
<trkpt lat="33.7814503" lon="-84.3862239"><time>2026-09-21T14:13:37.000Z</time></trkpt>
<trkpt lat="33.7814570" lon="-84.3864552"><time>2026-09-21T14:13:38.000Z</time></trkpt>
<trkpt lat="33.7814551" lon="-84.3866037"><time>2026-09-21T14:13:39.000Z</time></trkpt>
<trkpt lat="33.7814806" lon="-84.3869548"><time>2026-09-21T14:13:40.000Z</time></trkpt>
<trkpt lat="33.7815221" lon="-84.3870613"><time>2026-09-21T14:13:41.000Z</time></trkpt>
<trkpt lat="33.7815477" lon="-84.3873566"><time>2026-09-21T14:13:42.000Z</time></trkpt>
<trkpt lat="33.7816104" lon="-84.3875943"><time>2026-09-21T14:13:43.000Z</time></trkpt>
<trkpt lat="33.7816091" lon="-84.3877159"><time>2026-09-21T14:13:44.000Z</time></trkpt>
<trkpt lat="33.7814964" lon="-84.3879901"><time>2026-09-21T14:13:45.000Z</time></trkpt>
<trkpt lat="33.7814988" lon="-84.3881806"><time>2026-09-21T14:13:46.000Z</time></trkpt>
<trkpt lat="33.7814783" lon="-84.3883255"><time>2026-09-21T14:13:47.000Z</time></trkpt>
<trkpt lat="33.7815573" lon="-84.3885564"><time>2026-09-21T14:13:48.000Z</time></trkpt>
<trkpt lat="33.7814648" lon="-84.3888762"><time>2026-09-21T14:13:49.000Z</time></trkpt>
<trkpt lat="33.7815277" lon="-84.3890964"><time>2026-09-21T14:13:50.000Z</time></trkpt>
<trkpt lat="33.7814990" lon="-84.3892159"><time>2026-09-21T14:13:51.000Z</time></trkpt>
<trkpt lat="33.7815162" lon="-84.3894920"><time>2026-09-21T14:13:52.000Z</time></trkpt>
<trkpt lat="33.7814811" lon="-84.3897625"><time>2026-09-21T14:13:53.000Z</time></trkpt>
<trkpt lat="33.7815606" lon="-84.3898949"><time>2026-09-21T14:13:54.000Z</time></trkpt>
<trkpt lat="33.7815452" lon="-84.3901320"><time>2026-09-21T14:13:55.000Z</time></trkpt>
<trkpt lat="33.7814751" lon="-84.3903341"><time>2026-09-21T14:13:56.000Z</time></trkpt>
<trkpt lat="33.7815290" lon="-84.3905049"><time>2026-09-21T14:13:57.000Z</time></trkpt>
<trkpt lat="33.7815115" lon="-84.3908021"><time>2026-09-21T14:13:58.000Z</time></trkpt>
<trkpt lat="33.7815316" lon="-84.3909555"><time>2026-09-21T14:13:59.000Z</time></trkpt>
<trkpt lat="33.7815243" lon="-84.3912249"><time>2026-09-21T14:14:00.000Z</time></trkpt>
<trkpt lat="33.7815204" lon="-84.3913704"><time>2026-09-21T14:14:01.000Z</time></trkpt>
<trkpt lat="33.7815163" lon="-84.3916036"><time>2026-09-21T14:14:02.000Z</time></trkpt>
<trkpt lat="33.7813018" lon="-84.3916064"><time>2026-09-21T14:14:03.000Z</time></trkpt>
<trkpt lat="33.7810908" lon="-84.3916299"><time>2026-09-21T14:14:04.000Z</time></trkpt>
<trkpt lat="33.7810408" lon="-84.3915828"><time>2026-09-21T14:14:05.000Z</time></trkpt>
<trkpt lat="33.7808776" lon="-84.3916868"><time>2026-09-21T14:14:06.000Z</time></trkpt>
<trkpt lat="33.7806318" lon="-84.3915158"><time>2026-09-21T14:14:07.000Z</time></trkpt>
<trkpt lat="33.7804343" lon="-84.3914279"><time>2026-09-21T14:14:08.000Z</time></trkpt>
<trkpt lat="33.7803041" lon="-84.3913850"><time>2026-09-21T14:14:09.000Z</time></trkpt>
<trkpt lat="33.7801101" lon="-84.3914699"><time>2026-09-21T14:14:10.000Z</time></trkpt>
<trkpt lat="33.7798797" lon="-84.3914265"><time>2026-09-21T14:14:11.000Z</time></trkpt>
<trkpt lat="33.7798198" lon="-84.3914042"><time>2026-09-21T14:14:12.000Z</time></trkpt>
<trkpt lat="33.7795463" lon="-84.3912251"><time>2026-09-21T14:14:13.000Z</time></trkpt>
<trkpt lat="33.7793579" lon="-84.3911374"><time>2026-09-21T14:14:14.000Z</time></trkpt>
<trkpt lat="33.7792181" lon="-84.3911784"><time>2026-09-21T14:14:15.000Z</time></trkpt>
<trkpt lat="33.7790172" lon="-84.3911832"><time>2026-09-21T14:14:16.000Z</time></trkpt>
<trkpt lat="33.7789018" lon="-84.3912292"><time>2026-09-21T14:14:17.000Z</time></trkpt>
<trkpt lat="33.7787315" lon="-84.3912244"><time>2026-09-21T14:14:18.000Z</time></trkpt>
<trkpt lat="33.7784793" lon="-84.3911902"><time>2026-09-21T14:14:19.000Z</time></trkpt>
<trkpt lat="33.7783426" lon="-84.3912346"><time>2026-09-21T14:14:20.000Z</time></trkpt>
<trkpt lat="33.7781808" lon="-84.3911651"><time>2026-09-21T14:14:21.000Z</time></trkpt>
<trkpt lat="33.7779931" lon="-84.3911995"><time>2026-09-21T14:14:22.000Z</time></trkpt>
<trkpt lat="33.7778319" lon="-84.3911530"><time>2026-09-21T14:14:23.000Z</time></trkpt>
<trkpt lat="33.7775709" lon="-84.3911035"><time>2026-09-21T14:14:24.000Z</time></trkpt>
<trkpt lat="33.7774799" lon="-84.3910791"><time>2026-09-21T14:14:25.000Z</time></trkpt>
<trkpt lat="33.7772832" lon="-84.3910387"><time>2026-09-21T14:14:26.000Z</time></trkpt>
<trkpt lat="33.7770272" lon="-84.3910781"><time>2026-09-21T14:14:27.000Z</time></trkpt>
<trkpt lat="33.7768847" lon="-84.3910066"><time>2026-09-21T14:14:28.000Z</time></trkpt>
<trkpt lat="33.7767206" lon="-84.3909982"><time>2026-09-21T14:14:29.000Z</time></trkpt>
<trkpt lat="33.7765100" lon="-84.3909744"><time>2026-09-21T14:14:30.000Z</time></trkpt>
<trkpt lat="33.7763815" lon="-84.3909789"><time>2026-09-21T14:14:31.000Z</time></trkpt>
<trkpt lat="33.7761763" lon="-84.3909147"><time>2026-09-21T14:14:32.000Z</time></trkpt>
<trkpt lat="33.7759909" lon="-84.3908200"><time>2026-09-21T14:14:33.000Z</time></trkpt>
<trkpt lat="33.7758949" lon="-84.3907892"><time>2026-09-21T14:14:34.000Z</time></trkpt>
<trkpt lat="33.7756427" lon="-84.3906896"><time>2026-09-21T14:14:35.000Z</time></trkpt>
<trkpt lat="33.7754976" lon="-84.3907522"><time>2026-09-21T14:14:36.000Z</time></trkpt>
<trkpt lat="33.7753044" lon="-84.3906537"><time>2026-09-21T14:14:37.000Z</time></trkpt>
<trkpt lat="33.7751762" lon="-84.3906412"><time>2026-09-21T14:14:38.000Z</time></trkpt>
<trkpt lat="33.7749225" lon="-84.3906608"><time>2026-09-21T14:14:39.000Z</time></trkpt>
<trkpt lat="33.7748323" lon="-84.3905248"><time>2026-09-21T14:14:40.000Z</time></trkpt>
<trkpt lat="33.7745747" lon="-84.3905431"><time>2026-09-21T14:14:41.000Z</time></trkpt>
<trkpt lat="33.7743957" lon="-84.3904693"><time>2026-09-21T14:14:42.000Z</time></trkpt>
<trkpt lat="33.7742860" lon="-84.3904746"><time>2026-09-21T14:14:43.000Z</time></trkpt>
<trkpt lat="33.7740544" lon="-84.3903790"><time>2026-09-21T14:14:44.000Z</time></trkpt>
<trkpt lat="33.7738578" lon="-84.3904322"><time>2026-09-21T14:14:45.000Z</time></trkpt>
<trkpt lat="33.7736573" lon="-84.3904058"><time>2026-09-21T14:14:46.000Z</time></trkpt>
<trkpt lat="33.7735011" lon="-84.3903880"><time>2026-09-21T14:14:47.000Z</time></trkpt>
<trkpt lat="33.7733915" lon="-84.3902832"><time>2026-09-21T14:14:48.000Z</time></trkpt>
<trkpt lat="33.7731343" lon="-84.3904159"><time>2026-09-21T14:14:49.000Z</time></trkpt>
<trkpt lat="33.7729721" lon="-84.3903517"><time>2026-09-21T14:14:50.000Z</time></trkpt>
<trkpt lat="33.7727997" lon="-84.3904711"><time>2026-09-21T14:14:51.000Z</time></trkpt>
<trkpt lat="33.7726807" lon="-84.3903783"><time>2026-09-21T14:14:52.000Z</time></trkpt>
<trkpt lat="33.7724818" lon="-84.3903333"><time>2026-09-21T14:14:53.000Z</time></trkpt>
<trkpt lat="33.7722357" lon="-84.3903769"><time>2026-09-21T14:14:54.000Z</time></trkpt>
<trkpt lat="33.7720666" lon="-84.3904476"><time>2026-09-21T14:14:55.000Z</time></trkpt>
<trkpt lat="33.7719682" lon="-84.3904116"><time>2026-09-21T14:14:56.000Z</time></trkpt>
<trkpt lat="33.7717593" lon="-84.3905195"><time>2026-09-21T14:14:57.000Z</time></trkpt>
<trkpt lat="33.7715551" lon="-84.3904163"><time>2026-09-21T14:14:58.000Z</time></trkpt>
<trkpt lat="33.7713937" lon="-84.3904414"><time>2026-09-21T14:14:59.000Z</time></trkpt>
<trkpt lat="33.7711996" lon="-84.3904135"><time>2026-09-21T14:15:00.000Z</time></trkpt>
<trkpt lat="33.7710266" lon="-84.3905668"><time>2026-09-21T14:15:01.000Z</time></trkpt>
<trkpt lat="33.7708122" lon="-84.3904781"><time>2026-09-21T14:15:02.000Z</time></trkpt>
<trkpt lat="33.7706485" lon="-84.3904609"><time>2026-09-21T14:15:03.000Z</time></trkpt>
<trkpt lat="33.7704770" lon="-84.3905486"><time>2026-09-21T14:15:04.000Z</time></trkpt>
<trkpt lat="33.7703000" lon="-84.3905118"><time>2026-09-21T14:15:05.000Z</time></trkpt>
<trkpt lat="33.7702089" lon="-84.3905957"><time>2026-09-21T14:15:06.000Z</time></trkpt>
<trkpt lat="33.7699341" lon="-84.3906223"><time>2026-09-21T14:15:07.000Z</time></trkpt>
<trkpt lat="33.7697562" lon="-84.3906010"><time>2026-09-21T14:15:08.000Z</time></trkpt>
<trkpt lat="33.7695662" lon="-84.3905892"><time>2026-09-21T14:15:09.000Z</time></trkpt>
<trkpt lat="33.7694177" lon="-84.3906301"><time>2026-09-21T14:15:10.000Z</time></trkpt>
<trkpt lat="33.7691382" lon="-84.3905453"><time>2026-09-21T14:15:11.000Z</time></trkpt>
<trkpt lat="33.7690205" lon="-84.3905737"><time>2026-09-21T14:15:12.000Z</time></trkpt>
<trkpt lat="33.7688792" lon="-84.3905026"><time>2026-09-21T14:15:13.000Z</time></trkpt>
<trkpt lat="33.7687069" lon="-84.3904514"><time>2026-09-21T14:15:14.000Z</time></trkpt>
<trkpt lat="33.7685522" lon="-84.3903742"><time>2026-09-21T14:15:15.000Z</time></trkpt>
<trkpt lat="33.7683255" lon="-84.3901748"><time>2026-09-21T14:15:16.000Z</time></trkpt>
<trkpt lat="33.7681804" lon="-84.3901592"><time>2026-09-21T14:15:17.000Z</time></trkpt>
<trkpt lat="33.7680644" lon="-84.3899745"><time>2026-09-21T14:15:18.000Z</time></trkpt>
<trkpt lat="33.7679125" lon="-84.3898331"><time>2026-09-21T14:15:19.000Z</time></trkpt>
<trkpt lat="33.7677500" lon="-84.3896666"><time>2026-09-21T14:15:20.000Z</time></trkpt>
<trkpt lat="33.7677174" lon="-84.3896286"><time>2026-09-21T14:15:21.000Z</time></trkpt>
<trkpt lat="33.7675027" lon="-84.3894880"><time>2026-09-21T14:15:22.000Z</time></trkpt>
<trkpt lat="33.7674548" lon="-84.3892732"><time>2026-09-21T14:15:23.000Z</time></trkpt>
<trkpt lat="33.7673044" lon="-84.3890493"><time>2026-09-21T14:15:24.000Z</time></trkpt>
<trkpt lat="33.7671965" lon="-84.3888952"><time>2026-09-21T14:15:25.000Z</time></trkpt>
<trkpt lat="33.7670826" lon="-84.3887766"><time>2026-09-21T14:15:26.000Z</time></trkpt>
<trkpt lat="33.7669232" lon="-84.3886386"><time>2026-09-21T14:15:27.000Z</time></trkpt>
<trkpt lat="33.7668745" lon="-84.3883702"><time>2026-09-21T14:15:28.000Z</time></trkpt>
<trkpt lat="33.7668025" lon="-84.3882246"><time>2026-09-21T14:15:29.000Z</time></trkpt>
<trkpt lat="33.7667421" lon="-84.3880276"><time>2026-09-21T14:15:30.000Z</time></trkpt>
<trkpt lat="33.7666106" lon="-84.3879277"><time>2026-09-21T14:15:31.000Z</time></trkpt>
<trkpt lat="33.7664975" lon="-84.3876811"><time>2026-09-21T14:15:32.000Z</time></trkpt>
<trkpt lat="33.7663865" lon="-84.3875609"><time>2026-09-21T14:15:33.000Z</time></trkpt>
<trkpt lat="33.7663001" lon="-84.3873001"><time>2026-09-21T14:15:34.000Z</time></trkpt>
<trkpt lat="33.7661585" lon="-84.3871114"><time>2026-09-21T14:15:35.000Z</time></trkpt>
<trkpt lat="33.7660756" lon="-84.3868797"><time>2026-09-21T14:15:36.000Z</time></trkpt>
<trkpt lat="33.7659662" lon="-84.3867519"><time>2026-09-21T14:15:37.000Z</time></trkpt>
<trkpt lat="33.7658743" lon="-84.3865631"><time>2026-09-21T14:15:38.000Z</time></trkpt>
<trkpt lat="33.7657780" lon="-84.3865260"><time>2026-09-21T14:15:39.000Z</time></trkpt>
<trkpt lat="33.7656269" lon="-84.3861750"><time>2026-09-21T14:15:40.000Z</time></trkpt>
<trkpt lat="33.7655753" lon="-84.3860647"><time>2026-09-21T14:15:41.000Z</time></trkpt>
<trkpt lat="33.7655102" lon="-84.3858518"><time>2026-09-21T14:15:42.000Z</time></trkpt>
<trkpt lat="33.7653372" lon="-84.3856776"><time>2026-09-21T14:15:43.000Z</time></trkpt>
<trkpt lat="33.7652206" lon="-84.3856043"><time>2026-09-21T14:15:44.000Z</time></trkpt>
<trkpt lat="33.7651567" lon="-84.3854286"><time>2026-09-21T14:15:45.000Z</time></trkpt>
<trkpt lat="33.7651165" lon="-84.3852058"><time>2026-09-21T14:15:46.000Z</time></trkpt>
<trkpt lat="33.7648761" lon="-84.3850569"><time>2026-09-21T14:15:47.000Z</time></trkpt>
<trkpt lat="33.7648373" lon="-84.3849415"><time>2026-09-21T14:15:48.000Z</time></trkpt>
<trkpt lat="33.7647047" lon="-84.3847539"><time>2026-09-21T14:15:49.000Z</time></trkpt>
<trkpt lat="33.7644591" lon="-84.3845336"><time>2026-09-21T14:15:50.000Z</time></trkpt>
<trkpt lat="33.7643405" lon="-84.3844556"><time>2026-09-21T14:15:51.000Z</time></trkpt>
<trkpt lat="33.7642815" lon="-84.3842642"><time>2026-09-21T14:15:52.000Z</time></trkpt>
<trkpt lat="33.7640822" lon="-84.3840801"><time>2026-09-21T14:15:53.000Z</time></trkpt>
<trkpt lat="33.7639852" lon="-84.3840322"><time>2026-09-21T14:15:54.000Z</time></trkpt>
<trkpt lat="33.7638639" lon="-84.3839059"><time>2026-09-21T14:15:55.000Z</time></trkpt>
<trkpt lat="33.7636485" lon="-84.3837343"><time>2026-09-21T14:15:56.000Z</time></trkpt>
<trkpt lat="33.7635292" lon="-84.3836887"><time>2026-09-21T14:15:57.000Z</time></trkpt>
<trkpt lat="33.7634137" lon="-84.3835470"><time>2026-09-21T14:15:58.000Z</time></trkpt>
<trkpt lat="33.7632304" lon="-84.3833233"><time>2026-09-21T14:15:59.000Z</time></trkpt>
<trkpt lat="33.7631767" lon="-84.3832568"><time>2026-09-21T14:16:00.000Z</time></trkpt>
<trkpt lat="33.7630022" lon="-84.3831129"><time>2026-09-21T14:16:01.000Z</time></trkpt>
<trkpt lat="33.7629116" lon="-84.3829098"><time>2026-09-21T14:16:02.000Z</time></trkpt>
<trkpt lat="33.7627715" lon="-84.3826873"><time>2026-09-21T14:16:03.000Z</time></trkpt>
<trkpt lat="33.7626377" lon="-84.3826125"><time>2026-09-21T14:16:04.000Z</time></trkpt>
<trkpt lat="33.7625156" lon="-84.3825363"><time>2026-09-21T14:16:05.000Z</time></trkpt>
<trkpt lat="33.7623463" lon="-84.3822846"><time>2026-09-21T14:16:06.000Z</time></trkpt>
<trkpt lat="33.7622222" lon="-84.3821735"><time>2026-09-21T14:16:07.000Z</time></trkpt>
<trkpt lat="33.7621050" lon="-84.3821027"><time>2026-09-21T14:16:08.000Z</time></trkpt>
<trkpt lat="33.7620095" lon="-84.3818072"><time>2026-09-21T14:16:09.000Z</time></trkpt>
<trkpt lat="33.7618456" lon="-84.3816962"><time>2026-09-21T14:16:10.000Z</time></trkpt>
<trkpt lat="33.7617581" lon="-84.3815706"><time>2026-09-21T14:16:11.000Z</time></trkpt>
<trkpt lat="33.7615519" lon="-84.3814413"><time>2026-09-21T14:16:12.000Z</time></trkpt>
<trkpt lat="33.7614416" lon="-84.3812761"><time>2026-09-21T14:16:13.000Z</time></trkpt>
<trkpt lat="33.7612562" lon="-84.3811276"><time>2026-09-21T14:16:14.000Z</time></trkpt>
<trkpt lat="33.7612097" lon="-84.3809617"><time>2026-09-21T14:16:15.000Z</time></trkpt>
<trkpt lat="33.7610564" lon="-84.3808241"><time>2026-09-21T14:16:16.000Z</time></trkpt>
<trkpt lat="33.7608954" lon="-84.3807054"><time>2026-09-21T14:16:17.000Z</time></trkpt>
<trkpt lat="33.7607683" lon="-84.3806002"><time>2026-09-21T14:16:18.000Z</time></trkpt>
<trkpt lat="33.7605997" lon="-84.3804708"><time>2026-09-21T14:16:19.000Z</time></trkpt>
<trkpt lat="33.7605420" lon="-84.3803311"><time>2026-09-21T14:16:20.000Z</time></trkpt>
<trkpt lat="33.7603577" lon="-84.3801126"><time>2026-09-21T14:16:21.000Z</time></trkpt>
<trkpt lat="33.7601635" lon="-84.3800028"><time>2026-09-21T14:16:22.000Z</time></trkpt>
<trkpt lat="33.7600750" lon="-84.3799528"><time>2026-09-21T14:16:23.000Z</time></trkpt>
<trkpt lat="33.7598862" lon="-84.3798521"><time>2026-09-21T14:16:24.000Z</time></trkpt>
<trkpt lat="33.7597215" lon="-84.3797421"><time>2026-09-21T14:16:25.000Z</time></trkpt>
<trkpt lat="33.7595987" lon="-84.3796533"><time>2026-09-21T14:16:26.000Z</time></trkpt>
<trkpt lat="33.7593911" lon="-84.3794132"><time>2026-09-21T14:16:27.000Z</time></trkpt>
<trkpt lat="33.7592047" lon="-84.3793690"><time>2026-09-21T14:16:28.000Z</time></trkpt>
<trkpt lat="33.7590519" lon="-84.3794280"><time>2026-09-21T14:16:29.000Z</time></trkpt>
<trkpt lat="33.7588900" lon="-84.3792687"><time>2026-09-21T14:16:30.000Z</time></trkpt>
<trkpt lat="33.7587520" lon="-84.3791211"><time>2026-09-21T14:16:31.000Z</time></trkpt>
<trkpt lat="33.7586116" lon="-84.3791778"><time>2026-09-21T14:16:32.000Z</time></trkpt>
<trkpt lat="33.7584254" lon="-84.3791026"><time>2026-09-21T14:16:33.000Z</time></trkpt>
<trkpt lat="33.7582214" lon="-84.3790024"><time>2026-09-21T14:16:34.000Z</time></trkpt>
<trkpt lat="33.7581180" lon="-84.3789821"><time>2026-09-21T14:16:35.000Z</time></trkpt>
<trkpt lat="33.7578826" lon="-84.3788733"><time>2026-09-21T14:16:36.000Z</time></trkpt>
<trkpt lat="33.7576801" lon="-84.3788108"><time>2026-09-21T14:16:37.000Z</time></trkpt>
<trkpt lat="33.7575578" lon="-84.3787532"><time>2026-09-21T14:16:38.000Z</time></trkpt>
<trkpt lat="33.7573498" lon="-84.3787553"><time>2026-09-21T14:16:39.000Z</time></trkpt>
<trkpt lat="33.7571510" lon="-84.3788400"><time>2026-09-21T14:16:40.000Z</time></trkpt>
<trkpt lat="33.7569844" lon="-84.3787236"><time>2026-09-21T14:16:41.000Z</time></trkpt>
<trkpt lat="33.7568818" lon="-84.3786656"><time>2026-09-21T14:16:42.000Z</time></trkpt>
<trkpt lat="33.7566247" lon="-84.3786442"><time>2026-09-21T14:16:43.000Z</time></trkpt>
<trkpt lat="33.7564695" lon="-84.3785755"><time>2026-09-21T14:16:44.000Z</time></trkpt>
<trkpt lat="33.7562555" lon="-84.3786815"><time>2026-09-21T14:16:45.000Z</time></trkpt>
<trkpt lat="33.7561824" lon="-84.3786462"><time>2026-09-21T14:16:46.000Z</time></trkpt>
<trkpt lat="33.7558518" lon="-84.3787030"><time>2026-09-21T14:16:47.000Z</time></trkpt>
<trkpt lat="33.7557024" lon="-84.3786974"><time>2026-09-21T14:16:48.000Z</time></trkpt>
<trkpt lat="33.7555438" lon="-84.3786621"><time>2026-09-21T14:16:49.000Z</time></trkpt>
<trkpt lat="33.7554077" lon="-84.3785755"><time>2026-09-21T14:16:50.000Z</time></trkpt>
<trkpt lat="33.7551584" lon="-84.3786273"><time>2026-09-21T14:16:51.000Z</time></trkpt>
<trkpt lat="33.7550448" lon="-84.3786798"><time>2026-09-21T14:16:52.000Z</time></trkpt>
<trkpt lat="33.7548321" lon="-84.3786816"><time>2026-09-21T14:16:53.000Z</time></trkpt>
<trkpt lat="33.7546429" lon="-84.3786877"><time>2026-09-21T14:16:54.000Z</time></trkpt>
<trkpt lat="33.7544374" lon="-84.3787265"><time>2026-09-21T14:16:55.000Z</time></trkpt>
<trkpt lat="33.7542127" lon="-84.3788286"><time>2026-09-21T14:16:56.000Z</time></trkpt>
<trkpt lat="33.7541485" lon="-84.3787440"><time>2026-09-21T14:16:57.000Z</time></trkpt>
<trkpt lat="33.7538671" lon="-84.3788490"><time>2026-09-21T14:16:58.000Z</time></trkpt>
<trkpt lat="33.7537642" lon="-84.3789117"><time>2026-09-21T14:16:59.000Z</time></trkpt>
<trkpt lat="33.7536390" lon="-84.3789558"><time>2026-09-21T14:17:00.000Z</time></trkpt>
<trkpt lat="33.7534048" lon="-84.3790122"><time>2026-09-21T14:17:01.000Z</time></trkpt>
<trkpt lat="33.7532632" lon="-84.3791232"><time>2026-09-21T14:17:02.000Z</time></trkpt>
<trkpt lat="33.7530619" lon="-84.3792650"><time>2026-09-21T14:17:03.000Z</time></trkpt>
<trkpt lat="33.7529731" lon="-84.3793197"><time>2026-09-21T14:17:04.000Z</time></trkpt>
<trkpt lat="33.7527714" lon="-84.3793597"><time>2026-09-21T14:17:05.000Z</time></trkpt>
<trkpt lat="33.7526177" lon="-84.3794806"><time>2026-09-21T14:17:06.000Z</time></trkpt>
<trkpt lat="33.7524521" lon="-84.3796446"><time>2026-09-21T14:17:07.000Z</time></trkpt>
<trkpt lat="33.7523226" lon="-84.3797434"><time>2026-09-21T14:17:08.000Z</time></trkpt>
<trkpt lat="33.7521735" lon="-84.3798028"><time>2026-09-21T14:17:09.000Z</time></trkpt>
<trkpt lat="33.7520642" lon="-84.3799593"><time>2026-09-21T14:17:10.000Z</time></trkpt>
<trkpt lat="33.7519239" lon="-84.3800958"><time>2026-09-21T14:17:11.000Z</time></trkpt>
<trkpt lat="33.7517580" lon="-84.3802170"><time>2026-09-21T14:17:12.000Z</time></trkpt>
<trkpt lat="33.7516448" lon="-84.3803819"><time>2026-09-21T14:17:13.000Z</time></trkpt>
<trkpt lat="33.7514058" lon="-84.3805888"><time>2026-09-21T14:17:14.000Z</time></trkpt>
<trkpt lat="33.7513746" lon="-84.3808274"><time>2026-09-21T14:17:15.000Z</time></trkpt>
<trkpt lat="33.7512381" lon="-84.3808541"><time>2026-09-21T14:17:16.000Z</time></trkpt>
<trkpt lat="33.7511052" lon="-84.3809989"><time>2026-09-21T14:17:17.000Z</time></trkpt>
<trkpt lat="33.7509893" lon="-84.3812025"><time>2026-09-21T14:17:18.000Z</time></trkpt>
<trkpt lat="33.7507838" lon="-84.3813977"><time>2026-09-21T14:17:19.000Z</time></trkpt>
<trkpt lat="33.7507323" lon="-84.3814816"><time>2026-09-21T14:17:20.000Z</time></trkpt>
<trkpt lat="33.7505744" lon="-84.3816195"><time>2026-09-21T14:17:21.000Z</time></trkpt>
<trkpt lat="33.7504208" lon="-84.3817582"><time>2026-09-21T14:17:22.000Z</time></trkpt>
<trkpt lat="33.7504106" lon="-84.3818727"><time>2026-09-21T14:17:23.000Z</time></trkpt>
<trkpt lat="33.7502226" lon="-84.3820838"><time>2026-09-21T14:17:24.000Z</time></trkpt>
<trkpt lat="33.7500736" lon="-84.3822442"><time>2026-09-21T14:17:25.000Z</time></trkpt>
<trkpt lat="33.7499897" lon="-84.3823404"><time>2026-09-21T14:17:26.000Z</time></trkpt>
<trkpt lat="33.7498142" lon="-84.3825438"><time>2026-09-21T14:17:27.000Z</time></trkpt>
<trkpt lat="33.7496949" lon="-84.3826856"><time>2026-09-21T14:17:28.000Z</time></trkpt>
<trkpt lat="33.7495901" lon="-84.3828841"><time>2026-09-21T14:17:29.000Z</time></trkpt>
<trkpt lat="33.7494425" lon="-84.3830420"><time>2026-09-21T14:17:30.000Z</time></trkpt>
<trkpt lat="33.7493676" lon="-84.3831719"><time>2026-09-21T14:17:31.000Z</time></trkpt>
<trkpt lat="33.7492549" lon="-84.3834031"><time>2026-09-21T14:17:32.000Z</time></trkpt>
<trkpt lat="33.7491388" lon="-84.3834705"><time>2026-09-21T14:17:33.000Z</time></trkpt>
<trkpt lat="33.7490874" lon="-84.3837326"><time>2026-09-21T14:17:34.000Z</time></trkpt>
<trkpt lat="33.7489357" lon="-84.3838423"><time>2026-09-21T14:17:35.000Z</time></trkpt>
<trkpt lat="33.7488546" lon="-84.3841143"><time>2026-09-21T14:17:36.000Z</time></trkpt>
<trkpt lat="33.7487322" lon="-84.3842552"><time>2026-09-21T14:17:37.000Z</time></trkpt>
<trkpt lat="33.7487162" lon="-84.3844965"><time>2026-09-21T14:17:38.000Z</time></trkpt>
<trkpt lat="33.7486837" lon="-84.3847030"><time>2026-09-21T14:17:39.000Z</time></trkpt>
<trkpt lat="33.7485646" lon="-84.3848643"><time>2026-09-21T14:17:40.000Z</time></trkpt>
<trkpt lat="33.7484356" lon="-84.3850597"><time>2026-09-21T14:17:41.000Z</time></trkpt>
<trkpt lat="33.7483835" lon="-84.3852460"><time>2026-09-21T14:17:42.000Z</time></trkpt>
<trkpt lat="33.7483544" lon="-84.3854697"><time>2026-09-21T14:17:43.000Z</time></trkpt>
<trkpt lat="33.7482519" lon="-84.3856577"><time>2026-09-21T14:17:44.000Z</time></trkpt>
<trkpt lat="33.7481837" lon="-84.3857757"><time>2026-09-21T14:17:45.000Z</time></trkpt>
<trkpt lat="33.7480967" lon="-84.3860338"><time>2026-09-21T14:17:46.000Z</time></trkpt>
<trkpt lat="33.7479746" lon="-84.3862277"><time>2026-09-21T14:17:47.000Z</time></trkpt>
<trkpt lat="33.7478660" lon="-84.3864076"><time>2026-09-21T14:17:48.000Z</time></trkpt>
<trkpt lat="33.7477236" lon="-84.3865268"><time>2026-09-21T14:17:49.000Z</time></trkpt>
<trkpt lat="33.7477416" lon="-84.3868513"><time>2026-09-21T14:17:50.000Z</time></trkpt>
<trkpt lat="33.7475238" lon="-84.3868999"><time>2026-09-21T14:17:51.000Z</time></trkpt>
<trkpt lat="33.7474536" lon="-84.3870074"><time>2026-09-21T14:17:52.000Z</time></trkpt>
<trkpt lat="33.7473009" lon="-84.3873198"><time>2026-09-21T14:17:53.000Z</time></trkpt>
<trkpt lat="33.7471980" lon="-84.3874553"><time>2026-09-21T14:17:54.000Z</time></trkpt>
<trkpt lat="33.7471669" lon="-84.3875052"><time>2026-09-21T14:17:55.000Z</time></trkpt>
<trkpt lat="33.7470270" lon="-84.3878111"><time>2026-09-21T14:17:56.000Z</time></trkpt>
<trkpt lat="33.7468651" lon="-84.3877884"><time>2026-09-21T14:17:57.000Z</time></trkpt>
<trkpt lat="33.7467934" lon="-84.3880656"><time>2026-09-21T14:17:58.000Z</time></trkpt>
<trkpt lat="33.7466624" lon="-84.3881744"><time>2026-09-21T14:17:59.000Z</time></trkpt>
<trkpt lat="33.7464983" lon="-84.3884033"><time>2026-09-21T14:18:00.000Z</time></trkpt>
<trkpt lat="33.7463630" lon="-84.3885643"><time>2026-09-21T14:18:01.000Z</time></trkpt>
<trkpt lat="33.7462659" lon="-84.3886470"><time>2026-09-21T14:18:02.000Z</time></trkpt>
<trkpt lat="33.7461211" lon="-84.3888680"><time>2026-09-21T14:18:03.000Z</time></trkpt>
<trkpt lat="33.7460010" lon="-84.3890237"><time>2026-09-21T14:18:04.000Z</time></trkpt>
<trkpt lat="33.7458924" lon="-84.3891979"><time>2026-09-21T14:18:05.000Z</time></trkpt>
<trkpt lat="33.7457801" lon="-84.3893804"><time>2026-09-21T14:18:06.000Z</time></trkpt>
<trkpt lat="33.7456497" lon="-84.3894493"><time>2026-09-21T14:18:07.000Z</time></trkpt>
<trkpt lat="33.7455590" lon="-84.3895888"><time>2026-09-21T14:18:08.000Z</time></trkpt>
<trkpt lat="33.7453866" lon="-84.3898431"><time>2026-09-21T14:18:09.000Z</time></trkpt>
<trkpt lat="33.7452644" lon="-84.3900049"><time>2026-09-21T14:18:10.000Z</time></trkpt>
<trkpt lat="33.7452226" lon="-84.3900927"><time>2026-09-21T14:18:11.000Z</time></trkpt>
<trkpt lat="33.7450758" lon="-84.3902731"><time>2026-09-21T14:18:12.000Z</time></trkpt>
<trkpt lat="33.7449496" lon="-84.3905134"><time>2026-09-21T14:18:13.000Z</time></trkpt>
<trkpt lat="33.7447193" lon="-84.3905692"><time>2026-09-21T14:18:14.000Z</time></trkpt>
<trkpt lat="33.7446483" lon="-84.3907079"><time>2026-09-21T14:18:15.000Z</time></trkpt>
<trkpt lat="33.7445141" lon="-84.3909631"><time>2026-09-21T14:18:16.000Z</time></trkpt>
<trkpt lat="33.7443320" lon="-84.3909892"><time>2026-09-21T14:18:17.000Z</time></trkpt>
<trkpt lat="33.7442532" lon="-84.3910844"><time>2026-09-21T14:18:18.000Z</time></trkpt>
<trkpt lat="33.7440882" lon="-84.3911683"><time>2026-09-21T14:18:19.000Z</time></trkpt>
<trkpt lat="33.7439255" lon="-84.3913032"><time>2026-09-21T14:18:20.000Z</time></trkpt>
<trkpt lat="33.7368326" lon="-84.3921127"><time>2026-09-21T14:19:00.000Z</time></trkpt>
<trkpt lat="33.7365865" lon="-84.3921933"><time>2026-09-21T14:19:01.000Z</time></trkpt>
<trkpt lat="33.7364776" lon="-84.3921305"><time>2026-09-21T14:19:02.000Z</time></trkpt>
<trkpt lat="33.7362549" lon="-84.3922264"><time>2026-09-21T14:19:03.000Z</time></trkpt>
<trkpt lat="33.7360909" lon="-84.3921377"><time>2026-09-21T14:19:04.000Z</time></trkpt>
<trkpt lat="33.7358705" lon="-84.3921968"><time>2026-09-21T14:19:05.000Z</time></trkpt>
<trkpt lat="33.7357328" lon="-84.3922698"><time>2026-09-21T14:19:06.000Z</time></trkpt>
<trkpt lat="33.7355397" lon="-84.3921903"><time>2026-09-21T14:19:07.000Z</time></trkpt>
<trkpt lat="33.7353637" lon="-84.3922185"><time>2026-09-21T14:19:08.000Z</time></trkpt>
<trkpt lat="33.7351971" lon="-84.3922452"><time>2026-09-21T14:19:09.000Z</time></trkpt>
<trkpt lat="33.7350509" lon="-84.3923011"><time>2026-09-21T14:19:10.000Z</time></trkpt>
<trkpt lat="33.7348336" lon="-84.3922364"><time>2026-09-21T14:19:11.000Z</time></trkpt>
<trkpt lat="33.7346814" lon="-84.3922579"><time>2026-09-21T14:19:12.000Z</time></trkpt>
<trkpt lat="33.7345238" lon="-84.3923001"><time>2026-09-21T14:19:13.000Z</time></trkpt>
<trkpt lat="33.7342754" lon="-84.3922225"><time>2026-09-21T14:19:14.000Z</time></trkpt>
<trkpt lat="33.7340622" lon="-84.3923785"><time>2026-09-21T14:19:15.000Z</time></trkpt>
<trkpt lat="33.7339309" lon="-84.3922880"><time>2026-09-21T14:19:16.000Z</time></trkpt>
<trkpt lat="33.7337494" lon="-84.3923472"><time>2026-09-21T14:19:17.000Z</time></trkpt>
<trkpt lat="33.7336096" lon="-84.3923337"><time>2026-09-21T14:19:18.000Z</time></trkpt>
<trkpt lat="33.7334493" lon="-84.3923858"><time>2026-09-21T14:19:19.000Z</time></trkpt>
<trkpt lat="33.7331681" lon="-84.3923071"><time>2026-09-21T14:19:20.000Z</time></trkpt>
<trkpt lat="33.7330053" lon="-84.3923020"><time>2026-09-21T14:19:21.000Z</time></trkpt>
<trkpt lat="33.7328835" lon="-84.3922922"><time>2026-09-21T14:19:22.000Z</time></trkpt>
<trkpt lat="33.7326670" lon="-84.3923488"><time>2026-09-21T14:19:23.000Z</time></trkpt>
<trkpt lat="33.7324786" lon="-84.3924533"><time>2026-09-21T14:19:24.000Z</time></trkpt>
<trkpt lat="33.7322878" lon="-84.3923092"><time>2026-09-21T14:19:25.000Z</time></trkpt>
<trkpt lat="33.7321024" lon="-84.3922556"><time>2026-09-21T14:19:26.000Z</time></trkpt>
<trkpt lat="33.7319976" lon="-84.3923583"><time>2026-09-21T14:19:27.000Z</time></trkpt>
<trkpt lat="33.7318103" lon="-84.3923616"><time>2026-09-21T14:19:28.000Z</time></trkpt>
<trkpt lat="33.7315791" lon="-84.3923688"><time>2026-09-21T14:19:29.000Z</time></trkpt>
<trkpt lat="33.7314143" lon="-84.3923670"><time>2026-09-21T14:19:30.000Z</time></trkpt>
<trkpt lat="33.7312425" lon="-84.3924586"><time>2026-09-21T14:19:31.000Z</time></trkpt>
<trkpt lat="33.7310708" lon="-84.3924465"><time>2026-09-21T14:19:32.000Z</time></trkpt>
<trkpt lat="33.7308737" lon="-84.3925829"><time>2026-09-21T14:19:33.000Z</time></trkpt>
<trkpt lat="33.7306430" lon="-84.3925234"><time>2026-09-21T14:19:34.000Z</time></trkpt>
<trkpt lat="33.7305464" lon="-84.3925246"><time>2026-09-21T14:19:35.000Z</time></trkpt>
<trkpt lat="33.7304216" lon="-84.3926467"><time>2026-09-21T14:19:36.000Z</time></trkpt>
<trkpt lat="33.7302685" lon="-84.3926674"><time>2026-09-21T14:19:37.000Z</time></trkpt>
<trkpt lat="33.7300008" lon="-84.3928107"><time>2026-09-21T14:19:38.000Z</time></trkpt>
<trkpt lat="33.7297825" lon="-84.3929505"><time>2026-09-21T14:19:39.000Z</time></trkpt>
<trkpt lat="33.7296161" lon="-84.3929525"><time>2026-09-21T14:19:40.000Z</time></trkpt>
<trkpt lat="33.7295177" lon="-84.3930153"><time>2026-09-21T14:19:41.000Z</time></trkpt>
<trkpt lat="33.7293093" lon="-84.3930610"><time>2026-09-21T14:19:42.000Z</time></trkpt>
<trkpt lat="33.7291262" lon="-84.3931516"><time>2026-09-21T14:19:43.000Z</time></trkpt>
<trkpt lat="33.7290094" lon="-84.3931016"><time>2026-09-21T14:19:44.000Z</time></trkpt>
<trkpt lat="33.7288144" lon="-84.3932087"><time>2026-09-21T14:19:45.000Z</time></trkpt>
<trkpt lat="33.7287045" lon="-84.3933026"><time>2026-09-21T14:19:46.000Z</time></trkpt>
<trkpt lat="33.7284591" lon="-84.3933809"><time>2026-09-21T14:19:47.000Z</time></trkpt>
<trkpt lat="33.7283388" lon="-84.3934879"><time>2026-09-21T14:19:48.000Z</time></trkpt>
<trkpt lat="33.7281299" lon="-84.3934871"><time>2026-09-21T14:19:49.000Z</time></trkpt>
<trkpt lat="33.7279981" lon="-84.3935623"><time>2026-09-21T14:19:50.000Z</time></trkpt>
<trkpt lat="33.7277660" lon="-84.3935605"><time>2026-09-21T14:19:51.000Z</time></trkpt>
<trkpt lat="33.7275850" lon="-84.3935885"><time>2026-09-21T14:19:52.000Z</time></trkpt>
<trkpt lat="33.7273587" lon="-84.3936500"><time>2026-09-21T14:19:53.000Z</time></trkpt>
<trkpt lat="33.7272215" lon="-84.3937343"><time>2026-09-21T14:19:54.000Z</time></trkpt>
<trkpt lat="33.7269793" lon="-84.3937771"><time>2026-09-21T14:19:55.000Z</time></trkpt>
<trkpt lat="33.7268966" lon="-84.3937569"><time>2026-09-21T14:19:56.000Z</time></trkpt>
<trkpt lat="33.7267524" lon="-84.3937248"><time>2026-09-21T14:19:57.000Z</time></trkpt>
<trkpt lat="33.7265324" lon="-84.3938570"><time>2026-09-21T14:19:58.000Z</time></trkpt>
<trkpt lat="33.7263657" lon="-84.3938249"><time>2026-09-21T14:19:59.000Z</time></trkpt>
<trkpt lat="33.7261259" lon="-84.3938556"><time>2026-09-21T14:20:00.000Z</time></trkpt>
<trkpt lat="33.7259592" lon="-84.3938392"><time>2026-09-21T14:20:01.000Z</time></trkpt>
<trkpt lat="33.7257859" lon="-84.3938961"><time>2026-09-21T14:20:02.000Z</time></trkpt>
<trkpt lat="33.7256362" lon="-84.3939293"><time>2026-09-21T14:20:03.000Z</time></trkpt>
<trkpt lat="33.7254694" lon="-84.3938361"><time>2026-09-21T14:20:04.000Z</time></trkpt>
<trkpt lat="33.7252654" lon="-84.3938775"><time>2026-09-21T14:20:05.000Z</time></trkpt>
<trkpt lat="33.7251251" lon="-84.3939965"><time>2026-09-21T14:20:06.000Z</time></trkpt>
<trkpt lat="33.7248825" lon="-84.3939608"><time>2026-09-21T14:20:07.000Z</time></trkpt>
<trkpt lat="33.7247322" lon="-84.3938942"><time>2026-09-21T14:20:08.000Z</time></trkpt>
<trkpt lat="33.7245842" lon="-84.3940025"><time>2026-09-21T14:20:09.000Z</time></trkpt>
<trkpt lat="33.7243334" lon="-84.3941194"><time>2026-09-21T14:20:10.000Z</time></trkpt>
<trkpt lat="33.7241604" lon="-84.3940361"><time>2026-09-21T14:20:11.000Z</time></trkpt>
<trkpt lat="33.7240203" lon="-84.3940777"><time>2026-09-21T14:20:12.000Z</time></trkpt>
<trkpt lat="33.7238086" lon="-84.3941084"><time>2026-09-21T14:20:13.000Z</time></trkpt>
<trkpt lat="33.7236625" lon="-84.3941760"><time>2026-09-21T14:20:14.000Z</time></trkpt>
<trkpt lat="33.7234189" lon="-84.3942515"><time>2026-09-21T14:20:15.000Z</time></trkpt>
<trkpt lat="33.7233468" lon="-84.3943772"><time>2026-09-21T14:20:16.000Z</time></trkpt>
<trkpt lat="33.7231163" lon="-84.3943701"><time>2026-09-21T14:20:17.000Z</time></trkpt>
<trkpt lat="33.7230460" lon="-84.3944584"><time>2026-09-21T14:20:18.000Z</time></trkpt>
<trkpt lat="33.7227781" lon="-84.3945276"><time>2026-09-21T14:20:19.000Z</time></trkpt>
<trkpt lat="33.7226598" lon="-84.3946741"><time>2026-09-21T14:20:20.000Z</time></trkpt>
<trkpt lat="33.7225245" lon="-84.3947378"><time>2026-09-21T14:20:21.000Z</time></trkpt>
<trkpt lat="33.7223673" lon="-84.3948831"><time>2026-09-21T14:20:22.000Z</time></trkpt>
<trkpt lat="33.7222193" lon="-84.3949678"><time>2026-09-21T14:20:23.000Z</time></trkpt>
<trkpt lat="33.7220432" lon="-84.3950624"><time>2026-09-21T14:20:24.000Z</time></trkpt>
<trkpt lat="33.7218803" lon="-84.3951784"><time>2026-09-21T14:20:25.000Z</time></trkpt>
<trkpt lat="33.7217744" lon="-84.3952461"><time>2026-09-21T14:20:26.000Z</time></trkpt>
<trkpt lat="33.7216021" lon="-84.3954394"><time>2026-09-21T14:20:27.000Z</time></trkpt>
<trkpt lat="33.7213577" lon="-84.3955129"><time>2026-09-21T14:20:28.000Z</time></trkpt>
<trkpt lat="33.7212981" lon="-84.3956697"><time>2026-09-21T14:20:29.000Z</time></trkpt>
<trkpt lat="33.7211012" lon="-84.3957574"><time>2026-09-21T14:20:30.000Z</time></trkpt>
<trkpt lat="33.7209955" lon="-84.3958433"><time>2026-09-21T14:20:31.000Z</time></trkpt>
<trkpt lat="33.7208474" lon="-84.3959995"><time>2026-09-21T14:20:32.000Z</time></trkpt>
<trkpt lat="33.7206624" lon="-84.3960932"><time>2026-09-21T14:20:33.000Z</time></trkpt>
<trkpt lat="33.7204869" lon="-84.3962368"><time>2026-09-21T14:20:34.000Z</time></trkpt>
<trkpt lat="33.7203875" lon="-84.3963331"><time>2026-09-21T14:20:35.000Z</time></trkpt>
<trkpt lat="33.7202342" lon="-84.3963882"><time>2026-09-21T14:20:36.000Z</time></trkpt>
<trkpt lat="33.7200536" lon="-84.3965475"><time>2026-09-21T14:20:37.000Z</time></trkpt>
<trkpt lat="33.7199193" lon="-84.3966512"><time>2026-09-21T14:20:38.000Z</time></trkpt>
<trkpt lat="33.7197445" lon="-84.3967188"><time>2026-09-21T14:20:39.000Z</time></trkpt>
<trkpt lat="33.7195946" lon="-84.3968292"><time>2026-09-21T14:20:40.000Z</time></trkpt>
<trkpt lat="33.7193798" lon="-84.3969594"><time>2026-09-21T14:20:41.000Z</time></trkpt>
<trkpt lat="33.7192444" lon="-84.3970518"><time>2026-09-21T14:20:42.000Z</time></trkpt>
<trkpt lat="33.7191154" lon="-84.3972291"><time>2026-09-21T14:20:43.000Z</time></trkpt>
<trkpt lat="33.7189356" lon="-84.3972527"><time>2026-09-21T14:20:44.000Z</time></trkpt>
<trkpt lat="33.7188368" lon="-84.3974754"><time>2026-09-21T14:20:45.000Z</time></trkpt>
<trkpt lat="33.7187115" lon="-84.3975821"><time>2026-09-21T14:20:46.000Z</time></trkpt>
<trkpt lat="33.7185410" lon="-84.3976936"><time>2026-09-21T14:20:47.000Z</time></trkpt>
<trkpt lat="33.7183117" lon="-84.3978055"><time>2026-09-21T14:20:48.000Z</time></trkpt>
<trkpt lat="33.7181675" lon="-84.3978834"><time>2026-09-21T14:20:49.000Z</time></trkpt>
<trkpt lat="33.7179868" lon="-84.3979349"><time>2026-09-21T14:20:50.000Z</time></trkpt>
<trkpt lat="33.7178070" lon="-84.3980597"><time>2026-09-21T14:20:51.000Z</time></trkpt>
<trkpt lat="33.7176712" lon="-84.3980868"><time>2026-09-21T14:20:52.000Z</time></trkpt>
<trkpt lat="33.7175461" lon="-84.3981843"><time>2026-09-21T14:20:53.000Z</time></trkpt>
<trkpt lat="33.7173366" lon="-84.3982608"><time>2026-09-21T14:20:54.000Z</time></trkpt>
<trkpt lat="33.7171919" lon="-84.3983795"><time>2026-09-21T14:20:55.000Z</time></trkpt>
<trkpt lat="33.7170414" lon="-84.3985297"><time>2026-09-21T14:20:56.000Z</time></trkpt>
<trkpt lat="33.7168570" lon="-84.3985221"><time>2026-09-21T14:20:57.000Z</time></trkpt>
<trkpt lat="33.7167268" lon="-84.3985540"><time>2026-09-21T14:20:58.000Z</time></trkpt>
<trkpt lat="33.7165334" lon="-84.3985992"><time>2026-09-21T14:20:59.000Z</time></trkpt>
<trkpt lat="33.7163384" lon="-84.3987505"><time>2026-09-21T14:21:00.000Z</time></trkpt>
<trkpt lat="33.7161764" lon="-84.3987403"><time>2026-09-21T14:21:01.000Z</time></trkpt>
<trkpt lat="33.7159648" lon="-84.3987350"><time>2026-09-21T14:21:02.000Z</time></trkpt>
<trkpt lat="33.7158529" lon="-84.3988846"><time>2026-09-21T14:21:03.000Z</time></trkpt>
<trkpt lat="33.7156581" lon="-84.3989303"><time>2026-09-21T14:21:04.000Z</time></trkpt>
<trkpt lat="33.7154461" lon="-84.3989648"><time>2026-09-21T14:21:05.000Z</time></trkpt>
<trkpt lat="33.7152428" lon="-84.3990822"><time>2026-09-21T14:21:06.000Z</time></trkpt>
<trkpt lat="33.7151120" lon="-84.3992073"><time>2026-09-21T14:21:07.000Z</time></trkpt>
<trkpt lat="33.7149485" lon="-84.3992512"><time>2026-09-21T14:21:08.000Z</time></trkpt>
<trkpt lat="33.7148080" lon="-84.3994280"><time>2026-09-21T14:21:09.000Z</time></trkpt>
<trkpt lat="33.7146410" lon="-84.3992771"><time>2026-09-21T14:21:10.000Z</time></trkpt>
<trkpt lat="33.7144829" lon="-84.3995326"><time>2026-09-21T14:21:11.000Z</time></trkpt>
<trkpt lat="33.7142520" lon="-84.3995621"><time>2026-09-21T14:21:12.000Z</time></trkpt>
<trkpt lat="33.7142433" lon="-84.3996698"><time>2026-09-21T14:21:13.000Z</time></trkpt>
<trkpt lat="33.7140166" lon="-84.3998256"><time>2026-09-21T14:21:14.000Z</time></trkpt>
<trkpt lat="33.7138673" lon="-84.3999110"><time>2026-09-21T14:21:15.000Z</time></trkpt>
<trkpt lat="33.7137308" lon="-84.4000622"><time>2026-09-21T14:21:16.000Z</time></trkpt>
<trkpt lat="33.7135790" lon="-84.4001510"><time>2026-09-21T14:21:17.000Z</time></trkpt>
<trkpt lat="33.7133473" lon="-84.4003160"><time>2026-09-21T14:21:18.000Z</time></trkpt>
<trkpt lat="33.7132988" lon="-84.4004648"><time>2026-09-21T14:21:19.000Z</time></trkpt>
<trkpt lat="33.7131316" lon="-84.4005826"><time>2026-09-21T14:21:20.000Z</time></trkpt>
<trkpt lat="33.7130013" lon="-84.4007717"><time>2026-09-21T14:21:21.000Z</time></trkpt>
<trkpt lat="33.7128298" lon="-84.4009073"><time>2026-09-21T14:21:22.000Z</time></trkpt>
<trkpt lat="33.7127332" lon="-84.4009393"><time>2026-09-21T14:21:23.000Z</time></trkpt>
<trkpt lat="33.7125412" lon="-84.4011054"><time>2026-09-21T14:21:24.000Z</time></trkpt>
<trkpt lat="33.7123636" lon="-84.4011283"><time>2026-09-21T14:21:25.000Z</time></trkpt>
<trkpt lat="33.7121571" lon="-84.4012306"><time>2026-09-21T14:21:26.000Z</time></trkpt>
<trkpt lat="33.7120121" lon="-84.4013988"><time>2026-09-21T14:21:27.000Z</time></trkpt>
<trkpt lat="33.7118692" lon="-84.4013400"><time>2026-09-21T14:21:28.000Z</time></trkpt>
<trkpt lat="33.7117943" lon="-84.4014887"><time>2026-09-21T14:21:29.000Z</time></trkpt>
<trkpt lat="33.7114969" lon="-84.4015358"><time>2026-09-21T14:21:30.000Z</time></trkpt>
<trkpt lat="33.7114433" lon="-84.4016872"><time>2026-09-21T14:21:31.000Z</time></trkpt>
<trkpt lat="33.7112594" lon="-84.4017646"><time>2026-09-21T14:21:32.000Z</time></trkpt>
<trkpt lat="33.7110851" lon="-84.4018679"><time>2026-09-21T14:21:33.000Z</time></trkpt>
<trkpt lat="33.7108359" lon="-84.4019576"><time>2026-09-21T14:21:34.000Z</time></trkpt>
<trkpt lat="33.7107256" lon="-84.4020352"><time>2026-09-21T14:21:35.000Z</time></trkpt>
<trkpt lat="33.7105172" lon="-84.4020496"><time>2026-09-21T14:21:36.000Z</time></trkpt>
<trkpt lat="33.7103316" lon="-84.4022203"><time>2026-09-21T14:21:37.000Z</time></trkpt>
<trkpt lat="33.7102161" lon="-84.4022574"><time>2026-09-21T14:21:38.000Z</time></trkpt>
<trkpt lat="33.7100298" lon="-84.4023450"><time>2026-09-21T14:21:39.000Z</time></trkpt>
<trkpt lat="33.7098836" lon="-84.4022920"><time>2026-09-21T14:21:40.000Z</time></trkpt>
<trkpt lat="33.7096361" lon="-84.4023354"><time>2026-09-21T14:21:41.000Z</time></trkpt>
<trkpt lat="33.7095056" lon="-84.4025109"><time>2026-09-21T14:21:42.000Z</time></trkpt>
<trkpt lat="33.7092658" lon="-84.4025363"><time>2026-09-21T14:21:43.000Z</time></trkpt>
<trkpt lat="33.7091795" lon="-84.4025359"><time>2026-09-21T14:21:44.000Z</time></trkpt>
<trkpt lat="33.7088885" lon="-84.4027842"><time>2026-09-21T14:21:45.000Z</time></trkpt>
<trkpt lat="33.7087893" lon="-84.4027063"><time>2026-09-21T14:21:46.000Z</time></trkpt>
<trkpt lat="33.7086997" lon="-84.4027284"><time>2026-09-21T14:21:47.000Z</time></trkpt>
<trkpt lat="33.7085080" lon="-84.4028685"><time>2026-09-21T14:21:48.000Z</time></trkpt>
<trkpt lat="33.7082448" lon="-84.4028434"><time>2026-09-21T14:21:49.000Z</time></trkpt>
<trkpt lat="33.7081994" lon="-84.4029607"><time>2026-09-21T14:21:50.000Z</time></trkpt>
<trkpt lat="33.7079746" lon="-84.4030096"><time>2026-09-21T14:21:51.000Z</time></trkpt>
<trkpt lat="33.7077771" lon="-84.4030801"><time>2026-09-21T14:21:52.000Z</time></trkpt>
<trkpt lat="33.7076030" lon="-84.4032445"><time>2026-09-21T14:21:53.000Z</time></trkpt>
<trkpt lat="33.7075272" lon="-84.4032984"><time>2026-09-21T14:21:54.000Z</time></trkpt>
<trkpt lat="33.7072993" lon="-84.4033421"><time>2026-09-21T14:21:55.000Z</time></trkpt>
<trkpt lat="33.7071647" lon="-84.4034018"><time>2026-09-21T14:21:56.000Z</time></trkpt>
<trkpt lat="33.7069364" lon="-84.4034262"><time>2026-09-21T14:21:57.000Z</time></trkpt>
<trkpt lat="33.7067821" lon="-84.4034318"><time>2026-09-21T14:21:58.000Z</time></trkpt>
<trkpt lat="33.7066130" lon="-84.4035586"><time>2026-09-21T14:21:59.000Z</time></trkpt>
<trkpt lat="33.7064579" lon="-84.4036656"><time>2026-09-21T14:22:00.000Z</time></trkpt>
<trkpt lat="33.7062762" lon="-84.4036345"><time>2026-09-21T14:22:01.000Z</time></trkpt>
<trkpt lat="33.7061611" lon="-84.4036228"><time>2026-09-21T14:22:02.000Z</time></trkpt>
<trkpt lat="33.7059568" lon="-84.4038368"><time>2026-09-21T14:22:03.000Z</time></trkpt>
<trkpt lat="33.7057236" lon="-84.4037970"><time>2026-09-21T14:22:04.000Z</time></trkpt>
<trkpt lat="33.7055853" lon="-84.4037337"><time>2026-09-21T14:22:05.000Z</time></trkpt>
<trkpt lat="33.7054102" lon="-84.4039394"><time>2026-09-21T14:22:06.000Z</time></trkpt>
<trkpt lat="33.7052193" lon="-84.4038878"><time>2026-09-21T14:22:07.000Z</time></trkpt>
<trkpt lat="33.7049900" lon="-84.4039415"><time>2026-09-21T14:22:08.000Z</time></trkpt>
<trkpt lat="33.7048608" lon="-84.4039833"><time>2026-09-21T14:22:09.000Z</time></trkpt>
<trkpt lat="33.7046772" lon="-84.4040079"><time>2026-09-21T14:22:10.000Z</time></trkpt>
<trkpt lat="33.7044371" lon="-84.4040244"><time>2026-09-21T14:22:11.000Z</time></trkpt>
<trkpt lat="33.7042758" lon="-84.4040985"><time>2026-09-21T14:22:12.000Z</time></trkpt>
<trkpt lat="33.7041244" lon="-84.4040428"><time>2026-09-21T14:22:13.000Z</time></trkpt>
<trkpt lat="33.7039502" lon="-84.4041171"><time>2026-09-21T14:22:14.000Z</time></trkpt>
<trkpt lat="33.7038276" lon="-84.4040961"><time>2026-09-21T14:22:15.000Z</time></trkpt>
<trkpt lat="33.7035554" lon="-84.4040953"><time>2026-09-21T14:22:16.000Z</time></trkpt>
<trkpt lat="33.7033329" lon="-84.4041084"><time>2026-09-21T14:22:17.000Z</time></trkpt>
<trkpt lat="33.7031783" lon="-84.4040632"><time>2026-09-21T14:22:18.000Z</time></trkpt>
<trkpt lat="33.7030521" lon="-84.4041357"><time>2026-09-21T14:22:19.000Z</time></trkpt>
<trkpt lat="33.7027969" lon="-84.4041189"><time>2026-09-21T14:22:20.000Z</time></trkpt>
<trkpt lat="33.7026933" lon="-84.4041311"><time>2026-09-21T14:22:21.000Z</time></trkpt>
<trkpt lat="33.7024599" lon="-84.4041452"><time>2026-09-21T14:22:22.000Z</time></trkpt>
<trkpt lat="33.7022779" lon="-84.4041083"><time>2026-09-21T14:22:23.000Z</time></trkpt>
<trkpt lat="33.7020804" lon="-84.4041871"><time>2026-09-21T14:22:24.000Z</time></trkpt>
<trkpt lat="33.7019180" lon="-84.4041991"><time>2026-09-21T14:22:25.000Z</time></trkpt>
<trkpt lat="33.7017105" lon="-84.4042021"><time>2026-09-21T14:22:26.000Z</time></trkpt>
<trkpt lat="33.7015497" lon="-84.4041998"><time>2026-09-21T14:22:27.000Z</time></trkpt>
<trkpt lat="33.7014067" lon="-84.4041303"><time>2026-09-21T14:22:28.000Z</time></trkpt>
<trkpt lat="33.7012240" lon="-84.4041324"><time>2026-09-21T14:22:29.000Z</time></trkpt>
<trkpt lat="33.7011190" lon="-84.4041885"><time>2026-09-21T14:22:30.000Z</time></trkpt>
<trkpt lat="33.7009021" lon="-84.4042231"><time>2026-09-21T14:22:31.000Z</time></trkpt>
<trkpt lat="33.7007021" lon="-84.4042666"><time>2026-09-21T14:22:32.000Z</time></trkpt>
<trkpt lat="33.7004721" lon="-84.4042752"><time>2026-09-21T14:22:33.000Z</time></trkpt>
<trkpt lat="33.7003857" lon="-84.4042522"><time>2026-09-21T14:22:34.000Z</time></trkpt>
<trkpt lat="33.7001589" lon="-84.4043379"><time>2026-09-21T14:22:35.000Z</time></trkpt>
<trkpt lat="33.7000445" lon="-84.4044246"><time>2026-09-21T14:22:36.000Z</time></trkpt>
<trkpt lat="33.6998326" lon="-84.4043522"><time>2026-09-21T14:22:37.000Z</time></trkpt>
<trkpt lat="33.6996550" lon="-84.4045006"><time>2026-09-21T14:22:38.000Z</time></trkpt>
<trkpt lat="33.6994707" lon="-84.4044431"><time>2026-09-21T14:22:39.000Z</time></trkpt>
<trkpt lat="33.6993756" lon="-84.4044733"><time>2026-09-21T14:22:40.000Z</time></trkpt>
<trkpt lat="33.6991375" lon="-84.4046484"><time>2026-09-21T14:22:41.000Z</time></trkpt>
<trkpt lat="33.6989209" lon="-84.4046458"><time>2026-09-21T14:22:42.000Z</time></trkpt>
<trkpt lat="33.6988066" lon="-84.4046391"><time>2026-09-21T14:22:43.000Z</time></trkpt>
<trkpt lat="33.6985624" lon="-84.4047145"><time>2026-09-21T14:22:44.000Z</time></trkpt>
<trkpt lat="33.6984503" lon="-84.4047837"><time>2026-09-21T14:22:45.000Z</time></trkpt>
<trkpt lat="33.6983176" lon="-84.4048434"><time>2026-09-21T14:22:46.000Z</time></trkpt>
<trkpt lat="33.6979738" lon="-84.4047324"><time>2026-09-21T14:22:47.000Z</time></trkpt>
<trkpt lat="33.6978238" lon="-84.4049062"><time>2026-09-21T14:22:48.000Z</time></trkpt>
<trkpt lat="33.6976958" lon="-84.4048803"><time>2026-09-21T14:22:49.000Z</time></trkpt>
<trkpt lat="33.6975063" lon="-84.4048957"><time>2026-09-21T14:22:50.000Z</time></trkpt>
<trkpt lat="33.6973551" lon="-84.4049463"><time>2026-09-21T14:22:51.000Z</time></trkpt>
<trkpt lat="33.6971622" lon="-84.4049391"><time>2026-09-21T14:22:52.000Z</time></trkpt>
<trkpt lat="33.6969680" lon="-84.4049210"><time>2026-09-21T14:22:53.000Z</time></trkpt>
<trkpt lat="33.6967851" lon="-84.4049578"><time>2026-09-21T14:22:54.000Z</time></trkpt>
<trkpt lat="33.6966164" lon="-84.4049858"><time>2026-09-21T14:22:55.000Z</time></trkpt>
<trkpt lat="33.6963944" lon="-84.4050778"><time>2026-09-21T14:22:56.000Z</time></trkpt>
<trkpt lat="33.6962532" lon="-84.4050937"><time>2026-09-21T14:22:57.000Z</time></trkpt>
<trkpt lat="33.6960690" lon="-84.4050483"><time>2026-09-21T14:22:58.000Z</time></trkpt>
<trkpt lat="33.6959304" lon="-84.4050678"><time>2026-09-21T14:22:59.000Z</time></trkpt>
<trkpt lat="33.6957145" lon="-84.4049693"><time>2026-09-21T14:23:00.000Z</time></trkpt>
<trkpt lat="33.6956112" lon="-84.4049705"><time>2026-09-21T14:23:01.000Z</time></trkpt>
<trkpt lat="33.6954272" lon="-84.4049062"><time>2026-09-21T14:23:02.000Z</time></trkpt>
<trkpt lat="33.6951833" lon="-84.4048894"><time>2026-09-21T14:23:03.000Z</time></trkpt>
<trkpt lat="33.6949965" lon="-84.4047786"><time>2026-09-21T14:23:04.000Z</time></trkpt>
<trkpt lat="33.6948277" lon="-84.4047858"><time>2026-09-21T14:23:05.000Z</time></trkpt>
<trkpt lat="33.6947143" lon="-84.4046665"><time>2026-09-21T14:23:06.000Z</time></trkpt>
<trkpt lat="33.6945456" lon="-84.4046046"><time>2026-09-21T14:23:07.000Z</time></trkpt>
<trkpt lat="33.6942993" lon="-84.4044807"><time>2026-09-21T14:23:08.000Z</time></trkpt>
<trkpt lat="33.6942057" lon="-84.4044275"><time>2026-09-21T14:23:09.000Z</time></trkpt>
<trkpt lat="33.6940393" lon="-84.4042239"><time>2026-09-21T14:23:10.000Z</time></trkpt>
<trkpt lat="33.6939053" lon="-84.4042104"><time>2026-09-21T14:23:11.000Z</time></trkpt>
<trkpt lat="33.6937169" lon="-84.4040950"><time>2026-09-21T14:23:12.000Z</time></trkpt>
<trkpt lat="33.6935950" lon="-84.4039560"><time>2026-09-21T14:23:13.000Z</time></trkpt>
<trkpt lat="33.6934805" lon="-84.4038645"><time>2026-09-21T14:23:14.000Z</time></trkpt>
<trkpt lat="33.6933049" lon="-84.4037071"><time>2026-09-21T14:23:15.000Z</time></trkpt>
<trkpt lat="33.6931220" lon="-84.4036508"><time>2026-09-21T14:23:16.000Z</time></trkpt>
<trkpt lat="33.6929945" lon="-84.4035530"><time>2026-09-21T14:23:17.000Z</time></trkpt>
<trkpt lat="33.6928626" lon="-84.4034343"><time>2026-09-21T14:23:18.000Z</time></trkpt>
<trkpt lat="33.6926778" lon="-84.4032263"><time>2026-09-21T14:23:19.000Z</time></trkpt>
<trkpt lat="33.6924974" lon="-84.4030635"><time>2026-09-21T14:23:20.000Z</time></trkpt>
<trkpt lat="33.6923758" lon="-84.4030782"><time>2026-09-21T14:23:21.000Z</time></trkpt>
<trkpt lat="33.6921947" lon="-84.4029256"><time>2026-09-21T14:23:22.000Z</time></trkpt>
<trkpt lat="33.6921083" lon="-84.4027685"><time>2026-09-21T14:23:23.000Z</time></trkpt>
<trkpt lat="33.6919337" lon="-84.4026861"><time>2026-09-21T14:23:24.000Z</time></trkpt>
<trkpt lat="33.6917471" lon="-84.4025383"><time>2026-09-21T14:23:25.000Z</time></trkpt>
<trkpt lat="33.6915624" lon="-84.4025038"><time>2026-09-21T14:23:26.000Z</time></trkpt>
<trkpt lat="33.6914289" lon="-84.4022992"><time>2026-09-21T14:23:27.000Z</time></trkpt>
<trkpt lat="33.6913410" lon="-84.4022120"><time>2026-09-21T14:23:28.000Z</time></trkpt>
<trkpt lat="33.6911112" lon="-84.4021070"><time>2026-09-21T14:23:29.000Z</time></trkpt>
<trkpt lat="33.6910063" lon="-84.4019292"><time>2026-09-21T14:23:30.000Z</time></trkpt>
<trkpt lat="33.6908716" lon="-84.4018087"><time>2026-09-21T14:23:31.000Z</time></trkpt>
<trkpt lat="33.6907866" lon="-84.4017663"><time>2026-09-21T14:23:32.000Z</time></trkpt>
<trkpt lat="33.6905595" lon="-84.4015881"><time>2026-09-21T14:23:33.000Z</time></trkpt>
<trkpt lat="33.6903836" lon="-84.4015119"><time>2026-09-21T14:23:34.000Z</time></trkpt>
<trkpt lat="33.6902535" lon="-84.4014088"><time>2026-09-21T14:23:35.000Z</time></trkpt>
<trkpt lat="33.6901140" lon="-84.4012690"><time>2026-09-21T14:23:36.000Z</time></trkpt>
<trkpt lat="33.6899293" lon="-84.4011835"><time>2026-09-21T14:23:37.000Z</time></trkpt>
<trkpt lat="33.6897871" lon="-84.4010263"><time>2026-09-21T14:23:38.000Z</time></trkpt>
<trkpt lat="33.6896828" lon="-84.4008856"><time>2026-09-21T14:23:39.000Z</time></trkpt>
<trkpt lat="33.6894775" lon="-84.4008200"><time>2026-09-21T14:23:40.000Z</time></trkpt>
<trkpt lat="33.6893524" lon="-84.4006758"><time>2026-09-21T14:23:41.000Z</time></trkpt>
<trkpt lat="33.6892023" lon="-84.4005395"><time>2026-09-21T14:23:42.000Z</time></trkpt>
<trkpt lat="33.6890432" lon="-84.4003454"><time>2026-09-21T14:23:43.000Z</time></trkpt>
<trkpt lat="33.6888459" lon="-84.4003220"><time>2026-09-21T14:23:44.000Z</time></trkpt>
<trkpt lat="33.6887853" lon="-84.4001795"><time>2026-09-21T14:23:45.000Z</time></trkpt>
<trkpt lat="33.6886348" lon="-84.4000375"><time>2026-09-21T14:23:46.000Z</time></trkpt>
<trkpt lat="33.6884353" lon="-84.4000472"><time>2026-09-21T14:23:47.000Z</time></trkpt>
<trkpt lat="33.6883326" lon="-84.3999017"><time>2026-09-21T14:23:48.000Z</time></trkpt>
<trkpt lat="33.6881727" lon="-84.3997571"><time>2026-09-21T14:23:49.000Z</time></trkpt>
<trkpt lat="33.6879940" lon="-84.3996750"><time>2026-09-21T14:23:50.000Z</time></trkpt>
<trkpt lat="33.6877633" lon="-84.3995527"><time>2026-09-21T14:23:51.000Z</time></trkpt>
<trkpt lat="33.6876854" lon="-84.3994773"><time>2026-09-21T14:23:52.000Z</time></trkpt>
<trkpt lat="33.6875118" lon="-84.3993951"><time>2026-09-21T14:23:53.000Z</time></trkpt>
<trkpt lat="33.6872872" lon="-84.3993452"><time>2026-09-21T14:23:54.000Z</time></trkpt>
<trkpt lat="33.6870968" lon="-84.3992181"><time>2026-09-21T14:23:55.000Z</time></trkpt>
<trkpt lat="33.6869315" lon="-84.3991719"><time>2026-09-21T14:23:56.000Z</time></trkpt>
<trkpt lat="33.6868079" lon="-84.3991391"><time>2026-09-21T14:23:57.000Z</time></trkpt>
<trkpt lat="33.6866502" lon="-84.3990236"><time>2026-09-21T14:23:58.000Z</time></trkpt>
<trkpt lat="33.6864120" lon="-84.3990174"><time>2026-09-21T14:23:59.000Z</time></trkpt>
<trkpt lat="33.6862539" lon="-84.3990031"><time>2026-09-21T14:24:00.000Z</time></trkpt>
<trkpt lat="33.6860888" lon="-84.3990687"><time>2026-09-21T14:24:01.000Z</time></trkpt>
<trkpt lat="33.6859176" lon="-84.3988827"><time>2026-09-21T14:24:02.000Z</time></trkpt>
<trkpt lat="33.6857138" lon="-84.3990035"><time>2026-09-21T14:24:03.000Z</time></trkpt>
<trkpt lat="33.6855978" lon="-84.3988980"><time>2026-09-21T14:24:04.000Z</time></trkpt>
<trkpt lat="33.6853950" lon="-84.3989246"><time>2026-09-21T14:24:05.000Z</time></trkpt>
<trkpt lat="33.6851935" lon="-84.3989261"><time>2026-09-21T14:24:06.000Z</time></trkpt>
<trkpt lat="33.6851035" lon="-84.3989564"><time>2026-09-21T14:24:07.000Z</time></trkpt>
<trkpt lat="33.6848410" lon="-84.3988486"><time>2026-09-21T14:24:08.000Z</time></trkpt>
<trkpt lat="33.6847235" lon="-84.3989005"><time>2026-09-21T14:24:09.000Z</time></trkpt>
<trkpt lat="33.6844098" lon="-84.3990321"><time>2026-09-21T14:24:10.000Z</time></trkpt>
<trkpt lat="33.6843161" lon="-84.3988681"><time>2026-09-21T14:24:11.000Z</time></trkpt>
<trkpt lat="33.6840609" lon="-84.3989697"><time>2026-09-21T14:24:12.000Z</time></trkpt>
<trkpt lat="33.6839499" lon="-84.3989611"><time>2026-09-21T14:24:13.000Z</time></trkpt>
<trkpt lat="33.6837738" lon="-84.3989999"><time>2026-09-21T14:24:14.000Z</time></trkpt>
<trkpt lat="33.6836119" lon="-84.3989640"><time>2026-09-21T14:24:15.000Z</time></trkpt>
<trkpt lat="33.6833938" lon="-84.3988502"><time>2026-09-21T14:24:16.000Z</time></trkpt>
<trkpt lat="33.6831642" lon="-84.3989046"><time>2026-09-21T14:24:17.000Z</time></trkpt>
<trkpt lat="33.6830271" lon="-84.3989403"><time>2026-09-21T14:24:18.000Z</time></trkpt>
<trkpt lat="33.6828060" lon="-84.3989462"><time>2026-09-21T14:24:19.000Z</time></trkpt>
<trkpt lat="33.6826733" lon="-84.3988685"><time>2026-09-21T14:24:20.000Z</time></trkpt>
<trkpt lat="33.6824872" lon="-84.3989145"><time>2026-09-21T14:24:21.000Z</time></trkpt>
<trkpt lat="33.6823139" lon="-84.3988562"><time>2026-09-21T14:24:22.000Z</time></trkpt>
<trkpt lat="33.6821499" lon="-84.3988740"><time>2026-09-21T14:24:23.000Z</time></trkpt>
<trkpt lat="33.6819409" lon="-84.3988334"><time>2026-09-21T14:24:24.000Z</time></trkpt>
<trkpt lat="33.6818241" lon="-84.3988280"><time>2026-09-21T14:24:25.000Z</time></trkpt>
<trkpt lat="33.6816128" lon="-84.3987594"><time>2026-09-21T14:24:26.000Z</time></trkpt>
<trkpt lat="33.6814238" lon="-84.3987775"><time>2026-09-21T14:24:27.000Z</time></trkpt>
<trkpt lat="33.6812073" lon="-84.3986497"><time>2026-09-21T14:24:28.000Z</time></trkpt>
<trkpt lat="33.6811274" lon="-84.3987096"><time>2026-09-21T14:24:29.000Z</time></trkpt>
<trkpt lat="33.6809420" lon="-84.3985977"><time>2026-09-21T14:24:30.000Z</time></trkpt>
<trkpt lat="33.6807479" lon="-84.3986106"><time>2026-09-21T14:24:31.000Z</time></trkpt>
<trkpt lat="33.6804832" lon="-84.3985941"><time>2026-09-21T14:24:32.000Z</time></trkpt>
<trkpt lat="33.6803387" lon="-84.3986305"><time>2026-09-21T14:24:33.000Z</time></trkpt>
<trkpt lat="33.6800708" lon="-84.3985669"><time>2026-09-21T14:24:34.000Z</time></trkpt>
<trkpt lat="33.6799812" lon="-84.3985288"><time>2026-09-21T14:24:35.000Z</time></trkpt>
<trkpt lat="33.6798051" lon="-84.3984656"><time>2026-09-21T14:24:36.000Z</time></trkpt>
<trkpt lat="33.6796210" lon="-84.3984640"><time>2026-09-21T14:24:37.000Z</time></trkpt>
<trkpt lat="33.6795093" lon="-84.3983683"><time>2026-09-21T14:24:38.000Z</time></trkpt>
<trkpt lat="33.6792646" lon="-84.3984017"><time>2026-09-21T14:24:39.000Z</time></trkpt>
<trkpt lat="33.6791452" lon="-84.3983635"><time>2026-09-21T14:24:40.000Z</time></trkpt>
<trkpt lat="33.6790059" lon="-84.3983413"><time>2026-09-21T14:24:41.000Z</time></trkpt>
<trkpt lat="33.6787628" lon="-84.3983228"><time>2026-09-21T14:24:42.000Z</time></trkpt>
<trkpt lat="33.6785283" lon="-84.3982605"><time>2026-09-21T14:24:43.000Z</time></trkpt>
<trkpt lat="33.6783347" lon="-84.3982709"><time>2026-09-21T14:24:44.000Z</time></trkpt>
<trkpt lat="33.6782178" lon="-84.3981295"><time>2026-09-21T14:24:45.000Z</time></trkpt>
<trkpt lat="33.6780565" lon="-84.3981555"><time>2026-09-21T14:24:46.000Z</time></trkpt>
<trkpt lat="33.6778295" lon="-84.3982085"><time>2026-09-21T14:24:47.000Z</time></trkpt>
<trkpt lat="33.6776965" lon="-84.3980537"><time>2026-09-21T14:24:48.000Z</time></trkpt>
<trkpt lat="33.6774701" lon="-84.3980459"><time>2026-09-21T14:24:49.000Z</time></trkpt>
<trkpt lat="33.6772995" lon="-84.3980622"><time>2026-09-21T14:24:50.000Z</time></trkpt>
<trkpt lat="33.6771521" lon="-84.3980182"><time>2026-09-21T14:24:51.000Z</time></trkpt>
<trkpt lat="33.6769726" lon="-84.3980316"><time>2026-09-21T14:24:52.000Z</time></trkpt>
<trkpt lat="33.6768058" lon="-84.3980325"><time>2026-09-21T14:24:53.000Z</time></trkpt>
<trkpt lat="33.6765667" lon="-84.3979745"><time>2026-09-21T14:24:54.000Z</time></trkpt>
<trkpt lat="33.6764172" lon="-84.3979505"><time>2026-09-21T14:24:55.000Z</time></trkpt>
<trkpt lat="33.6762507" lon="-84.3978909"><time>2026-09-21T14:24:56.000Z</time></trkpt>
<trkpt lat="33.6760489" lon="-84.3978300"><time>2026-09-21T14:24:57.000Z</time></trkpt>
<trkpt lat="33.6759031" lon="-84.3978686"><time>2026-09-21T14:24:58.000Z</time></trkpt>
<trkpt lat="33.6757600" lon="-84.3977198"><time>2026-09-21T14:24:59.000Z</time></trkpt>
<trkpt lat="33.6755233" lon="-84.3977605"><time>2026-09-21T14:25:00.000Z</time></trkpt>
<trkpt lat="33.6753923" lon="-84.3977654"><time>2026-09-21T14:25:01.000Z</time></trkpt>
<trkpt lat="33.6751468" lon="-84.3977268"><time>2026-09-21T14:25:02.000Z</time></trkpt>
<trkpt lat="33.6750256" lon="-84.3977420"><time>2026-09-21T14:25:03.000Z</time></trkpt>
<trkpt lat="33.6748560" lon="-84.3976781"><time>2026-09-21T14:25:04.000Z</time></trkpt>
<trkpt lat="33.6747063" lon="-84.3977898"><time>2026-09-21T14:25:05.000Z</time></trkpt>
<trkpt lat="33.6744787" lon="-84.3977519"><time>2026-09-21T14:25:06.000Z</time></trkpt>
<trkpt lat="33.6742615" lon="-84.3976805"><time>2026-09-21T14:25:07.000Z</time></trkpt>
<trkpt lat="33.6740441" lon="-84.3978131"><time>2026-09-21T14:25:08.000Z</time></trkpt>
<trkpt lat="33.6739552" lon="-84.3977252"><time>2026-09-21T14:25:09.000Z</time></trkpt>
<trkpt lat="33.6737436" lon="-84.3977474"><time>2026-09-21T14:25:10.000Z</time></trkpt>
<trkpt lat="33.6735904" lon="-84.3977379"><time>2026-09-21T14:25:11.000Z</time></trkpt>
<trkpt lat="33.6733360" lon="-84.3977408"><time>2026-09-21T14:25:12.000Z</time></trkpt>
<trkpt lat="33.6731620" lon="-84.3977398"><time>2026-09-21T14:25:13.000Z</time></trkpt>
<trkpt lat="33.6730307" lon="-84.3977331"><time>2026-09-21T14:25:14.000Z</time></trkpt>
<trkpt lat="33.6727939" lon="-84.3978641"><time>2026-09-21T14:25:15.000Z</time></trkpt>
<trkpt lat="33.6727289" lon="-84.3977570"><time>2026-09-21T14:25:16.000Z</time></trkpt>
<trkpt lat="33.6724815" lon="-84.3977730"><time>2026-09-21T14:25:17.000Z</time></trkpt>
<trkpt lat="33.6723086" lon="-84.3977104"><time>2026-09-21T14:25:18.000Z</time></trkpt>
<trkpt lat="33.6721202" lon="-84.3978607"><time>2026-09-21T14:25:19.000Z</time></trkpt>
<trkpt lat="33.6719449" lon="-84.3978089"><time>2026-09-21T14:25:20.000Z</time></trkpt>
<trkpt lat="33.6717865" lon="-84.3977986"><time>2026-09-21T14:25:21.000Z</time></trkpt>
<trkpt lat="33.6715766" lon="-84.3978080"><time>2026-09-21T14:25:22.000Z</time></trkpt>
<trkpt lat="33.6714272" lon="-84.3978806"><time>2026-09-21T14:25:23.000Z</time></trkpt>
<trkpt lat="33.6711766" lon="-84.3978351"><time>2026-09-21T14:25:24.000Z</time></trkpt>
<trkpt lat="33.6710369" lon="-84.3979351"><time>2026-09-21T14:25:25.000Z</time></trkpt>
<trkpt lat="33.6708789" lon="-84.3978921"><time>2026-09-21T14:25:26.000Z</time></trkpt>
<trkpt lat="33.6706684" lon="-84.3978877"><time>2026-09-21T14:25:27.000Z</time></trkpt>
<trkpt lat="33.6704463" lon="-84.3978617"><time>2026-09-21T14:25:28.000Z</time></trkpt>
<trkpt lat="33.6703531" lon="-84.3979539"><time>2026-09-21T14:25:29.000Z</time></trkpt>
<trkpt lat="33.6701630" lon="-84.3979148"><time>2026-09-21T14:25:30.000Z</time></trkpt>
<trkpt lat="33.6699943" lon="-84.3979107"><time>2026-09-21T14:25:31.000Z</time></trkpt>
<trkpt lat="33.6697687" lon="-84.3979573"><time>2026-09-21T14:25:32.000Z</time></trkpt>
<trkpt lat="33.6696175" lon="-84.3979286"><time>2026-09-21T14:25:33.000Z</time></trkpt>
<trkpt lat="33.6694533" lon="-84.3979261"><time>2026-09-21T14:25:34.000Z</time></trkpt>
<trkpt lat="33.6693191" lon="-84.3979711"><time>2026-09-21T14:25:35.000Z</time></trkpt>
<trkpt lat="33.6690983" lon="-84.3979010"><time>2026-09-21T14:25:36.000Z</time></trkpt>
<trkpt lat="33.6689082" lon="-84.3979017"><time>2026-09-21T14:25:37.000Z</time></trkpt>
<trkpt lat="33.6687101" lon="-84.3979090"><time>2026-09-21T14:25:38.000Z</time></trkpt>
<trkpt lat="33.6685401" lon="-84.3978612"><time>2026-09-21T14:25:39.000Z</time></trkpt>
<trkpt lat="33.6683880" lon="-84.3977250"><time>2026-09-21T14:25:40.000Z</time></trkpt>
<trkpt lat="33.6681686" lon="-84.3977555"><time>2026-09-21T14:25:41.000Z</time></trkpt>
<trkpt lat="33.6680276" lon="-84.3976077"><time>2026-09-21T14:25:42.000Z</time></trkpt>
<trkpt lat="33.6677921" lon="-84.3976167"><time>2026-09-21T14:25:43.000Z</time></trkpt>
<trkpt lat="33.6677707" lon="-84.3975200"><time>2026-09-21T14:25:44.000Z</time></trkpt>
<trkpt lat="33.6675030" lon="-84.3974739"><time>2026-09-21T14:25:45.000Z</time></trkpt>
<trkpt lat="33.6673365" lon="-84.3973500"><time>2026-09-21T14:25:46.000Z</time></trkpt>
<trkpt lat="33.6671196" lon="-84.3973453"><time>2026-09-21T14:25:47.000Z</time></trkpt>
<trkpt lat="33.6669573" lon="-84.3972705"><time>2026-09-21T14:25:48.000Z</time></trkpt>
<trkpt lat="33.6668007" lon="-84.3971828"><time>2026-09-21T14:25:49.000Z</time></trkpt>
<trkpt lat="33.6666853" lon="-84.3971144"><time>2026-09-21T14:25:50.000Z</time></trkpt>
<trkpt lat="33.6664078" lon="-84.3971711"><time>2026-09-21T14:25:51.000Z</time></trkpt>
<trkpt lat="33.6662516" lon="-84.3969357"><time>2026-09-21T14:25:52.000Z</time></trkpt>
<trkpt lat="33.6661007" lon="-84.3969952"><time>2026-09-21T14:25:53.000Z</time></trkpt>
<trkpt lat="33.6659077" lon="-84.3968372"><time>2026-09-21T14:25:54.000Z</time></trkpt>
<trkpt lat="33.6657850" lon="-84.3968489"><time>2026-09-21T14:25:55.000Z</time></trkpt>
<trkpt lat="33.6655581" lon="-84.3967434"><time>2026-09-21T14:25:56.000Z</time></trkpt>
<trkpt lat="33.6654345" lon="-84.3966174"><time>2026-09-21T14:25:57.000Z</time></trkpt>
<trkpt lat="33.6652805" lon="-84.3966359"><time>2026-09-21T14:25:58.000Z</time></trkpt>
<trkpt lat="33.6650567" lon="-84.3964723"><time>2026-09-21T14:25:59.000Z</time></trkpt>
<trkpt lat="33.6649202" lon="-84.3965265"><time>2026-09-21T14:26:00.000Z</time></trkpt>
<trkpt lat="33.6647585" lon="-84.3963329"><time>2026-09-21T14:26:01.000Z</time></trkpt>
<trkpt lat="33.6646370" lon="-84.3963425"><time>2026-09-21T14:26:02.000Z</time></trkpt>
<trkpt lat="33.6643941" lon="-84.3962365"><time>2026-09-21T14:26:03.000Z</time></trkpt>
<trkpt lat="33.6641908" lon="-84.3961650"><time>2026-09-21T14:26:04.000Z</time></trkpt>
<trkpt lat="33.6640559" lon="-84.3960620"><time>2026-09-21T14:26:05.000Z</time></trkpt>
<trkpt lat="33.6638748" lon="-84.3960930"><time>2026-09-21T14:26:06.000Z</time></trkpt>
<trkpt lat="33.6637421" lon="-84.3959782"><time>2026-09-21T14:26:07.000Z</time></trkpt>
<trkpt lat="33.6635313" lon="-84.3959079"><time>2026-09-21T14:26:08.000Z</time></trkpt>
<trkpt lat="33.6634320" lon="-84.3959135"><time>2026-09-21T14:26:09.000Z</time></trkpt>
<trkpt lat="33.6631769" lon="-84.3958078"><time>2026-09-21T14:26:10.000Z</time></trkpt>
<trkpt lat="33.6630330" lon="-84.3957033"><time>2026-09-21T14:26:11.000Z</time></trkpt>
<trkpt lat="33.6628677" lon="-84.3956779"><time>2026-09-21T14:26:12.000Z</time></trkpt>
<trkpt lat="33.6627024" lon="-84.3956186"><time>2026-09-21T14:26:13.000Z</time></trkpt>
<trkpt lat="33.6625390" lon="-84.3956248"><time>2026-09-21T14:26:14.000Z</time></trkpt>
<trkpt lat="33.6624052" lon="-84.3955160"><time>2026-09-21T14:26:15.000Z</time></trkpt>
<trkpt lat="33.6622231" lon="-84.3955079"><time>2026-09-21T14:26:16.000Z</time></trkpt>
<trkpt lat="33.6619673" lon="-84.3953754"><time>2026-09-21T14:26:17.000Z</time></trkpt>
<trkpt lat="33.6618038" lon="-84.3953631"><time>2026-09-21T14:26:18.000Z</time></trkpt>
<trkpt lat="33.6616231" lon="-84.3953309"><time>2026-09-21T14:26:19.000Z</time></trkpt>
<trkpt lat="33.6614809" lon="-84.3953022"><time>2026-09-21T14:26:20.000Z</time></trkpt>
<trkpt lat="33.6613105" lon="-84.3951569"><time>2026-09-21T14:26:21.000Z</time></trkpt>
<trkpt lat="33.6611015" lon="-84.3952436"><time>2026-09-21T14:26:22.000Z</time></trkpt>
<trkpt lat="33.6609768" lon="-84.3951184"><time>2026-09-21T14:26:23.000Z</time></trkpt>
<trkpt lat="33.6607745" lon="-84.3951086"><time>2026-09-21T14:26:24.000Z</time></trkpt>
<trkpt lat="33.6605719" lon="-84.3951679"><time>2026-09-21T14:26:25.000Z</time></trkpt>
<trkpt lat="33.6603954" lon="-84.3951069"><time>2026-09-21T14:26:26.000Z</time></trkpt>
<trkpt lat="33.6601846" lon="-84.3950841"><time>2026-09-21T14:26:27.000Z</time></trkpt>
<trkpt lat="33.6600292" lon="-84.3950494"><time>2026-09-21T14:26:28.000Z</time></trkpt>
<trkpt lat="33.6598898" lon="-84.3950537"><time>2026-09-21T14:26:29.000Z</time></trkpt>
<trkpt lat="33.6597072" lon="-84.3949885"><time>2026-09-21T14:26:30.000Z</time></trkpt>
<trkpt lat="33.6594617" lon="-84.3949646"><time>2026-09-21T14:26:31.000Z</time></trkpt>
<trkpt lat="33.6593499" lon="-84.3949844"><time>2026-09-21T14:26:32.000Z</time></trkpt>
<trkpt lat="33.6591872" lon="-84.3949908"><time>2026-09-21T14:26:33.000Z</time></trkpt>
<trkpt lat="33.6589647" lon="-84.3950315"><time>2026-09-21T14:26:34.000Z</time></trkpt>
<trkpt lat="33.6587489" lon="-84.3950576"><time>2026-09-21T14:26:35.000Z</time></trkpt>
<trkpt lat="33.6585737" lon="-84.3950242"><time>2026-09-21T14:26:36.000Z</time></trkpt>
<trkpt lat="33.6584194" lon="-84.3950687"><time>2026-09-21T14:26:37.000Z</time></trkpt>
<trkpt lat="33.6582740" lon="-84.3949996"><time>2026-09-21T14:26:38.000Z</time></trkpt>
<trkpt lat="33.6580863" lon="-84.3951355"><time>2026-09-21T14:26:39.000Z</time></trkpt>
<trkpt lat="33.6579479" lon="-84.3950111"><time>2026-09-21T14:26:40.000Z</time></trkpt>
<trkpt lat="33.6577971" lon="-84.3950809"><time>2026-09-21T14:26:41.000Z</time></trkpt>
<trkpt lat="33.6575527" lon="-84.3951788"><time>2026-09-21T14:26:42.000Z</time></trkpt>
<trkpt lat="33.6573151" lon="-84.3950587"><time>2026-09-21T14:26:43.000Z</time></trkpt>
<trkpt lat="33.6571615" lon="-84.3951376"><time>2026-09-21T14:26:44.000Z</time></trkpt>
<trkpt lat="33.6570222" lon="-84.3952037"><time>2026-09-21T14:26:45.000Z</time></trkpt>
<trkpt lat="33.6567931" lon="-84.3952810"><time>2026-09-21T14:26:46.000Z</time></trkpt>
<trkpt lat="33.6566280" lon="-84.3953273"><time>2026-09-21T14:26:47.000Z</time></trkpt>
<trkpt lat="33.6564982" lon="-84.3953472"><time>2026-09-21T14:26:48.000Z</time></trkpt>
<trkpt lat="33.6562620" lon="-84.3953587"><time>2026-09-21T14:26:49.000Z</time></trkpt>
<trkpt lat="33.6560630" lon="-84.3952934"><time>2026-09-21T14:26:50.000Z</time></trkpt>
<trkpt lat="33.6558519" lon="-84.3954125"><time>2026-09-21T14:26:51.000Z</time></trkpt>
<trkpt lat="33.6557448" lon="-84.3953749"><time>2026-09-21T14:26:52.000Z</time></trkpt>
<trkpt lat="33.6555996" lon="-84.3955185"><time>2026-09-21T14:26:53.000Z</time></trkpt>
<trkpt lat="33.6554736" lon="-84.3956086"><time>2026-09-21T14:26:54.000Z</time></trkpt>
<trkpt lat="33.6552122" lon="-84.3955979"><time>2026-09-21T14:26:55.000Z</time></trkpt>
<trkpt lat="33.6550778" lon="-84.3955767"><time>2026-09-21T14:26:56.000Z</time></trkpt>
<trkpt lat="33.6548665" lon="-84.3955980"><time>2026-09-21T14:26:57.000Z</time></trkpt>
<trkpt lat="33.6546294" lon="-84.3957366"><time>2026-09-21T14:26:58.000Z</time></trkpt>
<trkpt lat="33.6545487" lon="-84.3958004"><time>2026-09-21T14:26:59.000Z</time></trkpt>
<trkpt lat="33.6543464" lon="-84.3958063"><time>2026-09-21T14:27:00.000Z</time></trkpt>
<trkpt lat="33.6541926" lon="-84.3958172"><time>2026-09-21T14:27:01.000Z</time></trkpt>
<trkpt lat="33.6540756" lon="-84.3958797"><time>2026-09-21T14:27:02.000Z</time></trkpt>
<trkpt lat="33.6538658" lon="-84.3959676"><time>2026-09-21T14:27:03.000Z</time></trkpt>
<trkpt lat="33.6536978" lon="-84.3960691"><time>2026-09-21T14:27:04.000Z</time></trkpt>
<trkpt lat="33.6534742" lon="-84.3961134"><time>2026-09-21T14:27:05.000Z</time></trkpt>
<trkpt lat="33.6533045" lon="-84.3961598"><time>2026-09-21T14:27:06.000Z</time></trkpt>
<trkpt lat="33.6532580" lon="-84.3962926"><time>2026-09-21T14:27:07.000Z</time></trkpt>
<trkpt lat="33.6529197" lon="-84.3963146"><time>2026-09-21T14:27:08.000Z</time></trkpt>
<trkpt lat="33.6528109" lon="-84.3963719"><time>2026-09-21T14:27:09.000Z</time></trkpt>
<trkpt lat="33.6526318" lon="-84.3964503"><time>2026-09-21T14:27:10.000Z</time></trkpt>
<trkpt lat="33.6524256" lon="-84.3964771"><time>2026-09-21T14:27:11.000Z</time></trkpt>
<trkpt lat="33.6522914" lon="-84.3965480"><time>2026-09-21T14:27:12.000Z</time></trkpt>
<trkpt lat="33.6520742" lon="-84.3966414"><time>2026-09-21T14:27:13.000Z</time></trkpt>
<trkpt lat="33.6519429" lon="-84.3966336"><time>2026-09-21T14:27:14.000Z</time></trkpt>
<trkpt lat="33.6516889" lon="-84.3966900"><time>2026-09-21T14:27:15.000Z</time></trkpt>
<trkpt lat="33.6515249" lon="-84.3967113"><time>2026-09-21T14:27:16.000Z</time></trkpt>
<trkpt lat="33.6514267" lon="-84.3968485"><time>2026-09-21T14:27:17.000Z</time></trkpt>
<trkpt lat="33.6512310" lon="-84.3969431"><time>2026-09-21T14:27:18.000Z</time></trkpt>
<trkpt lat="33.6510466" lon="-84.3968897"><time>2026-09-21T14:27:19.000Z</time></trkpt>
<trkpt lat="33.6508240" lon="-84.3969946"><time>2026-09-21T14:27:20.000Z</time></trkpt>
<trkpt lat="33.6507753" lon="-84.3970493"><time>2026-09-21T14:27:21.000Z</time></trkpt>
<trkpt lat="33.6505543" lon="-84.3970633"><time>2026-09-21T14:27:22.000Z</time></trkpt>
<trkpt lat="33.6503783" lon="-84.3971571"><time>2026-09-21T14:27:23.000Z</time></trkpt>
<trkpt lat="33.6502043" lon="-84.3971747"><time>2026-09-21T14:27:24.000Z</time></trkpt>
<trkpt lat="33.6501258" lon="-84.3972793"><time>2026-09-21T14:27:25.000Z</time></trkpt>
<trkpt lat="33.6498117" lon="-84.3973696"><time>2026-09-21T14:27:26.000Z</time></trkpt>
<trkpt lat="33.6496571" lon="-84.3973503"><time>2026-09-21T14:27:27.000Z</time></trkpt>
<trkpt lat="33.6495479" lon="-84.3974369"><time>2026-09-21T14:27:28.000Z</time></trkpt>
<trkpt lat="33.6493338" lon="-84.3974852"><time>2026-09-21T14:27:29.000Z</time></trkpt>
<trkpt lat="33.6491448" lon="-84.3976312"><time>2026-09-21T14:27:30.000Z</time></trkpt>
<trkpt lat="33.6489748" lon="-84.3976829"><time>2026-09-21T14:27:31.000Z</time></trkpt>
<trkpt lat="33.6487934" lon="-84.3977671"><time>2026-09-21T14:27:32.000Z</time></trkpt>
<trkpt lat="33.6486182" lon="-84.3977156"><time>2026-09-21T14:27:33.000Z</time></trkpt>
<trkpt lat="33.6485376" lon="-84.3978745"><time>2026-09-21T14:27:34.000Z</time></trkpt>
<trkpt lat="33.6482482" lon="-84.3979600"><time>2026-09-21T14:27:35.000Z</time></trkpt>
<trkpt lat="33.6480881" lon="-84.3979801"><time>2026-09-21T14:27:36.000Z</time></trkpt>
<trkpt lat="33.6479746" lon="-84.3979032"><time>2026-09-21T14:27:37.000Z</time></trkpt>
<trkpt lat="33.6477217" lon="-84.3980466"><time>2026-09-21T14:27:38.000Z</time></trkpt>
<trkpt lat="33.6475818" lon="-84.3981863"><time>2026-09-21T14:27:39.000Z</time></trkpt>
<trkpt lat="33.6474076" lon="-84.3982460"><time>2026-09-21T14:27:40.000Z</time></trkpt>
<trkpt lat="33.6472589" lon="-84.3983008"><time>2026-09-21T14:27:41.000Z</time></trkpt>
<trkpt lat="33.6470370" lon="-84.3983223"><time>2026-09-21T14:27:42.000Z</time></trkpt>
<trkpt lat="33.6469068" lon="-84.3983727"><time>2026-09-21T14:27:43.000Z</time></trkpt>
<trkpt lat="33.6467888" lon="-84.3984641"><time>2026-09-21T14:27:44.000Z</time></trkpt>
<trkpt lat="33.6465479" lon="-84.3986130"><time>2026-09-21T14:27:45.000Z</time></trkpt>
<trkpt lat="33.6463774" lon="-84.3986411"><time>2026-09-21T14:27:46.000Z</time></trkpt>
<trkpt lat="33.6462717" lon="-84.3987311"><time>2026-09-21T14:27:47.000Z</time></trkpt>
<trkpt lat="33.6460943" lon="-84.3987925"><time>2026-09-21T14:27:48.000Z</time></trkpt>
<trkpt lat="33.6459577" lon="-84.3990214"><time>2026-09-21T14:27:49.000Z</time></trkpt>
<trkpt lat="33.6458510" lon="-84.3990526"><time>2026-09-21T14:27:50.000Z</time></trkpt>
<trkpt lat="33.6456446" lon="-84.3991286"><time>2026-09-21T14:27:51.000Z</time></trkpt>
<trkpt lat="33.6455301" lon="-84.3992672"><time>2026-09-21T14:27:52.000Z</time></trkpt>
<trkpt lat="33.6453181" lon="-84.3994308"><time>2026-09-21T14:27:53.000Z</time></trkpt>
<trkpt lat="33.6451544" lon="-84.3995405"><time>2026-09-21T14:27:54.000Z</time></trkpt>
<trkpt lat="33.6450487" lon="-84.3996446"><time>2026-09-21T14:27:55.000Z</time></trkpt>
<trkpt lat="33.6449425" lon="-84.3997939"><time>2026-09-21T14:27:56.000Z</time></trkpt>
<trkpt lat="33.6447271" lon="-84.3999864"><time>2026-09-21T14:27:57.000Z</time></trkpt>
<trkpt lat="33.6446642" lon="-84.4000493"><time>2026-09-21T14:27:58.000Z</time></trkpt>
<trkpt lat="33.6444740" lon="-84.4002825"><time>2026-09-21T14:27:59.000Z</time></trkpt>
<trkpt lat="33.6443402" lon="-84.4003807"><time>2026-09-21T14:28:00.000Z</time></trkpt>
<trkpt lat="33.6441959" lon="-84.4004641"><time>2026-09-21T14:28:01.000Z</time></trkpt>
<trkpt lat="33.6440279" lon="-84.4005612"><time>2026-09-21T14:28:02.000Z</time></trkpt>
<trkpt lat="33.6438892" lon="-84.4007874"><time>2026-09-21T14:28:03.000Z</time></trkpt>
<trkpt lat="33.6437735" lon="-84.4008440"><time>2026-09-21T14:28:04.000Z</time></trkpt>
<trkpt lat="33.6436517" lon="-84.4010594"><time>2026-09-21T14:28:05.000Z</time></trkpt>
<trkpt lat="33.6434548" lon="-84.4011322"><time>2026-09-21T14:28:06.000Z</time></trkpt>
<trkpt lat="33.6432600" lon="-84.4012811"><time>2026-09-21T14:28:07.000Z</time></trkpt>
<trkpt lat="33.6431728" lon="-84.4012960"><time>2026-09-21T14:28:08.000Z</time></trkpt>
<trkpt lat="33.6430072" lon="-84.4013946"><time>2026-09-21T14:28:09.000Z</time></trkpt>
<trkpt lat="33.6428750" lon="-84.4014741"><time>2026-09-21T14:28:10.000Z</time></trkpt>
<trkpt lat="33.6426336" lon="-84.4014869"><time>2026-09-21T14:28:11.000Z</time></trkpt>
<trkpt lat="33.6424602" lon="-84.4015844"><time>2026-09-21T14:28:12.000Z</time></trkpt>
<trkpt lat="33.6422898" lon="-84.4015479"><time>2026-09-21T14:28:13.000Z</time></trkpt>
<trkpt lat="33.6420649" lon="-84.4015989"><time>2026-09-21T14:28:14.000Z</time></trkpt>
<trkpt lat="33.6419595" lon="-84.4017000"><time>2026-09-21T14:28:15.000Z</time></trkpt>
<trkpt lat="33.6416896" lon="-84.4016476"><time>2026-09-21T14:28:16.000Z</time></trkpt>
<trkpt lat="33.6415301" lon="-84.4016169"><time>2026-09-21T14:28:17.000Z</time></trkpt>
<trkpt lat="33.6413973" lon="-84.4016562"><time>2026-09-21T14:28:18.000Z</time></trkpt>
<trkpt lat="33.6412272" lon="-84.4017186"><time>2026-09-21T14:28:19.000Z</time></trkpt>
<trkpt lat="33.6410795" lon="-84.4018293"><time>2026-09-21T14:28:20.000Z</time></trkpt>
<trkpt lat="33.6411360" lon="-84.4019360"><time>2026-09-21T14:28:21.000Z</time></trkpt>
<trkpt lat="33.6411056" lon="-84.4022694"><time>2026-09-21T14:28:22.000Z</time></trkpt>
<trkpt lat="33.6410840" lon="-84.4024379"><time>2026-09-21T14:28:23.000Z</time></trkpt>
<trkpt lat="33.6410913" lon="-84.4026859"><time>2026-09-21T14:28:24.000Z</time></trkpt>
<trkpt lat="33.6411307" lon="-84.4028346"><time>2026-09-21T14:28:25.000Z</time></trkpt>
<trkpt lat="33.6411079" lon="-84.4030894"><time>2026-09-21T14:28:26.000Z</time></trkpt>
<trkpt lat="33.6411177" lon="-84.4032375"><time>2026-09-21T14:28:27.000Z</time></trkpt>
<trkpt lat="33.6410709" lon="-84.4034831"><time>2026-09-21T14:28:28.000Z</time></trkpt>
<trkpt lat="33.6410449" lon="-84.4037282"><time>2026-09-21T14:28:29.000Z</time></trkpt>
<trkpt lat="33.6411555" lon="-84.4039219"><time>2026-09-21T14:28:30.000Z</time></trkpt>
<trkpt lat="33.6411349" lon="-84.4042466"><time>2026-09-21T14:28:31.000Z</time></trkpt>
<trkpt lat="33.6411565" lon="-84.4043773"><time>2026-09-21T14:28:32.000Z</time></trkpt>
<trkpt lat="33.6411626" lon="-84.4046222"><time>2026-09-21T14:28:33.000Z</time></trkpt>
<trkpt lat="33.6411369" lon="-84.4047370"><time>2026-09-21T14:28:34.000Z</time></trkpt>
<trkpt lat="33.6411212" lon="-84.4050692"><time>2026-09-21T14:28:35.000Z</time></trkpt>
<trkpt lat="33.6411037" lon="-84.4051965"><time>2026-09-21T14:28:36.000Z</time></trkpt>
<trkpt lat="33.6410975" lon="-84.4055099"><time>2026-09-21T14:28:37.000Z</time></trkpt>
<trkpt lat="33.6410833" lon="-84.4057159"><time>2026-09-21T14:28:38.000Z</time></trkpt>
<trkpt lat="33.6411759" lon="-84.4059465"><time>2026-09-21T14:28:39.000Z</time></trkpt>
<trkpt lat="33.6411102" lon="-84.4061190"><time>2026-09-21T14:28:40.000Z</time></trkpt>
<trkpt lat="33.6410849" lon="-84.4063286"><time>2026-09-21T14:28:41.000Z</time></trkpt>
<trkpt lat="33.6411282" lon="-84.4065726"><time>2026-09-21T14:28:42.000Z</time></trkpt>
<trkpt lat="33.6409921" lon="-84.4067639"><time>2026-09-21T14:28:43.000Z</time></trkpt>
<trkpt lat="33.6410404" lon="-84.4069182"><time>2026-09-21T14:28:44.000Z</time></trkpt>
<trkpt lat="33.6410255" lon="-84.4071845"><time>2026-09-21T14:28:45.000Z</time></trkpt>
<trkpt lat="33.6410801" lon="-84.4074343"><time>2026-09-21T14:28:46.000Z</time></trkpt>
<trkpt lat="33.6411085" lon="-84.4076200"><time>2026-09-21T14:28:47.000Z</time></trkpt>
<trkpt lat="33.6410711" lon="-84.4078530"><time>2026-09-21T14:28:48.000Z</time></trkpt>
<trkpt lat="33.6411133" lon="-84.4080746"><time>2026-09-21T14:28:49.000Z</time></trkpt>
<trkpt lat="33.6411223" lon="-84.4082838"><time>2026-09-21T14:28:50.000Z</time></trkpt>
<trkpt lat="33.6410998" lon="-84.4084732"><time>2026-09-21T14:28:51.000Z</time></trkpt>
<trkpt lat="33.6410945" lon="-84.4086965"><time>2026-09-21T14:28:52.000Z</time></trkpt>
<trkpt lat="33.6411387" lon="-84.4089155"><time>2026-09-21T14:28:53.000Z</time></trkpt>
<trkpt lat="33.6410967" lon="-84.4090982"><time>2026-09-21T14:28:54.000Z</time></trkpt>
<trkpt lat="33.6411130" lon="-84.4093180"><time>2026-09-21T14:28:55.000Z</time></trkpt>
<trkpt lat="33.6411479" lon="-84.4096162"><time>2026-09-21T14:28:56.000Z</time></trkpt>
<trkpt lat="33.6411564" lon="-84.4098315"><time>2026-09-21T14:28:57.000Z</time></trkpt>
<trkpt lat="33.6411136" lon="-84.4100276"><time>2026-09-21T14:28:58.000Z</time></trkpt>
<trkpt lat="33.6411472" lon="-84.4102951"><time>2026-09-21T14:28:59.000Z</time></trkpt>
<trkpt lat="33.6411210" lon="-84.4104610"><time>2026-09-21T14:29:00.000Z</time></trkpt>
<trkpt lat="33.6410339" lon="-84.4106939"><time>2026-09-21T14:29:01.000Z</time></trkpt>
<trkpt lat="33.6410737" lon="-84.4109226"><time>2026-09-21T14:29:02.000Z</time></trkpt>
<trkpt lat="33.6412571" lon="-84.4111031"><time>2026-09-21T14:29:03.000Z</time></trkpt>
<trkpt lat="33.6410915" lon="-84.4112372"><time>2026-09-21T14:29:04.000Z</time></trkpt>
<trkpt lat="33.6411529" lon="-84.4115655"><time>2026-09-21T14:29:05.000Z</time></trkpt>
<trkpt lat="33.6411376" lon="-84.4117412"><time>2026-09-21T14:29:06.000Z</time></trkpt>
<trkpt lat="33.6411350" lon="-84.4119119"><time>2026-09-21T14:29:07.000Z</time></trkpt>
<trkpt lat="33.6411640" lon="-84.4122508"><time>2026-09-21T14:29:08.000Z</time></trkpt>
<trkpt lat="33.6411826" lon="-84.4123362"><time>2026-09-21T14:29:09.000Z</time></trkpt>
<trkpt lat="33.6411146" lon="-84.4125727"><time>2026-09-21T14:29:10.000Z</time></trkpt>
<trkpt lat="33.6412315" lon="-84.4127755"><time>2026-09-21T14:29:11.000Z</time></trkpt>
<trkpt lat="33.6411742" lon="-84.4129790"><time>2026-09-21T14:29:12.000Z</time></trkpt>
<trkpt lat="33.6412698" lon="-84.4132100"><time>2026-09-21T14:29:13.000Z</time></trkpt>
<trkpt lat="33.6412633" lon="-84.4133873"><time>2026-09-21T14:29:14.000Z</time></trkpt>
<trkpt lat="33.6412761" lon="-84.4136064"><time>2026-09-21T14:29:15.000Z</time></trkpt>
<trkpt lat="33.6412536" lon="-84.4139110"><time>2026-09-21T14:29:16.000Z</time></trkpt>
<trkpt lat="33.6413087" lon="-84.4140477"><time>2026-09-21T14:29:17.000Z</time></trkpt>
<trkpt lat="33.6412607" lon="-84.4143567"><time>2026-09-21T14:29:18.000Z</time></trkpt>
<trkpt lat="33.6413201" lon="-84.4145549"><time>2026-09-21T14:29:19.000Z</time></trkpt>
<trkpt lat="33.6412863" lon="-84.4147327"><time>2026-09-21T14:29:20.000Z</time></trkpt>
<trkpt lat="33.6412506" lon="-84.4149547"><time>2026-09-21T14:29:21.000Z</time></trkpt>
<trkpt lat="33.6412941" lon="-84.4151575"><time>2026-09-21T14:29:22.000Z</time></trkpt>
<trkpt lat="33.6412481" lon="-84.4153756"><time>2026-09-21T14:29:23.000Z</time></trkpt>
<trkpt lat="33.6412064" lon="-84.4154858"><time>2026-09-21T14:29:24.000Z</time></trkpt>
<trkpt lat="33.6409605" lon="-84.4155266"><time>2026-09-21T14:29:25.000Z</time></trkpt>
<trkpt lat="33.6409190" lon="-84.4154039"><time>2026-09-21T14:29:26.000Z</time></trkpt>
<trkpt lat="33.6408465" lon="-84.4152301"><time>2026-09-21T14:29:27.000Z</time></trkpt>
<trkpt lat="33.6407451" lon="-84.4149950"><time>2026-09-21T14:29:28.000Z</time></trkpt>
<trkpt lat="33.6407789" lon="-84.4147423"><time>2026-09-21T14:29:29.000Z</time></trkpt>
<trkpt lat="33.6408453" lon="-84.4146055"><time>2026-09-21T14:29:30.000Z</time></trkpt>
<trkpt lat="33.6407282" lon="-84.4143208"><time>2026-09-21T14:29:31.000Z</time></trkpt>
<trkpt lat="33.6408456" lon="-84.4141936"><time>2026-09-21T14:29:32.000Z</time></trkpt>
<trkpt lat="33.6407733" lon="-84.4138776"><time>2026-09-21T14:29:33.000Z</time></trkpt>
<trkpt lat="33.6407934" lon="-84.4137407"><time>2026-09-21T14:29:34.000Z</time></trkpt>
<trkpt lat="33.6408693" lon="-84.4134810"><time>2026-09-21T14:29:35.000Z</time></trkpt>
<trkpt lat="33.6408055" lon="-84.4132602"><time>2026-09-21T14:29:36.000Z</time></trkpt>
<trkpt lat="33.6408256" lon="-84.4131085"><time>2026-09-21T14:29:37.000Z</time></trkpt>
<trkpt lat="33.6408242" lon="-84.4128976"><time>2026-09-21T14:29:38.000Z</time></trkpt>
<trkpt lat="33.6408414" lon="-84.4125553"><time>2026-09-21T14:29:39.000Z</time></trkpt>
<trkpt lat="33.6408209" lon="-84.4123410"><time>2026-09-21T14:29:40.000Z</time></trkpt>
<trkpt lat="33.6408580" lon="-84.4122058"><time>2026-09-21T14:29:41.000Z</time></trkpt>
<trkpt lat="33.6408375" lon="-84.4120065"><time>2026-09-21T14:29:42.000Z</time></trkpt>
<trkpt lat="33.6407455" lon="-84.4117251"><time>2026-09-21T14:29:43.000Z</time></trkpt>
<trkpt lat="33.6408657" lon="-84.4116121"><time>2026-09-21T14:29:44.000Z</time></trkpt>
<trkpt lat="33.6408575" lon="-84.4113549"><time>2026-09-21T14:29:45.000Z</time></trkpt>
<trkpt lat="33.6408016" lon="-84.4110786"><time>2026-09-21T14:29:46.000Z</time></trkpt>
<trkpt lat="33.6408216" lon="-84.4109218"><time>2026-09-21T14:29:47.000Z</time></trkpt>
<trkpt lat="33.6408265" lon="-84.4106044"><time>2026-09-21T14:29:48.000Z</time></trkpt>
<trkpt lat="33.6408579" lon="-84.4105117"><time>2026-09-21T14:29:49.000Z</time></trkpt>
<trkpt lat="33.6407574" lon="-84.4102221"><time>2026-09-21T14:29:50.000Z</time></trkpt>
<trkpt lat="33.6408187" lon="-84.4099782"><time>2026-09-21T14:29:51.000Z</time></trkpt>
<trkpt lat="33.6408677" lon="-84.4098091"><time>2026-09-21T14:29:52.000Z</time></trkpt>
<trkpt lat="33.6407794" lon="-84.4096202"><time>2026-09-21T14:29:53.000Z</time></trkpt>
<trkpt lat="33.6408753" lon="-84.4094637"><time>2026-09-21T14:29:54.000Z</time></trkpt>
<trkpt lat="33.6408282" lon="-84.4091962"><time>2026-09-21T14:29:55.000Z</time></trkpt>
<trkpt lat="33.6408357" lon="-84.4089405"><time>2026-09-21T14:29:56.000Z</time></trkpt>
<trkpt lat="33.6408212" lon="-84.4087600"><time>2026-09-21T14:29:57.000Z</time></trkpt>
<trkpt lat="33.6407638" lon="-84.4085809"><time>2026-09-21T14:29:58.000Z</time></trkpt>
<trkpt lat="33.6405903" lon="-84.4085248"><time>2026-09-21T14:29:59.000Z</time></trkpt>
<trkpt lat="33.6404058" lon="-84.4084767"><time>2026-09-21T14:30:00.000Z</time></trkpt>
<trkpt lat="33.6402639" lon="-84.4084949"><time>2026-09-21T14:30:01.000Z</time></trkpt>
<trkpt lat="33.6399478" lon="-84.4084967"><time>2026-09-21T14:30:02.000Z</time></trkpt>
<trkpt lat="33.6398429" lon="-84.4085631"><time>2026-09-21T14:30:03.000Z</time></trkpt>
<trkpt lat="33.6396226" lon="-84.4085025"><time>2026-09-21T14:30:04.000Z</time></trkpt>
<trkpt lat="33.6395007" lon="-84.4084922"><time>2026-09-21T14:30:05.000Z</time></trkpt>
<trkpt lat="33.6392344" lon="-84.4085246"><time>2026-09-21T14:30:06.000Z</time></trkpt>
<trkpt lat="33.6392298" lon="-84.4086197"><time>2026-09-21T14:30:07.000Z</time></trkpt>
<trkpt lat="33.6391838" lon="-84.4088617"><time>2026-09-21T14:30:08.000Z</time></trkpt>
<trkpt lat="33.6392314" lon="-84.4090332"><time>2026-09-21T14:30:09.000Z</time></trkpt>
<trkpt lat="33.6392519" lon="-84.4092073"><time>2026-09-21T14:30:10.000Z</time></trkpt>
<trkpt lat="33.6392122" lon="-84.4094567"><time>2026-09-21T14:30:11.000Z</time></trkpt>
<trkpt lat="33.6392197" lon="-84.4097081"><time>2026-09-21T14:30:12.000Z</time></trkpt>
<trkpt lat="33.6392681" lon="-84.4099166"><time>2026-09-21T14:30:13.000Z</time></trkpt>
<trkpt lat="33.6392267" lon="-84.4100663"><time>2026-09-21T14:30:14.000Z</time></trkpt>
<trkpt lat="33.6392486" lon="-84.4102518"><time>2026-09-21T14:30:15.000Z</time></trkpt>
<trkpt lat="33.6392139" lon="-84.4105630"><time>2026-09-21T14:30:16.000Z</time></trkpt>
<trkpt lat="33.6392231" lon="-84.4107445"><time>2026-09-21T14:30:17.000Z</time></trkpt>
<trkpt lat="33.6392278" lon="-84.4109249"><time>2026-09-21T14:30:18.000Z</time></trkpt>
<trkpt lat="33.6391915" lon="-84.4111805"><time>2026-09-21T14:30:19.000Z</time></trkpt>
<trkpt lat="33.6392277" lon="-84.4115188"><time>2026-09-21T14:30:20.000Z</time></trkpt>
<trkpt lat="33.6392710" lon="-84.4116382"><time>2026-09-21T14:30:21.000Z</time></trkpt>
<trkpt lat="33.6391984" lon="-84.4118465"><time>2026-09-21T14:30:22.000Z</time></trkpt>
<trkpt lat="33.6392228" lon="-84.4119891"><time>2026-09-21T14:30:23.000Z</time></trkpt>
<trkpt lat="33.6390685" lon="-84.4121727"><time>2026-09-21T14:30:24.000Z</time></trkpt>
<trkpt lat="33.6388509" lon="-84.4120785"><time>2026-09-21T14:30:25.000Z</time></trkpt>
<trkpt lat="33.6386885" lon="-84.4121469"><time>2026-09-21T14:30:26.000Z</time></trkpt>
<trkpt lat="33.6385182" lon="-84.4120287"><time>2026-09-21T14:30:27.000Z</time></trkpt>
<trkpt lat="33.6383873" lon="-84.4120620"><time>2026-09-21T14:30:28.000Z</time></trkpt>
<trkpt lat="33.6381179" lon="-84.4121034"><time>2026-09-21T14:30:29.000Z</time></trkpt>
<trkpt lat="33.6379255" lon="-84.4121607"><time>2026-09-21T14:30:30.000Z</time></trkpt>
<trkpt lat="33.6378214" lon="-84.4120809"><time>2026-09-21T14:30:31.000Z</time></trkpt>
<trkpt lat="33.6376097" lon="-84.4120711"><time>2026-09-21T14:30:32.000Z</time></trkpt>
<trkpt lat="33.6374702" lon="-84.4121165"><time>2026-09-21T14:30:33.000Z</time></trkpt>
<trkpt lat="33.6373077" lon="-84.4120224"><time>2026-09-21T14:30:34.000Z</time></trkpt>
<trkpt lat="33.6372401" lon="-84.4122912"><time>2026-09-21T14:30:35.000Z</time></trkpt>
<trkpt lat="33.6372289" lon="-84.4125283"><time>2026-09-21T14:30:36.000Z</time></trkpt>
<trkpt lat="33.6372280" lon="-84.4128113"><time>2026-09-21T14:30:37.000Z</time></trkpt>
<trkpt lat="33.6371909" lon="-84.4128126"><time>2026-09-21T14:30:38.000Z</time></trkpt>
<trkpt lat="33.6371978" lon="-84.4130631"><time>2026-09-21T14:30:39.000Z</time></trkpt>
<trkpt lat="33.6371767" lon="-84.4132888"><time>2026-09-21T14:30:40.000Z</time></trkpt>
<trkpt lat="33.6371901" lon="-84.4135846"><time>2026-09-21T14:30:41.000Z</time></trkpt>
<trkpt lat="33.6372567" lon="-84.4138297"><time>2026-09-21T14:30:42.000Z</time></trkpt>
<trkpt lat="33.6371762" lon="-84.4140361"><time>2026-09-21T14:30:43.000Z</time></trkpt>
<trkpt lat="33.6372522" lon="-84.4141646"><time>2026-09-21T14:30:44.000Z</time></trkpt>
<trkpt lat="33.6371856" lon="-84.4143647"><time>2026-09-21T14:30:45.000Z</time></trkpt>
<trkpt lat="33.6372569" lon="-84.4146019"><time>2026-09-21T14:30:46.000Z</time></trkpt>
<trkpt lat="33.6372440" lon="-84.4148696"><time>2026-09-21T14:30:47.000Z</time></trkpt>
<trkpt lat="33.6371382" lon="-84.4150847"><time>2026-09-21T14:30:48.000Z</time></trkpt>
<trkpt lat="33.6371053" lon="-84.4152312"><time>2026-09-21T14:30:49.000Z</time></trkpt>
<trkpt lat="33.6370461" lon="-84.4155000"><time>2026-09-21T14:30:50.000Z</time></trkpt>
<trkpt lat="33.6370984" lon="-84.4157459"><time>2026-09-21T14:30:51.000Z</time></trkpt>
<trkpt lat="33.6371208" lon="-84.4158944"><time>2026-09-21T14:30:52.000Z</time></trkpt>
<trkpt lat="33.6370777" lon="-84.4160625"><time>2026-09-21T14:30:53.000Z</time></trkpt>
<trkpt lat="33.6369535" lon="-84.4163556"><time>2026-09-21T14:30:54.000Z</time></trkpt>
<trkpt lat="33.6370437" lon="-84.4165248"><time>2026-09-21T14:30:55.000Z</time></trkpt>
<trkpt lat="33.6369557" lon="-84.4168189"><time>2026-09-21T14:30:56.000Z</time></trkpt>
<trkpt lat="33.6370398" lon="-84.4169729"><time>2026-09-21T14:30:57.000Z</time></trkpt>
<trkpt lat="33.6370767" lon="-84.4171753"><time>2026-09-21T14:30:58.000Z</time></trkpt>
<trkpt lat="33.6370100" lon="-84.4174034"><time>2026-09-21T14:30:59.000Z</time></trkpt>
<trkpt lat="33.6370223" lon="-84.4176564"><time>2026-09-21T14:31:00.000Z</time></trkpt>
<trkpt lat="33.6370036" lon="-84.4178415"><time>2026-09-21T14:31:01.000Z</time></trkpt>
<trkpt lat="33.6370078" lon="-84.4181013"><time>2026-09-21T14:31:02.000Z</time></trkpt>
<trkpt lat="33.6370183" lon="-84.4183177"><time>2026-09-21T14:31:03.000Z</time></trkpt>
<trkpt lat="33.6369963" lon="-84.4185188"><time>2026-09-21T14:31:04.000Z</time></trkpt>
<trkpt lat="33.6370585" lon="-84.4187830"><time>2026-09-21T14:31:05.000Z</time></trkpt>
<trkpt lat="33.6369903" lon="-84.4189501"><time>2026-09-21T14:31:06.000Z</time></trkpt>
<trkpt lat="33.6370496" lon="-84.4190869"><time>2026-09-21T14:31:07.000Z</time></trkpt>
<trkpt lat="33.6370185" lon="-84.4193178"><time>2026-09-21T14:31:08.000Z</time></trkpt>
<trkpt lat="33.6370207" lon="-84.4195783"><time>2026-09-21T14:31:09.000Z</time></trkpt>
<trkpt lat="33.6370059" lon="-84.4197631"><time>2026-09-21T14:31:10.000Z</time></trkpt>
<trkpt lat="33.6370358" lon="-84.4200508"><time>2026-09-21T14:31:11.000Z</time></trkpt>
<trkpt lat="33.6369957" lon="-84.4202058"><time>2026-09-21T14:31:12.000Z</time></trkpt>
<trkpt lat="33.6370100" lon="-84.4203265"><time>2026-09-21T14:31:13.000Z</time></trkpt>
<trkpt lat="33.6370340" lon="-84.4206341"><time>2026-09-21T14:31:14.000Z</time></trkpt>
<trkpt lat="33.6370350" lon="-84.4208327"><time>2026-09-21T14:31:15.000Z</time></trkpt>
<trkpt lat="33.6369357" lon="-84.4211356"><time>2026-09-21T14:31:16.000Z</time></trkpt>
<trkpt lat="33.6369741" lon="-84.4213375"><time>2026-09-21T14:31:17.000Z</time></trkpt>
<trkpt lat="33.6369761" lon="-84.4215904"><time>2026-09-21T14:31:18.000Z</time></trkpt>
<trkpt lat="33.6370189" lon="-84.4217129"><time>2026-09-21T14:31:19.000Z</time></trkpt>
<trkpt lat="33.6370450" lon="-84.4219759"><time>2026-09-21T14:31:20.000Z</time></trkpt>
<trkpt lat="33.6370106" lon="-84.4221434"><time>2026-09-21T14:31:21.000Z</time></trkpt>
<trkpt lat="33.6370039" lon="-84.4224019"><time>2026-09-21T14:31:22.000Z</time></trkpt>
<trkpt lat="33.6370249" lon="-84.4226561"><time>2026-09-21T14:31:23.000Z</time></trkpt>
<trkpt lat="33.6370005" lon="-84.4228362"><time>2026-09-21T14:31:24.000Z</time></trkpt>
<trkpt lat="33.6369591" lon="-84.4230270"><time>2026-09-21T14:31:25.000Z</time></trkpt>
<trkpt lat="33.6370329" lon="-84.4232776"><time>2026-09-21T14:31:26.000Z</time></trkpt>
<trkpt lat="33.6370308" lon="-84.4234014"><time>2026-09-21T14:31:27.000Z</time></trkpt>
<trkpt lat="33.6369972" lon="-84.4237372"><time>2026-09-21T14:31:28.000Z</time></trkpt>
<trkpt lat="33.6370021" lon="-84.4238583"><time>2026-09-21T14:31:29.000Z</time></trkpt>
<trkpt lat="33.6370072" lon="-84.4241643"><time>2026-09-21T14:31:30.000Z</time></trkpt>
<trkpt lat="33.6370494" lon="-84.4243727"><time>2026-09-21T14:31:31.000Z</time></trkpt>
<trkpt lat="33.6370206" lon="-84.4246030"><time>2026-09-21T14:31:32.000Z</time></trkpt>
<trkpt lat="33.6369953" lon="-84.4247605"><time>2026-09-21T14:31:33.000Z</time></trkpt>
<trkpt lat="33.6370194" lon="-84.4249598"><time>2026-09-21T14:31:34.000Z</time></trkpt>
<trkpt lat="33.6369901" lon="-84.4252321"><time>2026-09-21T14:31:35.000Z</time></trkpt>
<trkpt lat="33.6370111" lon="-84.4254267"><time>2026-09-21T14:31:36.000Z</time></trkpt>
<trkpt lat="33.6370044" lon="-84.4256825"><time>2026-09-21T14:31:37.000Z</time></trkpt>
<trkpt lat="33.6369716" lon="-84.4258678"><time>2026-09-21T14:31:38.000Z</time></trkpt>
<trkpt lat="33.6369927" lon="-84.4261261"><time>2026-09-21T14:31:39.000Z</time></trkpt>
<trkpt lat="33.6370504" lon="-84.4262887"><time>2026-09-21T14:31:40.000Z</time></trkpt>
<trkpt lat="33.6369905" lon="-84.4264684"><time>2026-09-21T14:31:41.000Z</time></trkpt>
<trkpt lat="33.6370037" lon="-84.4267634"><time>2026-09-21T14:31:42.000Z</time></trkpt>
<trkpt lat="33.6370320" lon="-84.4269280"><time>2026-09-21T14:31:43.000Z</time></trkpt>
<trkpt lat="33.6370250" lon="-84.4271390"><time>2026-09-21T14:31:44.000Z</time></trkpt>
<trkpt lat="33.6370542" lon="-84.4272828"><time>2026-09-21T14:31:45.000Z</time></trkpt>
<trkpt lat="33.6371064" lon="-84.4274712"><time>2026-09-21T14:31:46.000Z</time></trkpt>
<trkpt lat="33.6371196" lon="-84.4277718"><time>2026-09-21T14:31:47.000Z</time></trkpt>
<trkpt lat="33.6371369" lon="-84.4280064"><time>2026-09-21T14:31:48.000Z</time></trkpt>
<trkpt lat="33.6371642" lon="-84.4280193"><time>2026-09-21T14:31:49.000Z</time></trkpt>
<trkpt lat="33.6371600" lon="-84.4280654"><time>2026-09-21T14:31:50.000Z</time></trkpt>
<trkpt lat="33.6372033" lon="-84.4279965"><time>2026-09-21T14:31:51.000Z</time></trkpt>
<trkpt lat="33.6371679" lon="-84.4281161"><time>2026-09-21T14:31:52.000Z</time></trkpt>
<trkpt lat="33.6371551" lon="-84.4280497"><time>2026-09-21T14:31:53.000Z</time></trkpt>
</trkseg></trk>
</gpx>
