<?xml version="1.0" encoding="UTF-8"?>
<gpx version="1.1" creator="Flock Finder simulator" xmlns="http://www.topografix.com/GPX/1/1">
<trk><trkseg>
<trkpt lat="33.7812970" lon="-84.3831592"><time>2026-09-21T14:13:21.000Z</time></trkpt>
<trkpt lat="33.7814058" lon="-84.3833298"><time>2026-09-21T14:13:22.000Z</time></trkpt>
<trkpt lat="33.7815002" lon="-84.3834891"><time>2026-09-21T14:13:23.000Z</time></trkpt>
<trkpt lat="33.7816560" lon="-84.3835753"><time>2026-09-21T14:13:24.000Z</time></trkpt>
<trkpt lat="33.7817586" lon="-84.3837545"><time>2026-09-21T14:13:25.000Z</time></trkpt>
<trkpt lat="33.7816933" lon="-84.3839084"><time>2026-09-21T14:13:26.000Z</time></trkpt>
<trkpt lat="33.7818091" lon="-84.3841648"><time>2026-09-21T14:13:27.000Z</time></trkpt>
<trkpt lat="33.7817258" lon="-84.3844569"><time>2026-09-21T14:13:28.000Z</time></trkpt>
<trkpt lat="33.7816961" lon="-84.3844681"><time>2026-09-21T14:13:29.000Z</time></trkpt>
<trkpt lat="33.7816533" lon="-84.3848182"><time>2026-09-21T14:13:30.000Z</time></trkpt>
<trkpt lat="33.7816200" lon="-84.3849594"><time>2026-09-21T14:13:31.000Z</time></trkpt>
<trkpt lat="33.7814968" lon="-84.3852134"><time>2026-09-21T14:13:32.000Z</time></trkpt>
<trkpt lat="33.7814672" lon="-84.3853714"><time>2026-09-21T14:13:33.000Z</time></trkpt>
<trkpt lat="33.7814744" lon="-84.3855312"><time>2026-09-21T14:13:34.000Z</time></trkpt>
<trkpt lat="33.7814352" lon="-84.3857981"><time>2026-09-21T14:13:35.000Z</time></trkpt>
<trkpt lat="33.7815249" lon="-84.3860331"><time>2026-09-21T14:13:36.000Z</time></trkpt>
<trkpt lat="33.7814503" lon="-84.3862239"><time>2026-09-21T14:13:37.000Z</time></trkpt>
<trkpt lat="33.7814570" lon="-84.3864552"><time>2026-09-21T14:13:38.000Z</time></trkpt>
<trkpt lat="33.7814551" lon="-84.3866037"><time>2026-09-21T14:13:39.000Z</time></trkpt>
<trkpt lat="33.7814806" lon="-84.3869548"><time>2026-09-21T14:13:40.000Z</time></trkpt>
<trkpt lat="33.7815221" lon="-84.3870613"><time>2026-09-21T14:13:41.000Z</time></trkpt>
<trkpt lat="33.7815477" lon="-84.3873566"><time>2026-09-21T14:13:42.000Z</time></trkpt>
<trkpt lat="33.7816104" lon="-84.3875943"><time>2026-09-21T14:13:43.000Z</time></trkpt>
<trkpt lat="33.7816091" lon="-84.3877159"><time>2026-09-21T14:13:44.000Z</time></trkpt>
<trkpt lat="33.7814964" lon="-84.3879901"><time>2026-09-21T14:13:45.000Z</time></trkpt>
<trkpt lat="33.7814988" lon="-84.3881806"><time>2026-09-21T14:13:46.000Z</time></trkpt>
<trkpt lat="33.7814783" lon="-84.3883255"><time>2026-09-21T14:13:47.000Z</time></trkpt>
<trkpt lat="33.7815573" lon="-84.3885564"><time>2026-09-21T14:13:48.000Z</time></trkpt>
<trkpt lat="33.7814648" lon="-84.3888762"><time>2026-09-21T14:13:49.000Z</time></trkpt>
<trkpt lat="33.7815277" lon="-84.3890964"><time>2026-09-21T14:13:50.000Z</time></trkpt>
<trkpt lat="33.7814990" lon="-84.3892159"><time>2026-09-21T14:13:51.000Z</time></trkpt>
<trkpt lat="33.7815162" lon="-84.3894920"><time>2026-09-21T14:13:52.000Z</time></trkpt>
<trkpt lat="33.7814811" lon="-84.3897625"><time>2026-09-21T14:13:53.000Z</time></trkpt>
<trkpt lat="33.7815606" lon="-84.3898949"><time>2026-09-21T14:13:54.000Z</time></trkpt>
<trkpt lat="33.7815452" lon="-84.3901320"><time>2026-09-21T14:13:55.000Z</time></trkpt>
<trkpt lat="33.7814751" lon="-84.3903341"><time>2026-09-21T14:13:56.000Z</time></trkpt>
<trkpt lat="33.7815290" lon="-84.3905049"><time>2026-09-21T14:13:57.000Z</time></trkpt>
<trkpt lat="33.7815115" lon="-84.3908021"><time>2026-09-21T14:13:58.000Z</time></trkpt>
<trkpt lat="33.7815316" lon="-84.3909555"><time>2026-09-21T14:13:59.000Z</time></trkpt>
<trkpt lat="33.7815243" lon="-84.3912249"><time>2026-09-21T14:14:00.000Z</time></trkpt>
<trkpt lat="33.7815204" lon="-84.3913704"><time>2026-09-21T14:14:01.000Z</time></trkpt>
<trkpt lat="33.7815163" lon="-84.3916036"><time>2026-09-21T14:14:02.000Z</time></trkpt>
<trkpt lat="33.7813018" lon="-84.3916064"><time>2026-09-21T14:14:03.000Z</time></trkpt>
<trkpt lat="33.7810908" lon="-84.3916299"><time>2026-09-21T14:14:04.000Z</time></trkpt>
<trkpt lat="33.7810408" lon="-84.3915828"><time>2026-09-21T14:14:05.000Z</time></trkpt>
<trkpt lat="33.7808776" lon="-84.3916868"><time>2026-09-21T14:14:06.000Z</time></trkpt>
<trkpt lat="33.7806318" lon="-84.3915158"><time>2026-09-21T14:14:07.000Z</time></trkpt>
<trkpt lat="33.7804343" lon="-84.3914279"><time>2026-09-21T14:14:08.000Z</time></trkpt>
<trkpt lat="33.7803041" lon="-84.3913850"><time>2026-09-21T14:14:09.000Z</time></trkpt>
<trkpt lat="33.7801101" lon="-84.3914699"><time>2026-09-21T14:14:10.000Z</time></trkpt>
<trkpt lat="33.7798797" lon="-84.3914265"><time>2026-09-21T14:14:11.000Z</time></trkpt>
<trkpt lat="33.7798198" lon="-84.3914042"><time>2026-09-21T14:14:12.000Z</time></trkpt>
<trkpt lat="33.7795463" lon="-84.3912251"><time>2026-09-21T14:14:13.000Z</time></trkpt>
<trkpt lat="33.7793579" lon="-84.3911374"><time>2026-09-21T14:14:14.000Z</time></trkpt>
<trkpt lat="33.7792181" lon="-84.3911784"><time>2026-09-21T14:14:15.000Z</time></trkpt>
<trkpt lat="33.7790172" lon="-84.3911832"><time>2026-09-21T14:14:16.000Z</time></trkpt>
<trkpt lat="33.7789018" lon="-84.3912292"><time>2026-09-21T14:14:17.000Z</time></trkpt>
<trkpt lat="33.7787315" lon="-84.3912244"><time>2026-09-21T14:14:18.000Z</time></trkpt>
<trkpt lat="33.7784793" lon="-84.3911902"><time>2026-09-21T14:14:19.000Z</time></trkpt>
<trkpt lat="33.7783426" lon="-84.3912346"><time>2026-09-21T14:14:20.000Z</time></trkpt>
<trkpt lat="33.7781808" lon="-84.3911651"><time>2026-09-21T14:14:21.000Z</time></trkpt>
<trkpt lat="33.7779931" lon="-84.3911995"><time>2026-09-21T14:14:22.000Z</time></trkpt>
<trkpt lat="33.7778319" lon="-84.3911530"><time>2026-09-21T14:14:23.000Z</time></trkpt>
<trkpt lat="33.7775709" lon="-84.3911035"><time>2026-09-21T14:14:24.000Z</time></trkpt>
<trkpt lat="33.7774799" lon="-84.3910791"><time>2026-09-21T14:14:25.000Z</time></trkpt>
<trkpt lat="33.7772832" lon="-84.3910387"><time>2026-09-21T14:14:26.000Z</time></trkpt>
<trkpt lat="33.7770272" lon="-84.3910781"><time>2026-09-21T14:14:27.000Z</time></trkpt>
<trkpt lat="33.7768847" lon="-84.3910066"><time>2026-09-21T14:14:28.000Z</time></trkpt>
<trkpt lat="33.7767206" lon="-84.3909982"><time>2026-09-21T14:14:29.000Z</time></trkpt>
<trkpt lat="33.7765100" lon="-84.3909744"><time>2026-09-21T14:14:30.000Z</time></trkpt>
<trkpt lat="33.7763815" lon="-84.3909789"><time>2026-09-21T14:14:31.000Z</time></trkpt>
<trkpt lat="33.7761763" lon="-84.3909147"><time>2026-09-21T14:14:32.000Z</time></trkpt>
<trkpt lat="33.7759909" lon="-84.3908200"><time>2026-09-21T14:14:33.000Z</time></trkpt>
<trkpt lat="33.7758949" lon="-84.3907892"><time>2026-09-21T14:14:34.000Z</time></trkpt>
<trkpt lat="33.7756427" lon="-84.3906896"><time>2026-09-21T14:14:35.000Z</time></trkpt>
<trkpt lat="33.7754976" lon="-84.3907522"><time>2026-09-21T14:14:36.000Z</time></trkpt>
<trkpt lat="33.7753044" lon="-84.3906537"><time>2026-09-21T14:14:37.000Z</time></trkpt>
<trkpt lat="33.7751762" lon="-84.3906412"><time>2026-09-21T14:14:38.000Z</time></trkpt>
<trkpt lat="33.7749225" lon="-84.3906608"><time>2026-09-21T14:14:39.000Z</time></trkpt>
<trkpt lat="33.7748323" lon="-84.3905248"><time>2026-09-21T14:14:40.000Z</time></trkpt>
<trkpt lat="33.7745747" lon="-84.3905431"><time>2026-09-21T14:14:41.000Z</time></trkpt>
<trkpt lat="33.7743957" lon="-84.3904693"><time>2026-09-21T14:14:42.000Z</time></trkpt>
<trkpt lat="33.7742860" lon="-84.3904746"><time>2026-09-21T14:14:43.000Z</time></trkpt>
<trkpt lat="33.7740544" lon="-84.3903790"><time>2026-09-21T14:14:44.000Z</time></trkpt>
<trkpt lat="33.7738578" lon="-84.3904322"><time>2026-09-21T14:14:45.000Z</time></trkpt>
<trkpt lat="33.7736573" lon="-84.3904058"><time>2026-09-21T14:14:46.000Z</time></trkpt>
<trkpt lat="33.7735011" lon="-84.3903880"><time>2026-09-21T14:14:47.000Z</time></trkpt>
<trkpt lat="33.7733915" lon="-84.3902832"><time>2026-09-21T14:14:48.000Z</time></trkpt>
<trkpt lat="33.7731343" lon="-84.3904159"><time>2026-09-21T14:14:49.000Z</time></trkpt>
<trkpt lat="33.7729721" lon="-84.3903517"><time>2026-09-21T14:14:50.000Z</time></trkpt>
<trkpt lat="33.7727997" lon="-84.3904711"><time>2026-09-21T14:14:51.000Z</time></trkpt>
<trkpt lat="33.7726807" lon="-84.3903783"><time>2026-09-21T14:14:52.000Z</time></trkpt>
<trkpt lat="33.7724818" lon="-84.3903333"><time>2026-09-21T14:14:53.000Z</time></trkpt>
<trkpt lat="33.7722357" lon="-84.3903769"><time>2026-09-21T14:14:54.000Z</time></trkpt>
<trkpt lat="33.7720666" lon="-84.3904476"><time>2026-09-21T14:14:55.000Z</time></trkpt>
<trkpt lat="33.7719682" lon="-84.3904116"><time>2026-09-21T14:14:56.000Z</time></trkpt>
<trkpt lat="33.7717593" lon="-84.3905195"><time>2026-09-21T14:14:57.000Z</time></trkpt>
<trkpt lat="33.7715551" lon="-84.3904163"><time>2026-09-21T14:14:58.000Z</time></trkpt>
<trkpt lat="33.7713937" lon="-84.3904414"><time>2026-09-21T14:14:59.000Z</time></trkpt>
<trkpt lat="33.7711996" lon="-84.3904135"><time>2026-09-21T14:15:00.000Z</time></trkpt>
<trkpt lat="33.7710266" lon="-84.3905668"><time>2026-09-21T14:15:01.000Z</time></trkpt>
<trkpt lat="33.7708122" lon="-84.3904781"><time>2026-09-21T14:15:02.000Z</time></trkpt>
<trkpt lat="33.7706485" lon="-84.3904609"><time>2026-09-21T14:15:03.000Z</time></trkpt>
<trkpt lat="33.7704770" lon="-84.3905486"><time>2026-09-21T14:15:04.000Z</time></trkpt>
<trkpt lat="33.7703000" lon="-84.3905118"><time>2026-09-21T14:15:05.000Z</time></trkpt>
<trkpt lat="33.7702089" lon="-84.3905957"><time>2026-09-21T14:15:06.000Z</time></trkpt>
<trkpt lat="33.7699341" lon="-84.3906223"><time>2026-09-21T14:15:07.000Z</time></trkpt>
<trkpt lat="33.7697562" lon="-84.3906010"><time>2026-09-21T14:15:08.000Z</time></trkpt>
<trkpt lat="33.7695662" lon="-84.3905892"><time>2026-09-21T14:15:09.000Z</time></trkpt>
<trkpt lat="33.7694177" lon="-84.3906301"><time>2026-09-21T14:15:10.000Z</time></trkpt>
<trkpt lat="33.7691382" lon="-84.3905453"><time>2026-09-21T14:15:11.000Z</time></trkpt>
<trkpt lat="33.7690205" lon="-84.3905737"><time>2026-09-21T14:15:12.000Z</time></trkpt>
<trkpt lat="33.7688792" lon="-84.3905026"><time>2026-09-21T14:15:13.000Z</time></trkpt>
<trkpt lat="33.7687069" lon="-84.3904514"><time>2026-09-21T14:15:14.000Z</time></trkpt>
<trkpt lat="33.7685522" lon="-84.3903742"><time>2026-09-21T14:15:15.000Z</time></trkpt>
<trkpt lat="33.7683255" lon="-84.3901748"><time>2026-09-21T14:15:16.000Z</time></trkpt>
<trkpt lat="33.7681804" lon="-84.3901592"><time>2026-09-21T14:15:17.000Z</time></trkpt>
<trkpt lat="33.7680644" lon="-84.3899745"><time>2026-09-21T14:15:18.000Z</time></trkpt>
<trkpt lat="33.7679125" lon="-84.3898331"><time>2026-09-21T14:15:19.000Z</time></trkpt>
<trkpt lat="33.7677500" lon="-84.3896666"><time>2026-09-21T14:15:20.000Z</time></trkpt>
<trkpt lat="33.7677174" lon="-84.3896286"><time>2026-09-21T14:15:21.000Z</time></trkpt>
<trkpt lat="33.7675027" lon="-84.3894880"><time>2026-09-21T14:15:22.000Z</time></trkpt>
<trkpt lat="33.7674548" lon="-84.3892732"><time>2026-09-21T14:15:23.000Z</time></trkpt>
<trkpt lat="33.7673044" lon="-84.3890493"><time>2026-09-21T14:15:24.000Z</time></trkpt>
<trkpt lat="33.7671965" lon="-84.3888952"><time>2026-09-21T14:15:25.000Z</time></trkpt>
<trkpt lat="33.7670826" lon="-84.3887766"><time>2026-09-21T14:15:26.000Z</time></trkpt>
<trkpt lat="33.7669232" lon="-84.3886386"><time>2026-09-21T14:15:27.000Z</time></trkpt>
<trkpt lat="33.7668745" lon="-84.3883702"><time>2026-09-21T14:15:28.000Z</time></trkpt>
<trkpt lat="33.7668025" lon="-84.3882246"><time>2026-09-21T14:15:29.000Z</time></trkpt>
<trkpt lat="33.7667421" lon="-84.3880276"><time>2026-09-21T14:15:30.000Z</time></trkpt>
<trkpt lat="33.7666106" lon="-84.3879277"><time>2026-09-21T14:15:31.000Z</time></trkpt>
<trkpt lat="33.7664975" lon="-84.3876811"><time>2026-09-21T14:15:32.000Z</time></trkpt>
<trkpt lat="33.7663865" lon="-84.3875609"><time>2026-09-21T14:15:33.000Z</time></trkpt>
<trkpt lat="33.7663001" lon="-84.3873001"><time>2026-09-21T14:15:34.000Z</time></trkpt>
<trkpt lat="33.7661585" lon="-84.3871114"><time>2026-09-21T14:15:35.000Z</time></trkpt>
<trkpt lat="33.7660756" lon="-84.3868797"><time>2026-09-21T14:15:36.000Z</time></trkpt>
<trkpt lat="33.7659662" lon="-84.3867519"><time>2026-09-21T14:15:37.000Z</time></trkpt>
<trkpt lat="33.7658743" lon="-84.3865631"><time>2026-09-21T14:15:38.000Z</time></trkpt>
<trkpt lat="33.7657780" lon="-84.3865260"><time>2026-09-21T14:15:39.000Z</time></trkpt>
<trkpt lat="33.7656269" lon="-84.3861750"><time>2026-09-21T14:15:40.000Z</time></trkpt>
<trkpt lat="33.7655753" lon="-84.3860647"><time>2026-09-21T14:15:41.000Z</time></trkpt>
<trkpt lat="33.7655102" lon="-84.3858518"><time>2026-09-21T14:15:42.000Z</time></trkpt>
<trkpt lat="33.7653372" lon="-84.3856776"><time>2026-09-21T14:15:43.000Z</time></trkpt>
<trkpt lat="33.7652206" lon="-84.3856043"><time>2026-09-21T14:15:44.000Z</time></trkpt>
<trkpt lat="33.7651567" lon="-84.3854286"><time>2026-09-21T14:15:45.000Z</time></trkpt>
<trkpt lat="33.7651165" lon="-84.3852058"><time>2026-09-21T14:15:46.000Z</time></trkpt>
<trkpt lat="33.7648761" lon="-84.3850569"><time>2026-09-21T14:15:47.000Z</time></trkpt>
<trkpt lat="33.7648373" lon="-84.3849415"><time>2026-09-21T14:15:48.000Z</time></trkpt>
<trkpt lat="33.7647047" lon="-84.3847539"><time>2026-09-21T14:15:49.000Z</time></trkpt>
<trkpt lat="33.7644591" lon="-84.3845336"><time>2026-09-21T14:15:50.000Z</time></trkpt>
<trkpt lat="33.7643405" lon="-84.3844556"><time>2026-09-21T14:15:51.000Z</time></trkpt>
<trkpt lat="33.7642815" lon="-84.3842642"><time>2026-09-21T14:15:52.000Z</time></trkpt>
<trkpt lat="33.7640822" lon="-84.3840801"><time>2026-09-21T14:15:53.000Z</time></trkpt>
<trkpt lat="33.7639852" lon="-84.3840322"><time>2026-09-21T14:15:54.000Z</time></trkpt>
<trkpt lat="33.7638639" lon="-84.3839059"><time>2026-09-21T14:15:55.000Z</time></trkpt>
<trkpt lat="33.7636485" lon="-84.3837343"><time>2026-09-21T14:15:56.000Z</time></trkpt>
<trkpt lat="33.7635292" lon="-84.3836887"><time>2026-09-21T14:15:57.000Z</time></trkpt>
<trkpt lat="33.7634137" lon="-84.3835470"><time>2026-09-21T14:15:58.000Z</time></trkpt>
<trkpt lat="33.7632304" lon="-84.3833233"><time>2026-09-21T14:15:59.000Z</time></trkpt>
<trkpt lat="33.7631767" lon="-84.3832568"><time>2026-09-21T14:16:00.000Z</time></trkpt>
<trkpt lat="33.7630022" lon="-84.3831129"><time>2026-09-21T14:16:01.000Z</time></trkpt>
<trkpt lat="33.7629116" lon="-84.3829098"><time>2026-09-21T14:16:02.000Z</time></trkpt>
<trkpt lat="33.7627715" lon="-84.3826873"><time>2026-09-21T14:16:03.000Z</time></trkpt>
<trkpt lat="33.7626377" lon="-84.3826125"><time>2026-09-21T14:16:04.000Z</time></trkpt>
<trkpt lat="33.7625156" lon="-84.3825363"><time>2026-09-21T14:16:05.000Z</time></trkpt>
<trkpt lat="33.7623463" lon="-84.3822846"><time>2026-09-21T14:16:06.000Z</time></trkpt>
<trkpt lat="33.7622222" lon="-84.3821735"><time>2026-09-21T14:16:07.000Z</time></trkpt>
<trkpt lat="33.7621050" lon="-84.3821027"><time>2026-09-21T14:16:08.000Z</time></trkpt>
<trkpt lat="33.7620095" lon="-84.3818072"><time>2026-09-21T14:16:09.000Z</time></trkpt>
<trkpt lat="33.7618456" lon="-84.3816962"><time>2026-09-21T14:16:10.000Z</time></trkpt>
<trkpt lat="33.7617581" lon="-84.3815706"><time>2026-09-21T14:16:11.000Z</time></trkpt>
<trkpt lat="33.7615519" lon="-84.3814413"><time>2026-09-21T14:16:12.000Z</time></trkpt>
<trkpt lat="33.7614416" lon="-84.3812761"><time>2026-09-21T14:16:13.000Z</time></trkpt>
<trkpt lat="33.7612562" lon="-84.3811276"><time>2026-09-21T14:16:14.000Z</time></trkpt>
<trkpt lat="33.7612097" lon="-84.3809617"><time>2026-09-21T14:16:15.000Z</time></trkpt>
<trkpt lat="33.7610564" lon="-84.3808241"><time>2026-09-21T14:16:16.000Z</time></trkpt>
<trkpt lat="33.7608954" lon="-84.3807054"><time>2026-09-21T14:16:17.000Z</time></trkpt>
<trkpt lat="33.7607683" lon="-84.3806002"><time>2026-09-21T14:16:18.000Z</time></trkpt>
<trkpt lat="33.7605997" lon="-84.3804708"><time>2026-09-21T14:16:19.000Z</time></trkpt>
<trkpt lat="33.7605420" lon="-84.3803311"><time>2026-09-21T14:16:20.000Z</time></trkpt>
<trkpt lat="33.7603577" lon="-84.3801126"><time>2026-09-21T14:16:21.000Z</time></trkpt>
<trkpt lat="33.7601635" lon="-84.3800028"><time>2026-09-21T14:16:22.000Z</time></trkpt>
<trkpt lat="33.7600750" lon="-84.3799528"><time>2026-09-21T14:16:23.000Z</time></trkpt>
<trkpt lat="33.7598862" lon="-84.3798521"><time>2026-09-21T14:16:24.000Z</time></trkpt>
<trkpt lat="33.7597215" lon="-84.3797421"><time>2026-09-21T14:16:25.000Z</time></trkpt>
<trkpt lat="33.7595987" lon="-84.3796533"><time>2026-09-21T14:16:26.000Z</time></trkpt>
<trkpt lat="33.7593911" lon="-84.3794132"><time>2026-09-21T14:16:27.000Z</time></trkpt>
<trkpt lat="33.7592047" lon="-84.3793690"><time>2026-09-21T14:16:28.000Z</time></trkpt>
<trkpt lat="33.7590519" lon="-84.3794280"><time>2026-09-21T14:16:29.000Z</time></trkpt>
<trkpt lat="33.7588900" lon="-84.3792687"><time>2026-09-21T14:16:30.000Z</time></trkpt>
<trkpt lat="33.7587520" lon="-84.3791211"><time>2026-09-21T14:16:31.000Z</time></trkpt>
<trkpt lat="33.7586116" lon="-84.3791778"><time>2026-09-21T14:16:32.000Z</time></trkpt>
<trkpt lat="33.7584254" lon="-84.3791026"><time>2026-09-21T14:16:33.000Z</time></trkpt>
<trkpt lat="33.7582214" lon="-84.3790024"><time>2026-09-21T14:16:34.000Z</time></trkpt>
<trkpt lat="33.7581180" lon="-84.3789821"><time>2026-09-21T14:16:35.000Z</time></trkpt>
<trkpt lat="33.7578826" lon="-84.3788733"><time>2026-09-21T14:16:36.000Z</time></trkpt>
<trkpt lat="33.7576801" lon="-84.3788108"><time>2026-09-21T14:16:37.000Z</time></trkpt>
<trkpt lat="33.7575578" lon="-84.3787532"><time>2026-09-21T14:16:38.000Z</time></trkpt>
<trkpt lat="33.7573498" lon="-84.3787553"><time>2026-09-21T14:16:39.000Z</time></trkpt>
<trkpt lat="33.7571510" lon="-84.3788400"><time>2026-09-21T14:16:40.000Z</time></trkpt>
<trkpt lat="33.7569844" lon="-84.3787236"><time>2026-09-21T14:16:41.000Z</time></trkpt>
<trkpt lat="33.7568818" lon="-84.3786656"><time>2026-09-21T14:16:42.000Z</time></trkpt>
<trkpt lat="33.7566247" lon="-84.3786442"><time>2026-09-21T14:16:43.000Z</time></trkpt>
<trkpt lat="33.7564695" lon="-84.3785755"><time>2026-09-21T14:16:44.000Z</time></trkpt>
<trkpt lat="33.7562555" lon="-84.3786815"><time>2026-09-21T14:16:45.000Z</time></trkpt>
<trkpt lat="33.7561824" lon="-84.3786462"><time>2026-09-21T14:16:46.000Z</time></trkpt>
<trkpt lat="33.7558518" lon="-84.3787030"><time>2026-09-21T14:16:47.000Z</time></trkpt>
<trkpt lat="33.7557024" lon="-84.3786974"><time>2026-09-21T14:16:48.000Z</time></trkpt>
<trkpt lat="33.7555438" lon="-84.3786621"><time>2026-09-21T14:16:49.000Z</time></trkpt>
<trkpt lat="33.7554077" lon="-84.3785755"><time>2026-09-21T14:16:50.000Z</time></trkpt>
<trkpt lat="33.7551584" lon="-84.3786273"><time>2026-09-21T14:16:51.000Z</time></trkpt>
<trkpt lat="33.7550448" lon="-84.3786798"><time>2026-09-21T14:16:52.000Z</time></trkpt>
<trkpt lat="33.7548321" lon="-84.3786816"><time>2026-09-21T14:16:53.000Z</time></trkpt>
<trkpt lat="33.7546429" lon="-84.3786877"><time>2026-09-21T14:16:54.000Z</time></trkpt>
<trkpt lat="33.7544374" lon="-84.3787265"><time>2026-09-21T14:16:55.000Z</time></trkpt>
<trkpt lat="33.7542127" lon="-84.3788286"><time>2026-09-21T14:16:56.000Z</time></trkpt>
<trkpt lat="33.7541485" lon="-84.3787440"><time>2026-09-21T14:16:57.000Z</time></trkpt>
<trkpt lat="33.7538671" lon="-84.3788490"><time>2026-09-21T14:16:58.000Z</time></trkpt>
<trkpt lat="33.7537642" lon="-84.3789117"><time>2026-09-21T14:16:59.000Z</time></trkpt>
<trkpt lat="33.7536390" lon="-84.3789558"><time>2026-09-21T14:17:00.000Z</time></trkpt>
<trkpt lat="33.7534048" lon="-84.3790122"><time>2026-09-21T14:17:01.000Z</time></trkpt>
<trkpt lat="33.7532632" lon="-84.3791232"><time>2026-09-21T14:17:02.000Z</time></trkpt>
<trkpt lat="33.7530619" lon="-84.3792650"><time>2026-09-21T14:17:03.000Z</time></trkpt>
<trkpt lat="33.7529731" lon="-84.3793197"><time>2026-09-21T14:17:04.000Z</time></trkpt>
<trkpt lat="33.7527714" lon="-84.3793597"><time>2026-09-21T14:17:05.000Z</time></trkpt>
<trkpt lat="33.7526177" lon="-84.3794806"><time>2026-09-21T14:17:06.000Z</time></trkpt>
<trkpt lat="33.7524521" lon="-84.3796446"><time>2026-09-21T14:17:07.000Z</time></trkpt>
<trkpt lat="33.7523226" lon="-84.3797434"><time>2026-09-21T14:17:08.000Z</time></trkpt>
<trkpt lat="33.7521735" lon="-84.3798028"><time>2026-09-21T14:17:09.000Z</time></trkpt>
<trkpt lat="33.7520642" lon="-84.3799593"><time>2026-09-21T14:17:10.000Z</time></trkpt>
<trkpt lat="33.7519239" lon="-84.3800958"><time>2026-09-21T14:17:11.000Z</time></trkpt>
<trkpt lat="33.7517580" lon="-84.3802170"><time>2026-09-21T14:17:12.000Z</time></trkpt>
<trkpt lat="33.7516448" lon="-84.3803819"><time>2026-09-21T14:17:13.000Z</time></trkpt>
<trkpt lat="33.7514058" lon="-84.3805888"><time>2026-09-21T14:17:14.000Z</time></trkpt>
<trkpt lat="33.7513746" lon="-84.3808274"><time>2026-09-21T14:17:15.000Z</time></trkpt>
<trkpt lat="33.7512381" lon="-84.3808541"><time>2026-09-21T14:17:16.000Z</time></trkpt>
<trkpt lat="33.7511052" lon="-84.3809989"><time>2026-09-21T14:17:17.000Z</time></trkpt>
<trkpt lat="33.7509893" lon="-84.3812025"><time>2026-09-21T14:17:18.000Z</time></trkpt>
<trkpt lat="33.7507838" lon="-84.3813977"><time>2026-09-21T14:17:19.000Z</time></trkpt>
<trkpt lat="33.7507323" lon="-84.3814816"><time>2026-09-21T14:17:20.000Z</time></trkpt>
<trkpt lat="33.7505744" lon="-84.3816195"><time>2026-09-21T14:17:21.000Z</time></trkpt>
<trkpt lat="33.7504208" lon="-84.3817582"><time>2026-09-21T14:17:22.000Z</time></trkpt>
<trkpt lat="33.7504106" lon="-84.3818727"><time>2026-09-21T14:17:23.000Z</time></trkpt>
<trkpt lat="33.7502226" lon="-84.3820838"><time>2026-09-21T14:17:24.000Z</time></trkpt>
<trkpt lat="33.7500736" lon="-84.3822442"><time>2026-09-21T14:17:25.000Z</time></trkpt>
<trkpt lat="33.7499897" lon="-84.3823404"><time>2026-09-21T14:17:26.000Z</time></trkpt>
<trkpt lat="33.7498142" lon="-84.3825438"><time>2026-09-21T14:17:27.000Z</time></trkpt>
<trkpt lat="33.7496949" lon="-84.3826856"><time>2026-09-21T14:17:28.000Z</time></trkpt>
<trkpt lat="33.7495901" lon="-84.3828841"><time>2026-09-21T14:17:29.000Z</time></trkpt>
<trkpt lat="33.7494425" lon="-84.3830420"><time>2026-09-21T14:17:30.000Z</time></trkpt>
<trkpt lat="33.7493676" lon="-84.3831719"><time>2026-09-21T14:17:31.000Z</time></trkpt>
<trkpt lat="33.7492549" lon="-84.3834031"><time>2026-09-21T14:17:32.000Z</time></trkpt>
<trkpt lat="33.7491388" lon="-84.3834705"><time>2026-09-21T14:17:33.000Z</time></trkpt>
<trkpt lat="33.7490874" lon="-84.3837326"><time>2026-09-21T14:17:34.000Z</time></trkpt>
<trkpt lat="33.7489357" lon="-84.3838423"><time>2026-09-21T14:17:35.000Z</time></trkpt>
<trkpt lat="33.7488546" lon="-84.3841143"><time>2026-09-21T14:17:36.000Z</time></trkpt>
<trkpt lat="33.7487322" lon="-84.3842552"><time>2026-09-21T14:17:37.000Z</time></trkpt>
<trkpt lat="33.7487162" lon="-84.3844965"><time>2026-09-21T14:17:38.000Z</time></trkpt>
<trkpt lat="33.7486837" lon="-84.3847030"><time>2026-09-21T14:17:39.000Z</time></trkpt>
<trkpt lat="33.7485646" lon="-84.3848643"><time>2026-09-21T14:17:40.000Z</time></trkpt>
<trkpt lat="33.7484356" lon="-84.3850597"><time>2026-09-21T14:17:41.000Z</time></trkpt>
<trkpt lat="33.7483835" lon="-84.3852460"><time>2026-09-21T14:17:42.000Z</time></trkpt>
<trkpt lat="33.7483544" lon="-84.3854697"><time>2026-09-21T14:17:43.000Z</time></trkpt>
<trkpt lat="33.7482519" lon="-84.3856577"><time>2026-09-21T14:17:44.000Z</time></trkpt>
<trkpt lat="33.7481837" lon="-84.3857757"><time>2026-09-21T14:17:45.000Z</time></trkpt>
<trkpt lat="33.7480967" lon="-84.3860338"><time>2026-09-21T14:17:46.000Z</time></trkpt>
<trkpt lat="33.7479746" lon="-84.3862277"><time>2026-09-21T14:17:47.000Z</time></trkpt>
<trkpt lat="33.7478660" lon="-84.3864076"><time>2026-09-21T14:17:48.000Z</time></trkpt>
<trkpt lat="33.7477236" lon="-84.3865268"><time>2026-09-21T14:17:49.000Z</time></trkpt>
<trkpt lat="33.7477416" lon="-84.3868513"><time>2026-09-21T14:17:50.000Z</time></trkpt>
<trkpt lat="33.7475238" lon="-84.3868999"><time>2026-09-21T14:17:51.000Z</time></trkpt>
<trkpt lat="33.7474536" lon="-84.3870074"><time>2026-09-21T14:17:52.000Z</time></trkpt>
<trkpt lat="33.7473009" lon="-84.3873198"><time>2026-09-21T14:17:53.000Z</time></trkpt>
<trkpt lat="33.7471980" lon="-84.3874553"><time>2026-09-21T14:17:54.000Z</time></trkpt>
<trkpt lat="33.7471669" lon="-84.3875052"><time>2026-09-21T14:17:55.000Z</time></trkpt>
<trkpt lat="33.7470270" lon="-84.3878111"><time>2026-09-21T14:17:56.000Z</time></trkpt>
<trkpt lat="33.7468651" lon="-84.3877884"><time>2026-09-21T14:17:57.000Z</time></trkpt>
<trkpt lat="33.7467934" lon="-84.3880656"><time>2026-09-21T14:17:58.000Z</time></trkpt>
<trkpt lat="33.7466624" lon="-84.3881744"><time>2026-09-21T14:17:59.000Z</time></trkpt>
<trkpt lat="33.7464983" lon="-84.3884033"><time>2026-09-21T14:18:00.000Z</time></trkpt>
<trkpt lat="33.7463630" lon="-84.3885643"><time>2026-09-21T14:18:01.000Z</time></trkpt>
<trkpt lat="33.7462659" lon="-84.3886470"><time>2026-09-21T14:18:02.000Z</time></trkpt>
<trkpt lat="33.7461211" lon="-84.3888680"><time>2026-09-21T14:18:03.000Z</time></trkpt>
<trkpt lat="33.7460010" lon="-84.3890237"><time>2026-09-21T14:18:04.000Z</time></trkpt>
<trkpt lat="33.7458924" lon="-84.3891979"><time>2026-09-21T14:18:05.000Z</time></trkpt>
<trkpt lat="33.7457801" lon="-84.3893804"><time>2026-09-21T14:18:06.000Z</time></trkpt>
<trkpt lat="33.7456497" lon="-84.3894493"><time>2026-09-21T14:18:07.000Z</time></trkpt>
<trkpt lat="33.7455590" lon="-84.3895888"><time>2026-09-21T14:18:08.000Z</time></trkpt>
<trkpt lat="33.7453866" lon="-84.3898431"><time>2026-09-21T14:18:09.000Z</time></trkpt>
<trkpt lat="33.7452644" lon="-84.3900049"><time>2026-09-21T14:18:10.000Z</time></trkpt>
<trkpt lat="33.7452226" lon="-84.3900927"><time>2026-09-21T14:18:11.000Z</time></trkpt>
<trkpt lat="33.7450758" lon="-84.3902731"><time>2026-09-21T14:18:12.000Z</time></trkpt>
<trkpt lat="33.7449496" lon="-84.3905134"><time>2026-09-21T14:18:13.000Z</time></trkpt>
<trkpt lat="33.7447193" lon="-84.3905692"><time>2026-09-21T14:18:14.000Z</time></trkpt>
<trkpt lat="33.7446483" lon="-84.3907079"><time>2026-09-21T14:18:15.000Z</time></trkpt>
<trkpt lat="33.7445141" lon="-84.3909631"><time>2026-09-21T14:18:16.000Z</time></trkpt>
<trkpt lat="33.7443320" lon="-84.3909892"><time>2026-09-21T14:18:17.000Z</time></trkpt>
<trkpt lat="33.7442532" lon="-84.3910844"><time>2026-09-21T14:18:18.000Z</time></trkpt>
<trkpt lat="33.7440882" lon="-84.3911683"><time>2026-09-21T14:18:19.000Z</time></trkpt>
<trkpt lat="33.7439255" lon="-84.3913032"><time>2026-09-21T14:18:20.000Z</time></trkpt>
<trkpt lat="33.7437768" lon="-84.3914153"><time>2026-09-21T14:18:21.000Z</time></trkpt>
<trkpt lat="33.7435480" lon="-84.3915840"><time>2026-09-21T14:18:22.000Z</time></trkpt>
<trkpt lat="33.7434530" lon="-84.3916000"><time>2026-09-21T14:18:23.000Z</time></trkpt>
<trkpt lat="33.7432424" lon="-84.3917694"><time>2026-09-21T14:18:24.000Z</time></trkpt>
<trkpt lat="33.7430865" lon="-84.3917400"><time>2026-09-21T14:18:25.000Z</time></trkpt>
<trkpt lat="33.7428723" lon="-84.3918505"><time>2026-09-21T14:18:26.000Z</time></trkpt>
<trkpt lat="33.7427390" lon="-84.3919672"><time>2026-09-21T14:18:27.000Z</time></trkpt>
<trkpt lat="33.7425478" lon="-84.3919112"><time>2026-09-21T14:18:28.000Z</time></trkpt>
<trkpt lat="33.7423728" lon="-84.3919506"><time>2026-09-21T14:18:29.000Z</time></trkpt>
<trkpt lat="33.7422070" lon="-84.3919885"><time>2026-09-21T14:18:30.000Z</time></trkpt>
<trkpt lat="33.7420612" lon="-84.3920522"><time>2026-09-21T14:18:31.000Z</time></trkpt>
<trkpt lat="33.7418440" lon="-84.3919889"><time>2026-09-21T14:18:32.000Z</time></trkpt>
<trkpt lat="33.7416918" lon="-84.3920108"><time>2026-09-21T14:18:33.000Z</time></trkpt>
<trkpt lat="33.7415341" lon="-84.3920490"><time>2026-09-21T14:18:34.000Z</time></trkpt>
<trkpt lat="33.7412856" lon="-84.3919672"><time>2026-09-21T14:18:35.000Z</time></trkpt>
<trkpt lat="33.7410723" lon="-84.3921219"><time>2026-09-21T14:18:36.000Z</time></trkpt>
<trkpt lat="33.7409410" lon="-84.3920312"><time>2026-09-21T14:18:37.000Z</time></trkpt>
<trkpt lat="33.7407596" lon="-84.3920902"><time>2026-09-21T14:18:38.000Z</time></trkpt>
<trkpt lat="33.7406199" lon="-84.3920801"><time>2026-09-21T14:18:39.000Z</time></trkpt>
<trkpt lat="33.7404597" lon="-84.3921397"><time>2026-09-21T14:18:40.000Z</time></trkpt>
<trkpt lat="33.7401787" lon="-84.3920704"><time>2026-09-21T14:18:41.000Z</time></trkpt>
<trkpt lat="33.7400162" lon="-84.3920747"><time>2026-09-21T14:18:42.000Z</time></trkpt>
<trkpt lat="33.7398945" lon="-84.3920709"><time>2026-09-21T14:18:43.000Z</time></trkpt>
<trkpt lat="33.7396781" lon="-84.3921309"><time>2026-09-21T14:18:44.000Z</time></trkpt>
<trkpt lat="33.7394899" lon="-84.3922390"><time>2026-09-21T14:18:45.000Z</time></trkpt>
<trkpt lat="33.7392991" lon="-84.3920975"><time>2026-09-21T14:18:46.000Z</time></trkpt>
<trkpt lat="33.7391138" lon="-84.3920451"><time>2026-09-21T14:18:47.000Z</time></trkpt>
<trkpt lat="33.7390089" lon="-84.3921490"><time>2026-09-21T14:18:48.000Z</time></trkpt>
<trkpt lat="33.7388210" lon="-84.3921357"><time>2026-09-21T14:18:49.000Z</time></trkpt>
<trkpt lat="33.7385890" lon="-84.3921230"><time>2026-09-21T14:18:50.000Z</time></trkpt>
<trkpt lat="33.7384229" lon="-84.3920989"><time>2026-09-21T14:18:51.000Z</time></trkpt>
<trkpt lat="33.7382489" lon="-84.3921592"><time>2026-09-21T14:18:52.000Z</time></trkpt>
<trkpt lat="33.7380744" lon="-84.3921121"><time>2026-09-21T14:18:53.000Z</time></trkpt>
<trkpt lat="33.7378740" lon="-84.3922097"><time>2026-09-21T14:18:54.000Z</time></trkpt>
<trkpt lat="33.7376391" lon="-84.3921045"><time>2026-09-21T14:18:55.000Z</time></trkpt>
<trkpt lat="33.7375372" lon="-84.3920529"><time>2026-09-21T14:18:56.000Z</time></trkpt>
<trkpt lat="33.7374058" lon="-84.3921155"><time>2026-09-21T14:18:57.000Z</time></trkpt>
<trkpt lat="33.7372459" lon="-84.3920801"><time>2026-09-21T14:18:58.000Z</time></trkpt>
<trkpt lat="33.7369716" lon="-84.3921697"><time>2026-09-21T14:18:59.000Z</time></trkpt>
<trkpt lat="33.7367459" lon="-84.3922525"><time>2026-09-21T14:19:00.000Z</time></trkpt>
<trkpt lat="33.7365717" lon="-84.3921957"><time>2026-09-21T14:19:01.000Z</time></trkpt>
<trkpt lat="33.7364654" lon="-84.3921998"><time>2026-09-21T14:19:02.000Z</time></trkpt>
<trkpt lat="33.7362492" lon="-84.3921868"><time>2026-09-21T14:19:03.000Z</time></trkpt>
<trkpt lat="33.7360583" lon="-84.3922187"><time>2026-09-21T14:19:04.000Z</time></trkpt>
<trkpt lat="33.7359336" lon="-84.3921100"><time>2026-09-21T14:19:05.000Z</time></trkpt>
<trkpt lat="33.7357308" lon="-84.3921585"><time>2026-09-21T14:19:06.000Z</time></trkpt>
<trkpt lat="33.7356132" lon="-84.3921966"><time>2026-09-21T14:19:07.000Z</time></trkpt>
<trkpt lat="33.7353604" lon="-84.3922272"><time>2026-09-21T14:19:08.000Z</time></trkpt>
<trkpt lat="33.7352326" lon="-84.3922850"><time>2026-09-21T14:19:09.000Z</time></trkpt>
<trkpt lat="33.7350174" lon="-84.3922364"><time>2026-09-21T14:19:10.000Z</time></trkpt>
<trkpt lat="33.7348801" lon="-84.3922673"><time>2026-09-21T14:19:11.000Z</time></trkpt>
<trkpt lat="33.7346429" lon="-84.3922231"><time>2026-09-21T14:19:12.000Z</time></trkpt>
<trkpt lat="33.7344582" lon="-84.3922164"><time>2026-09-21T14:19:13.000Z</time></trkpt>
<trkpt lat="33.7342291" lon="-84.3922488"><time>2026-09-21T14:19:14.000Z</time></trkpt>
<trkpt lat="33.7340898" lon="-84.3923085"><time>2026-09-21T14:19:15.000Z</time></trkpt>
<trkpt lat="33.7338458" lon="-84.3923291"><time>2026-09-21T14:19:16.000Z</time></trkpt>
<trkpt lat="33.7337621" lon="-84.3922938"><time>2026-09-21T14:19:17.000Z</time></trkpt>
<trkpt lat="33.7336171" lon="-84.3922466"><time>2026-09-21T14:19:18.000Z</time></trkpt>
<trkpt lat="33.7333964" lon="-84.3923627"><time>2026-09-21T14:19:19.000Z</time></trkpt>
<trkpt lat="33.7332291" lon="-84.3923144"><time>2026-09-21T14:19:20.000Z</time></trkpt>
<trkpt lat="33.7329887" lon="-84.3923290"><time>2026-09-21T14:19:21.000Z</time></trkpt>
<trkpt lat="33.7328213" lon="-84.3922978"><time>2026-09-21T14:19:22.000Z</time></trkpt>
<trkpt lat="33.7326474" lon="-84.3923417"><time>2026-09-21T14:19:23.000Z</time></trkpt>
<trkpt lat="33.7324972" lon="-84.3923616"><time>2026-09-21T14:19:24.000Z</time></trkpt>
<trkpt lat="33.7323297" lon="-84.3922549"><time>2026-09-21T14:19:25.000Z</time></trkpt>
<trkpt lat="33.7321252" lon="-84.3922833"><time>2026-09-21T14:19:26.000Z</time></trkpt>
<trkpt lat="33.7319842" lon="-84.3923895"><time>2026-09-21T14:19:27.000Z</time></trkpt>
<trkpt lat="33.7317417" lon="-84.3923529"><time>2026-09-21T14:19:28.000Z</time></trkpt>
<trkpt lat="33.7315914" lon="-84.3922871"><time>2026-09-21T14:19:29.000Z</time></trkpt>
<trkpt lat="33.7314438" lon="-84.3923997"><time>2026-09-21T14:19:30.000Z</time></trkpt>
<trkpt lat="33.7311942" lon="-84.3925283"><time>2026-09-21T14:19:31.000Z</time></trkpt>
<trkpt lat="33.7310222" lon="-84.3924518"><time>2026-09-21T14:19:32.000Z</time></trkpt>
<trkpt lat="33.7308836" lon="-84.3925040"><time>2026-09-21T14:19:33.000Z</time></trkpt>
<trkpt lat="33.7306726" lon="-84.3925394"><time>2026-09-21T14:19:34.000Z</time></trkpt>
<trkpt lat="33.7305275" lon="-84.3926122"><time>2026-09-21T14:19:35.000Z</time></trkpt>
<trkpt lat="33.7302833" lon="-84.3926855"><time>2026-09-21T14:19:36.000Z</time></trkpt>
<trkpt lat="33.7302099" lon="-84.3928058"><time>2026-09-21T14:19:37.000Z</time></trkpt>
<trkpt lat="33.7299781" lon="-84.3927934"><time>2026-09-21T14:19:38.000Z</time></trkpt>
<trkpt lat="33.7299010" lon="-84.3928592"><time>2026-09-21T14:19:39.000Z</time></trkpt>
<trkpt lat="33.7296262" lon="-84.3929058"><time>2026-09-21T14:19:40.000Z</time></trkpt>
<trkpt lat="33.7294983" lon="-84.3930229"><time>2026-09-21T14:19:41.000Z</time></trkpt>
<trkpt lat="33.7293501" lon="-84.3930490"><time>2026-09-21T14:19:42.000Z</time></trkpt>
<trkpt lat="33.7291782" lon="-84.3931528"><time>2026-09-21T14:19:43.000Z</time></trkpt>
<trkpt lat="33.7290105" lon="-84.3931859"><time>2026-09-21T14:19:44.000Z</time></trkpt>
<trkpt lat="33.7288147" lon="-84.3932289"><time>2026-09-21T14:19:45.000Z</time></trkpt>
<trkpt lat="33.7286323" lon="-84.3932932"><time>2026-09-21T14:19:46.000Z</time></trkpt>
<trkpt lat="33.7285067" lon="-84.3933092"><time>2026-09-21T14:19:47.000Z</time></trkpt>
<trkpt lat="33.7283160" lon="-84.3934533"><time>2026-09-21T14:19:48.000Z</time></trkpt>
<trkpt lat="33.7280519" lon="-84.3934720"><time>2026-09-21T14:19:49.000Z</time></trkpt>
<trkpt lat="33.7279719" lon="-84.3935705"><time>2026-09-21T14:19:50.000Z</time></trkpt>
<trkpt lat="33.7277536" lon="-84.3935969"><time>2026-09-21T14:19:51.000Z</time></trkpt>
<trkpt lat="33.7276243" lon="-84.3936126"><time>2026-09-21T14:19:52.000Z</time></trkpt>
<trkpt lat="33.7274518" lon="-84.3936930"><time>2026-09-21T14:19:53.000Z</time></trkpt>
<trkpt lat="33.7272417" lon="-84.3937063"><time>2026-09-21T14:19:54.000Z</time></trkpt>
<trkpt lat="33.7270408" lon="-84.3937673"><time>2026-09-21T14:19:55.000Z</time></trkpt>
<trkpt lat="33.7269152" lon="-84.3937737"><time>2026-09-21T14:19:56.000Z</time></trkpt>
<trkpt lat="33.7267354" lon="-84.3937353"><time>2026-09-21T14:19:57.000Z</time></trkpt>
<trkpt lat="33.7265280" lon="-84.3937982"><time>2026-09-21T14:19:58.000Z</time></trkpt>
<trkpt lat="33.7263670" lon="-84.3938055"><time>2026-09-21T14:19:59.000Z</time></trkpt>
<trkpt lat="33.7261653" lon="-84.3937765"><time>2026-09-21T14:20:00.000Z</time></trkpt>
<trkpt lat="33.7259885" lon="-84.3937903"><time>2026-09-21T14:20:01.000Z</time></trkpt>
<trkpt lat="33.7257472" lon="-84.3938246"><time>2026-09-21T14:20:02.000Z</time></trkpt>
<trkpt lat="33.7255857" lon="-84.3938218"><time>2026-09-21T14:20:03.000Z</time></trkpt>
<trkpt lat="33.7254306" lon="-84.3939040"><time>2026-09-21T14:20:04.000Z</time></trkpt>
<trkpt lat="33.7252263" lon="-84.3938359"><time>2026-09-21T14:20:05.000Z</time></trkpt>
<trkpt lat="33.7251031" lon="-84.3939669"><time>2026-09-21T14:20:06.000Z</time></trkpt>
<trkpt lat="33.7249547" lon="-84.3939849"><time>2026-09-21T14:20:07.000Z</time></trkpt>
<trkpt lat="33.7247631" lon="-84.3940137"><time>2026-09-21T14:20:08.000Z</time></trkpt>
<trkpt lat="33.7245144" lon="-84.3940466"><time>2026-09-21T14:20:09.000Z</time></trkpt>
<trkpt lat="33.7243531" lon="-84.3940522"><time>2026-09-21T14:20:10.000Z</time></trkpt>
<trkpt lat="33.7241570" lon="-84.3940423"><time>2026-09-21T14:20:11.000Z</time></trkpt>
<trkpt lat="33.7239622" lon="-84.3941065"><time>2026-09-21T14:20:12.000Z</time></trkpt>
<trkpt lat="33.7238150" lon="-84.3940894"><time>2026-09-21T14:20:13.000Z</time></trkpt>
<trkpt lat="33.7236812" lon="-84.3941529"><time>2026-09-21T14:20:14.000Z</time></trkpt>
<trkpt lat="33.7234668" lon="-84.3942116"><time>2026-09-21T14:20:15.000Z</time></trkpt>
<trkpt lat="33.7233186" lon="-84.3943183"><time>2026-09-21T14:20:16.000Z</time></trkpt>
<trkpt lat="33.7231660" lon="-84.3944607"><time>2026-09-21T14:20:17.000Z</time></trkpt>
<trkpt lat="33.7229864" lon="-84.3944681"><time>2026-09-21T14:20:18.000Z</time></trkpt>
<trkpt lat="33.7228622" lon="-84.3945191"><time>2026-09-21T14:20:19.000Z</time></trkpt>
<trkpt lat="33.7226785" lon="-84.3945942"><time>2026-09-21T14:20:20.000Z</time></trkpt>
<trkpt lat="33.7224971" lon="-84.3947859"><time>2026-09-21T14:20:21.000Z</time></trkpt>
<trkpt lat="33.7223506" lon="-84.3948199"><time>2026-09-21T14:20:22.000Z</time></trkpt>
<trkpt lat="33.7221589" lon="-84.3948677"><time>2026-09-21T14:20:23.000Z</time></trkpt>
<trkpt lat="33.7220670" lon="-84.3950703"><time>2026-09-21T14:20:24.000Z</time></trkpt>
<trkpt lat="33.7218922" lon="-84.3951692"><time>2026-09-21T14:20:25.000Z</time></trkpt>
<trkpt lat="33.7216989" lon="-84.3952519"><time>2026-09-21T14:20:26.000Z</time></trkpt>
<trkpt lat="33.7215125" lon="-84.3954129"><time>2026-09-21T14:20:27.000Z</time></trkpt>
<trkpt lat="33.7213978" lon="-84.3955790"><time>2026-09-21T14:20:28.000Z</time></trkpt>
<trkpt lat="33.7212486" lon="-84.3956581"><time>2026-09-21T14:20:29.000Z</time></trkpt>
<trkpt lat="33.7211197" lon="-84.3958615"><time>2026-09-21T14:20:30.000Z</time></trkpt>
<trkpt lat="33.7209618" lon="-84.3957303"><time>2026-09-21T14:20:31.000Z</time></trkpt>
<trkpt lat="33.7208104" lon="-84.3960000"><time>2026-09-21T14:20:32.000Z</time></trkpt>
<trkpt lat="33.7205855" lon="-84.3960417"><time>2026-09-21T14:20:33.000Z</time></trkpt>
<trkpt lat="33.7205773" lon="-84.3961509"><time>2026-09-21T14:20:34.000Z</time></trkpt>
<trkpt lat="33.7203493" lon="-84.3963043"><time>2026-09-21T14:20:35.000Z</time></trkpt>
<trkpt lat="33.7201988" lon="-84.3963872"><time>2026-09-21T14:20:36.000Z</time></trkpt>
<trkpt lat="33.7200609" lon="-84.3965360"><time>2026-09-21T14:20:37.000Z</time></trkpt>
<trkpt lat="33.7199047" lon="-84.3966167"><time>2026-09-21T14:20:38.000Z</time></trkpt>
<trkpt lat="33.7196671" lon="-84.3967712"><time>2026-09-21T14:20:39.000Z</time></trkpt>
<trkpt lat="33.7196131" lon="-84.3969100"><time>2026-09-21T14:20:40.000Z</time></trkpt>
<trkpt lat="33.7194424" lon="-84.3970214"><time>2026-09-21T14:20:41.000Z</time></trkpt>
<trkpt lat="33.7193083" lon="-84.3972035"><time>2026-09-21T14:20:42.000Z</time></trkpt>
<trkpt lat="33.7191330" lon="-84.3973320"><time>2026-09-21T14:20:43.000Z</time></trkpt>
<trkpt lat="33.7190328" lon="-84.3973570"><time>2026-09-21T14:20:44.000Z</time></trkpt>
<trkpt lat="33.7188394" lon="-84.3975202"><time>2026-09-21T14:20:45.000Z</time></trkpt>
<trkpt lat="33.7186617" lon="-84.3975429"><time>2026-09-21T14:20:46.000Z</time></trkpt>
<trkpt lat="33.7184552" lon="-84.3976455"><time>2026-09-21T14:20:47.000Z</time></trkpt>
<trkpt lat="33.7183102" lon="-84.3978134"><time>2026-09-21T14:20:48.000Z</time></trkpt>
<trkpt lat="33.7181664" lon="-84.3977526"><time>2026-09-21T14:20:49.000Z</time></trkpt>
<trkpt lat="33.7180916" lon="-84.3979012"><time>2026-09-21T14:20:50.000Z</time></trkpt>
<trkpt lat="33.7177955" lon="-84.3979521"><time>2026-09-21T14:20:51.000Z</time></trkpt>
<trkpt lat="33.7177431" lon="-84.3981070"><time>2026-09-21T14:20:52.000Z</time></trkpt>
<trkpt lat="33.7175599" lon="-84.3981864"><time>2026-09-21T14:20:53.000Z</time></trkpt>
<trkpt lat="33.7173863" lon="-84.3982916"><time>2026-09-21T14:20:54.000Z</time></trkpt>
<trkpt lat="33.7171382" lon="-84.3983853"><time>2026-09-21T14:20:55.000Z</time></trkpt>
<trkpt lat="33.7170290" lon="-84.3984669"><time>2026-09-21T14:20:56.000Z</time></trkpt>
<trkpt lat="33.7168213" lon="-84.3984836"><time>2026-09-21T14:20:57.000Z</time></trkpt>
<trkpt lat="33.7166357" lon="-84.3986546"><time>2026-09-21T14:20:58.000Z</time></trkpt>
<trkpt lat="33.7165197" lon="-84.3986895"><time>2026-09-21T14:20:59.000Z</time></trkpt>
<trkpt lat="33.7163325" lon="-84.3987734"><time>2026-09-21T14:21:00.000Z</time></trkpt>
<trkpt lat="33.7161854" lon="-84.3987168"><time>2026-09-21T14:21:01.000Z</time></trkpt>
<trkpt lat="33.7159372" lon="-84.3987575"><time>2026-09-21T14:21:02.000Z</time></trkpt>
<trkpt lat="33.7158058" lon="-84.3989294"><time>2026-09-21T14:21:03.000Z</time></trkpt>
<trkpt lat="33.7155651" lon="-84.3989513"><time>2026-09-21T14:21:04.000Z</time></trkpt>
<trkpt lat="33.7154791" lon="-84.3989521"><time>2026-09-21T14:21:05.000Z</time></trkpt>
<trkpt lat="33.7151891" lon="-84.3992040"><time>2026-09-21T14:21:06.000Z</time></trkpt>
<trkpt lat="33.7150916" lon="-84.3991320"><time>2026-09-21T14:21:07.000Z</time></trkpt>
<trkpt lat="33.7150055" lon="-84.3991660"><time>2026-09-21T14:21:08.000Z</time></trkpt>
<trkpt lat="33.7148205" lon="-84.3993276"><time>2026-09-21T14:21:09.000Z</time></trkpt>
<trkpt lat="33.7145671" lon="-84.3993320"><time>2026-09-21T14:21:10.000Z</time></trkpt>
<trkpt lat="33.7145340" lon="-84.3994844"><time>2026-09-21T14:21:11.000Z</time></trkpt>
<trkpt lat="33.7143222" lon="-84.3995704"><time>2026-09-21T14:21:12.000Z</time></trkpt>
<trkpt lat="33.7141432" lon="-84.3996892"><time>2026-09-21T14:21:13.000Z</time></trkpt>
<trkpt lat="33.7139901" lon="-84.3999084"><time>2026-09-21T14:21:14.000Z</time></trkpt>
<trkpt lat="33.7139353" lon="-84.4000171"><time>2026-09-21T14:21:15.000Z</time></trkpt>
<trkpt lat="33.7137284" lon="-84.4001155"><time>2026-09-21T14:21:16.000Z</time></trkpt>
<trkpt lat="33.7136181" lon="-84.4002358"><time>2026-09-21T14:21:17.000Z</time></trkpt>
<trkpt lat="33.7134156" lon="-84.4003234"><time>2026-09-21T14:21:18.000Z</time></trkpt>
<trkpt lat="33.7132876" lon="-84.4003953"><time>2026-09-21T14:21:19.000Z</time></trkpt>
<trkpt lat="33.7131427" lon="-84.4005857"><time>2026-09-21T14:21:20.000Z</time></trkpt>
<trkpt lat="33.7130131" lon="-84.4007622"><time>2026-09-21T14:21:21.000Z</time></trkpt>
<trkpt lat="33.7128569" lon="-84.4008005"><time>2026-09-21T14:21:22.000Z</time></trkpt>
<trkpt lat="33.7127654" lon="-84.4008547"><time>2026-09-21T14:21:23.000Z</time></trkpt>
<trkpt lat="33.7125834" lon="-84.4011353"><time>2026-09-21T14:21:24.000Z</time></trkpt>
<trkpt lat="33.7123704" lon="-84.4011601"><time>2026-09-21T14:21:25.000Z</time></trkpt>
<trkpt lat="33.7122503" lon="-84.4011566"><time>2026-09-21T14:21:26.000Z</time></trkpt>
<trkpt lat="33.7120925" lon="-84.4014231"><time>2026-09-21T14:21:27.000Z</time></trkpt>
<trkpt lat="33.7119182" lon="-84.4014329"><time>2026-09-21T14:21:28.000Z</time></trkpt>
<trkpt lat="33.7117037" lon="-84.4015435"><time>2026-09-21T14:21:29.000Z</time></trkpt>
<trkpt lat="33.7115877" lon="-84.4016392"><time>2026-09-21T14:21:30.000Z</time></trkpt>
<trkpt lat="33.7114160" lon="-84.4017152"><time>2026-09-21T14:21:31.000Z</time></trkpt>
<trkpt lat="33.7111862" lon="-84.4017791"><time>2026-09-21T14:21:32.000Z</time></trkpt>
<trkpt lat="33.7110361" lon="-84.4019126"><time>2026-09-21T14:21:33.000Z</time></trkpt>
<trkpt lat="33.7108943" lon="-84.4019113"><time>2026-09-21T14:21:34.000Z</time></trkpt>
<trkpt lat="33.7107286" lon="-84.4020361"><time>2026-09-21T14:21:35.000Z</time></trkpt>
<trkpt lat="33.7106144" lon="-84.4020684"><time>2026-09-21T14:21:36.000Z</time></trkpt>
<trkpt lat="33.7103506" lon="-84.4021210"><time>2026-09-21T14:21:37.000Z</time></trkpt>
<trkpt lat="33.7101361" lon="-84.4021861"><time>2026-09-21T14:21:38.000Z</time></trkpt>
<trkpt lat="33.7099893" lon="-84.4021933"><time>2026-09-21T14:21:39.000Z</time></trkpt>
<trkpt lat="33.7098709" lon="-84.4023195"><time>2026-09-21T14:21:40.000Z</time></trkpt>
<trkpt lat="33.7096239" lon="-84.4023641"><time>2026-09-21T14:21:41.000Z</time></trkpt>
<trkpt lat="33.7095287" lon="-84.4024385"><time>2026-09-21T14:21:42.000Z</time></trkpt>
<trkpt lat="33.7093038" lon="-84.4025137"><time>2026-09-21T14:21:43.000Z</time></trkpt>
<trkpt lat="33.7091302" lon="-84.4025379"><time>2026-09-21T14:21:44.000Z</time></trkpt>
<trkpt lat="33.7089410" lon="-84.4026779"><time>2026-09-21T14:21:45.000Z</time></trkpt>
<trkpt lat="33.7087870" lon="-84.4027510"><time>2026-09-21T14:21:46.000Z</time></trkpt>
<trkpt lat="33.7085878" lon="-84.4028118"><time>2026-09-21T14:21:47.000Z</time></trkpt>
<trkpt lat="33.7084353" lon="-84.4028660"><time>2026-09-21T14:21:48.000Z</time></trkpt>
<trkpt lat="33.7083005" lon="-84.4028530"><time>2026-09-21T14:21:49.000Z</time></trkpt>
<trkpt lat="33.7081261" lon="-84.4029117"><time>2026-09-21T14:21:50.000Z</time></trkpt>
<trkpt lat="33.7080293" lon="-84.4030216"><time>2026-09-21T14:21:51.000Z</time></trkpt>
<trkpt lat="33.7078198" lon="-84.4031001"><time>2026-09-21T14:21:52.000Z</time></trkpt>
<trkpt lat="33.7076266" lon="-84.4031850"><time>2026-09-21T14:21:53.000Z</time></trkpt>
<trkpt lat="33.7074030" lon="-84.4032312"><time>2026-09-21T14:21:54.000Z</time></trkpt>
<trkpt lat="33.7073226" lon="-84.4032411"><time>2026-09-21T14:21:55.000Z</time></trkpt>
<trkpt lat="33.7071018" lon="-84.4033599"><time>2026-09-21T14:21:56.000Z</time></trkpt>
<trkpt lat="33.7069923" lon="-84.4034720"><time>2026-09-21T14:21:57.000Z</time></trkpt>
<trkpt lat="33.7067844" lon="-84.4034201"><time>2026-09-21T14:21:58.000Z</time></trkpt>
<trkpt lat="33.7066103" lon="-84.4035875"><time>2026-09-21T14:21:59.000Z</time></trkpt>
<trkpt lat="33.7064283" lon="-84.4035430"><time>2026-09-21T14:22:00.000Z</time></trkpt>
<trkpt lat="33.7063355" lon="-84.4035863"><time>2026-09-21T14:22:01.000Z</time></trkpt>
<trkpt lat="33.7060996" lon="-84.4037740"><time>2026-09-21T14:22:02.000Z</time></trkpt>
<trkpt lat="33.7058842" lon="-84.4037786"><time>2026-09-21T14:22:03.000Z</time></trkpt>
<trkpt lat="33.7057706" lon="-84.4037759"><time>2026-09-21T14:22:04.000Z</time></trkpt>
<trkpt lat="33.7055272" lon="-84.4038566"><time>2026-09-21T14:22:05.000Z</time></trkpt>
<trkpt lat="33.7054157" lon="-84.4039295"><time>2026-09-21T14:22:06.000Z</time></trkpt>
<trkpt lat="33.7052830" lon="-84.4039890"><time>2026-09-21T14:22:07.000Z</time></trkpt>
<trkpt lat="33.7049392" lon="-84.4038778"><time>2026-09-21T14:22:08.000Z</time></trkpt>
<trkpt lat="33.7047889" lon="-84.4040498"><time>2026-09-21T14:22:09.000Z</time></trkpt>
<trkpt lat="33.7046603" lon="-84.4040195"><time>2026-09-21T14:22:10.000Z</time></trkpt>
<trkpt lat="33.7044703" lon="-84.4040306"><time>2026-09-21T14:22:11.000Z</time></trkpt>
<trkpt lat="33.7043173" lon="-84.4040631"><time>2026-09-21T14:22:12.000Z</time></trkpt>
<trkpt lat="33.7041229" lon="-84.4040411"><time>2026-09-21T14:22:13.000Z</time></trkpt>
<trkpt lat="33.7039280" lon="-84.4040147"><time>2026-09-21T14:22:14.000Z</time></trkpt>
<trkpt lat="33.7037448" lon="-84.4040466"><time>2026-09-21T14:22:15.000Z</time></trkpt>
<trkpt lat="33.7035759" lon="-84.4040713"><time>2026-09-21T14:22:16.000Z</time></trkpt>
<trkpt lat="33.7033539" lon="-84.4041641"><time>2026-09-21T14:22:17.000Z</time></trkpt>
<trkpt lat="33.7032129" lon="-84.4041861"><time>2026-09-21T14:22:18.000Z</time></trkpt>
<trkpt lat="33.7030289" lon="-84.4041549"><time>2026-09-21T14:22:19.000Z</time></trkpt>
<trkpt lat="33.7028899" lon="-84.4041909"><time>2026-09-21T14:22:20.000Z</time></trkpt>
<trkpt lat="33.7026730" lon="-84.4041190"><time>2026-09-21T14:22:21.000Z</time></trkpt>
<trkpt lat="33.7025678" lon="-84.4041558"><time>2026-09-21T14:22:22.000Z</time></trkpt>
<trkpt lat="33.7023801" lon="-84.4041388"><time>2026-09-21T14:22:23.000Z</time></trkpt>
<trkpt lat="33.7021303" lon="-84.4041810"><time>2026-09-21T14:22:24.000Z</time></trkpt>
<trkpt lat="33.7019353" lon="-84.4041390"><time>2026-09-21T14:22:25.000Z</time></trkpt>
<trkpt lat="33.7017562" lon="-84.4042261"><time>2026-09-21T14:22:26.000Z</time></trkpt>
<trkpt lat="33.7016312" lon="-84.4041927"><time>2026-09-21T14:22:27.000Z</time></trkpt>
<trkpt lat="33.7014494" lon="-84.4042206"><time>2026-09-21T14:22:28.000Z</time></trkpt>
<trkpt lat="33.7011880" lon="-84.4041930"><time>2026-09-21T14:22:29.000Z</time></trkpt>
<trkpt lat="33.7010767" lon="-84.4042451"><time>2026-09-21T14:22:30.000Z</time></trkpt>
<trkpt lat="33.7008895" lon="-84.4041654"><time>2026-09-21T14:22:31.000Z</time></trkpt>
<trkpt lat="33.7007328" lon="-84.4042797"><time>2026-09-21T14:22:32.000Z</time></trkpt>
<trkpt lat="33.7005202" lon="-84.4042999"><time>2026-09-21T14:22:33.000Z</time></trkpt>
<trkpt lat="33.7003716" lon="-84.4043067"><time>2026-09-21T14:22:34.000Z</time></trkpt>
<trkpt lat="33.7002301" lon="-84.4043617"><time>2026-09-21T14:22:35.000Z</time></trkpt>
<trkpt lat="33.7000284" lon="-84.4043582"><time>2026-09-21T14:22:36.000Z</time></trkpt>
<trkpt lat="33.6998196" lon="-84.4044574"><time>2026-09-21T14:22:37.000Z</time></trkpt>
<trkpt lat="33.6996660" lon="-84.4045151"><time>2026-09-21T14:22:38.000Z</time></trkpt>
<trkpt lat="33.6995081" lon="-84.4045519"><time>2026-09-21T14:22:39.000Z</time></trkpt>
<trkpt lat="33.6992973" lon="-84.4044993"><time>2026-09-21T14:22:40.000Z</time></trkpt>
<trkpt lat="33.6990909" lon="-84.4044925"><time>2026-09-21T14:22:41.000Z</time></trkpt>
<trkpt lat="33.6989435" lon="-84.4046638"><time>2026-09-21T14:22:42.000Z</time></trkpt>
<trkpt lat="33.6987366" lon="-84.4046678"><time>2026-09-21T14:22:43.000Z</time></trkpt>
<trkpt lat="33.6986241" lon="-84.4046658"><time>2026-09-21T14:22:44.000Z</time></trkpt>
<trkpt lat="33.6984234" lon="-84.4047358"><time>2026-09-21T14:22:45.000Z</time></trkpt>
<trkpt lat="33.6982108" lon="-84.4047402"><time>2026-09-21T14:22:46.000Z</time></trkpt>
<trkpt lat="33.6980002" lon="-84.4048577"><time>2026-09-21T14:22:47.000Z</time></trkpt>
<trkpt lat="33.6978407" lon="-84.4048052"><time>2026-09-21T14:22:48.000Z</time></trkpt>
<trkpt lat="33.6977269" lon="-84.4048700"><time>2026-09-21T14:22:49.000Z</time></trkpt>
<trkpt lat="33.6974711" lon="-84.4049171"><time>2026-09-21T14:22:50.000Z</time></trkpt>
<trkpt lat="33.6973403" lon="-84.4048914"><time>2026-09-21T14:22:51.000Z</time></trkpt>
<trkpt lat="33.6971792" lon="-84.4049195"><time>2026-09-21T14:22:52.000Z</time></trkpt>
<trkpt lat="33.6970671" lon="-84.4050193"><time>2026-09-21T14:22:53.000Z</time></trkpt>
<trkpt lat="33.6968122" lon="-84.4049759"><time>2026-09-21T14:22:54.000Z</time></trkpt>
<trkpt lat="33.6966084" lon="-84.4050329"><time>2026-09-21T14:22:55.000Z</time></trkpt>
<trkpt lat="33.6964501" lon="-84.4050589"><time>2026-09-21T14:22:56.000Z</time></trkpt>
<trkpt lat="33.6962817" lon="-84.4050422"><time>2026-09-21T14:22:57.000Z</time></trkpt>
<trkpt lat="33.6960674" lon="-84.4050718"><time>2026-09-21T14:22:58.000Z</time></trkpt>
<trkpt lat="33.6958960" lon="-84.4050201"><time>2026-09-21T14:22:59.000Z</time></trkpt>
<trkpt lat="33.6957631" lon="-84.4049748"><time>2026-09-21T14:23:00.000Z</time></trkpt>
<trkpt lat="33.6955302" lon="-84.4049967"><time>2026-09-21T14:23:01.000Z</time></trkpt>
<trkpt lat="33.6953791" lon="-84.4049283"><time>2026-09-21T14:23:02.000Z</time></trkpt>
<trkpt lat="33.6952054" lon="-84.4048560"><time>2026-09-21T14:23:03.000Z</time></trkpt>
<trkpt lat="33.6950249" lon="-84.4047163"><time>2026-09-21T14:23:04.000Z</time></trkpt>
<trkpt lat="33.6948083" lon="-84.4047393"><time>2026-09-21T14:23:05.000Z</time></trkpt>
<trkpt lat="33.6947300" lon="-84.4046386"><time>2026-09-21T14:23:06.000Z</time></trkpt>
<trkpt lat="33.6945674" lon="-84.4045259"><time>2026-09-21T14:23:07.000Z</time></trkpt>
<trkpt lat="33.6943595" lon="-84.4045556"><time>2026-09-21T14:23:08.000Z</time></trkpt>
<trkpt lat="33.6942511" lon="-84.4044235"><time>2026-09-21T14:23:09.000Z</time></trkpt>
<trkpt lat="33.6940916" lon="-84.4042779"><time>2026-09-21T14:23:10.000Z</time></trkpt>
<trkpt lat="33.6939156" lon="-84.4041901"><time>2026-09-21T14:23:11.000Z</time></trkpt>
<trkpt lat="33.6936893" lon="-84.4040584"><time>2026-09-21T14:23:12.000Z</time></trkpt>
<trkpt lat="33.6936203" lon="-84.4039639"><time>2026-09-21T14:23:13.000Z</time></trkpt>
<trkpt lat="33.6934603" lon="-84.4038513"><time>2026-09-21T14:23:14.000Z</time></trkpt>
<trkpt lat="33.6932511" lon="-84.4037658"><time>2026-09-21T14:23:15.000Z</time></trkpt>
<trkpt lat="33.6930795" lon="-84.4035918"><time>2026-09-21T14:23:16.000Z</time></trkpt>
<trkpt lat="33.6929348" lon="-84.4034930"><time>2026-09-21T14:23:17.000Z</time></trkpt>
<trkpt lat="33.6928326" lon="-84.4034034"><time>2026-09-21T14:23:18.000Z</time></trkpt>
<trkpt lat="33.6926996" lon="-84.4032167"><time>2026-09-21T14:23:19.000Z</time></trkpt>
<trkpt lat="33.6924867" lon="-84.4031359"><time>2026-09-21T14:23:20.000Z</time></trkpt>
<trkpt lat="33.6923554" lon="-84.4030364"><time>2026-09-21T14:23:21.000Z</time></trkpt>
<trkpt lat="33.6922175" lon="-84.4030132"><time>2026-09-21T14:23:22.000Z</time></trkpt>
<trkpt lat="33.6920741" lon="-84.4027325"><time>2026-09-21T14:23:23.000Z</time></trkpt>
<trkpt lat="33.6918986" lon="-84.4027489"><time>2026-09-21T14:23:24.000Z</time></trkpt>
<trkpt lat="33.6918108" lon="-84.4025355"><time>2026-09-21T14:23:25.000Z</time></trkpt>
<trkpt lat="33.6916364" lon="-84.4024491"><time>2026-09-21T14:23:26.000Z</time></trkpt>
<trkpt lat="33.6914632" lon="-84.4023305"><time>2026-09-21T14:23:27.000Z</time></trkpt>
<trkpt lat="33.6914015" lon="-84.4022405"><time>2026-09-21T14:23:28.000Z</time></trkpt>
<trkpt lat="33.6911674" lon="-84.4020125"><time>2026-09-21T14:23:29.000Z</time></trkpt>
<trkpt lat="33.6910783" lon="-84.4019441"><time>2026-09-21T14:23:30.000Z</time></trkpt>
<trkpt lat="33.6907929" lon="-84.4019555"><time>2026-09-21T14:23:31.000Z</time></trkpt>
<trkpt lat="33.6907277" lon="-84.4016734"><time>2026-09-21T14:23:32.000Z</time></trkpt>
<trkpt lat="33.6905009" lon="-84.4016574"><time>2026-09-21T14:23:33.000Z</time></trkpt>
<trkpt lat="33.6904183" lon="-84.4015310"><time>2026-09-21T14:23:34.000Z</time></trkpt>
<trkpt lat="33.6902707" lon="-84.4014521"><time>2026-09-21T14:23:35.000Z</time></trkpt>
<trkpt lat="33.6901379" lon="-84.4012975"><time>2026-09-21T14:23:36.000Z</time></trkpt>
<trkpt lat="33.6899493" lon="-84.4010680"><time>2026-09-21T14:23:37.000Z</time></trkpt>
<trkpt lat="33.6897492" lon="-84.4010088"><time>2026-09-21T14:23:38.000Z</time></trkpt>
<trkpt lat="33.6896416" lon="-84.4009350"><time>2026-09-21T14:23:39.000Z</time></trkpt>
<trkpt lat="33.6894498" lon="-84.4008348"><time>2026-09-21T14:23:40.000Z</time></trkpt>
<trkpt lat="33.6893463" lon="-84.4006528"><time>2026-09-21T14:23:41.000Z</time></trkpt>
<trkpt lat="33.6891894" lon="-84.4005946"><time>2026-09-21T14:23:42.000Z</time></trkpt>
<trkpt lat="33.6890450" lon="-84.4004353"><time>2026-09-21T14:23:43.000Z</time></trkpt>
<trkpt lat="33.6889094" lon="-84.4003602"><time>2026-09-21T14:23:44.000Z</time></trkpt>
<trkpt lat="33.6887286" lon="-84.4002267"><time>2026-09-21T14:23:45.000Z</time></trkpt>
<trkpt lat="33.6886357" lon="-84.4001369"><time>2026-09-21T14:23:46.000Z</time></trkpt>
<trkpt lat="33.6884469" lon="-84.3999870"><time>2026-09-21T14:23:47.000Z</time></trkpt>
<trkpt lat="33.6882803" lon="-84.3999238"><time>2026-09-21T14:23:48.000Z</time></trkpt>
<trkpt lat="33.6880837" lon="-84.3997208"><time>2026-09-21T14:23:49.000Z</time></trkpt>
<trkpt lat="33.6880230" lon="-84.3997085"><time>2026-09-21T14:23:50.000Z</time></trkpt>
<trkpt lat="33.6878571" lon="-84.3995242"><time>2026-09-21T14:23:51.000Z</time></trkpt>
<trkpt lat="33.6876807" lon="-84.3994688"><time>2026-09-21T14:23:52.000Z</time></trkpt>
<trkpt lat="33.6874295" lon="-84.3993946"><time>2026-09-21T14:23:53.000Z</time></trkpt>
<trkpt lat="33.6872967" lon="-84.3993784"><time>2026-09-21T14:23:54.000Z</time></trkpt>
<trkpt lat="33.6870371" lon="-84.3992734"><time>2026-09-21T14:23:55.000Z</time></trkpt>
<trkpt lat="33.6869542" lon="-84.3991995"><time>2026-09-21T14:23:56.000Z</time></trkpt>
<trkpt lat="33.6867837" lon="-84.3991052"><time>2026-09-21T14:23:57.000Z</time></trkpt>
<trkpt lat="33.6866021" lon="-84.3990870"><time>2026-09-21T14:23:58.000Z</time></trkpt>
<trkpt lat="33.6864924" lon="-84.3989780"><time>2026-09-21T14:23:59.000Z</time></trkpt>
<trkpt lat="33.6862480" lon="-84.3990088"><time>2026-09-21T14:24:00.000Z</time></trkpt>
<trkpt lat="33.6861285" lon="-84.3989715"><time>2026-09-21T14:24:01.000Z</time></trkpt>
<trkpt lat="33.6859885" lon="-84.3989562"><time>2026-09-21T14:24:02.000Z</time></trkpt>
<trkpt lat="33.6857440" lon="-84.3989546"><time>2026-09-21T14:24:03.000Z</time></trkpt>
<trkpt lat="33.6855080" lon="-84.3989133"><time>2026-09-21T14:24:04.000Z</time></trkpt>
<trkpt lat="33.6853128" lon="-84.3989497"><time>2026-09-21T14:24:05.000Z</time></trkpt>
<trkpt lat="33.6851941" lon="-84.3988413"><time>2026-09-21T14:24:06.000Z</time></trkpt>
<trkpt lat="33.6850313" lon="-84.3989006"><time>2026-09-21T14:24:07.000Z</time></trkpt>
<trkpt lat="33.6848025" lon="-84.3989871"><time>2026-09-21T14:24:08.000Z</time></trkpt>
<trkpt lat="33.6846678" lon="-84.3988662"><time>2026-09-21T14:24:09.000Z</time></trkpt>
<trkpt lat="33.6844396" lon="-84.3988922"><time>2026-09-21T14:24:10.000Z</time></trkpt>
<trkpt lat="33.6842673" lon="-84.3989400"><time>2026-09-21T14:24:11.000Z</time></trkpt>
<trkpt lat="33.6841181" lon="-84.3989272"><time>2026-09-21T14:24:12.000Z</time></trkpt>
<trkpt lat="33.6839369" lon="-84.3989718"><time>2026-09-21T14:24:13.000Z</time></trkpt>
<trkpt lat="33.6837683" lon="-84.3990038"><time>2026-09-21T14:24:14.000Z</time></trkpt>
<trkpt lat="33.6835278" lon="-84.3989741"><time>2026-09-21T14:24:15.000Z</time></trkpt>
<trkpt lat="33.6833770" lon="-84.3989730"><time>2026-09-21T14:24:16.000Z</time></trkpt>
<trkpt lat="33.6832092" lon="-84.3989344"><time>2026-09-21T14:24:17.000Z</time></trkpt>
<trkpt lat="33.6830063" lon="-84.3988900"><time>2026-09-21T14:24:18.000Z</time></trkpt>
<trkpt lat="33.6828599" lon="-84.3989374"><time>2026-09-21T14:24:19.000Z</time></trkpt>
<trkpt lat="33.6827164" lon="-84.3987955"><time>2026-09-21T14:24:20.000Z</time></trkpt>
<trkpt lat="33.6824794" lon="-84.3988401"><time>2026-09-21T14:24:21.000Z</time></trkpt>
<trkpt lat="33.6823486" lon="-84.3988426"><time>2026-09-21T14:24:22.000Z</time></trkpt>
<trkpt lat="33.6821040" lon="-84.3987934"><time>2026-09-21T14:24:23.000Z</time></trkpt>
<trkpt lat="33.6819839" lon="-84.3987902"><time>2026-09-21T14:24:24.000Z</time></trkpt>
<trkpt lat="33.6818156" lon="-84.3987076"><time>2026-09-21T14:24:25.000Z</time></trkpt>
<trkpt lat="33.6816671" lon="-84.3988008"><time>2026-09-21T14:24:26.000Z</time></trkpt>
<trkpt lat="33.6814406" lon="-84.3987444"><time>2026-09-21T14:24:27.000Z</time></trkpt>
<trkpt lat="33.6812247" lon="-84.3986537"><time>2026-09-21T14:24:28.000Z</time></trkpt>
<trkpt lat="33.6810089" lon="-84.3987511"><time>2026-09-21T14:24:29.000Z</time></trkpt>
<trkpt lat="33.6809215" lon="-84.3986281"><time>2026-09-21T14:24:30.000Z</time></trkpt>
<trkpt lat="33.6807114" lon="-84.3986151"><time>2026-09-21T14:24:31.000Z</time></trkpt>
<trkpt lat="33.6805598" lon="-84.3985704"><time>2026-09-21T14:24:32.000Z</time></trkpt>
<trkpt lat="33.6803069" lon="-84.3985381"><time>2026-09-21T14:24:33.000Z</time></trkpt>
<trkpt lat="33.6801345" lon="-84.3985020"><time>2026-09-21T14:24:34.000Z</time></trkpt>
<trkpt lat="33.6800047" lon="-84.3984582"><time>2026-09-21T14:24:35.000Z</time></trkpt>
<trkpt lat="33.6797694" lon="-84.3985498"><time>2026-09-21T14:24:36.000Z</time></trkpt>
<trkpt lat="33.6797060" lon="-84.3984034"><time>2026-09-21T14:24:37.000Z</time></trkpt>
<trkpt lat="33.6794601" lon="-84.3983807"><time>2026-09-21T14:24:38.000Z</time></trkpt>
<trkpt lat="33.6792887" lon="-84.3982794"><time>2026-09-21T14:24:39.000Z</time></trkpt>
<trkpt lat="33.6791018" lon="-84.3983909"><time>2026-09-21T14:24:40.000Z</time></trkpt>
<trkpt lat="33.6789280" lon="-84.3983003"><time>2026-09-21T14:24:41.000Z</time></trkpt>
<trkpt lat="33.6787711" lon="-84.3982513"><time>2026-09-21T14:24:42.000Z</time></trkpt>
<trkpt lat="33.6785628" lon="-84.3982220"><time>2026-09-21T14:24:43.000Z</time></trkpt>
<trkpt lat="33.6784149" lon="-84.3982558"><time>2026-09-21T14:24:44.000Z</time></trkpt>
<trkpt lat="33.6781658" lon="-84.3981714"><time>2026-09-21T14:24:45.000Z</time></trkpt>
<trkpt lat="33.6780277" lon="-84.3982319"><time>2026-09-21T14:24:46.000Z</time></trkpt>
<trkpt lat="33.6778712" lon="-84.3981490"><time>2026-09-21T14:24:47.000Z</time></trkpt>
<trkpt lat="33.6776622" lon="-84.3981044"><time>2026-09-21T14:24:48.000Z</time></trkpt>
<trkpt lat="33.6774417" lon="-84.3980382"><time>2026-09-21T14:24:49.000Z</time></trkpt>
<trkpt lat="33.6773501" lon="-84.3980902"><time>2026-09-21T14:24:50.000Z</time></trkpt>
<trkpt lat="33.6771615" lon="-84.3980110"><time>2026-09-21T14:24:51.000Z</time></trkpt>
<trkpt lat="33.6769945" lon="-84.3979720"><time>2026-09-21T14:24:52.000Z</time></trkpt>
<trkpt lat="33.6767705" lon="-84.3979897"><time>2026-09-21T14:24:53.000Z</time></trkpt>
<trkpt lat="33.6766206" lon="-84.3979448"><time>2026-09-21T14:24:54.000Z</time></trkpt>
<trkpt lat="33.6764575" lon="-84.3979273"><time>2026-09-21T14:24:55.000Z</time></trkpt>
<trkpt lat="33.6763241" lon="-84.3979622"><time>2026-09-21T14:24:56.000Z</time></trkpt>
<trkpt lat="33.6761037" lon="-84.3978863"><time>2026-09-21T14:24:57.000Z</time></trkpt>
<trkpt lat="33.6759131" lon="-84.3978927"><time>2026-09-21T14:24:58.000Z</time></trkpt>
<trkpt lat="33.6757141" lon="-84.3979091"><time>2026-09-21T14:24:59.000Z</time></trkpt>
<trkpt lat="33.6755417" lon="-84.3978828"><time>2026-09-21T14:25:00.000Z</time></trkpt>
<trkpt lat="33.6753868" lon="-84.3977715"><time>2026-09-21T14:25:01.000Z</time></trkpt>
<trkpt lat="33.6751631" lon="-84.3978357"><time>2026-09-21T14:25:02.000Z</time></trkpt>
<trkpt lat="33.6750175" lon="-84.3977300"><time>2026-09-21T14:25:03.000Z</time></trkpt>
<trkpt lat="33.6747738" lon="-84.3977962"><time>2026-09-21T14:25:04.000Z</time></trkpt>
<trkpt lat="33.6747444" lon="-84.3977566"><time>2026-09-21T14:25:05.000Z</time></trkpt>
<trkpt lat="33.6744689" lon="-84.3977664"><time>2026-09-21T14:25:06.000Z</time></trkpt>
<trkpt lat="33.6742946" lon="-84.3976986"><time>2026-09-21T14:25:07.000Z</time></trkpt>
<trkpt lat="33.6740698" lon="-84.3977633"><time>2026-09-21T14:25:08.000Z</time></trkpt>
<trkpt lat="33.6738991" lon="-84.3977603"><time>2026-09-21T14:25:09.000Z</time></trkpt>
<trkpt lat="33.6737341" lon="-84.3977444"><time>2026-09-21T14:25:10.000Z</time></trkpt>
<trkpt lat="33.6736102" lon="-84.3977482"><time>2026-09-21T14:25:11.000Z</time></trkpt>
<trkpt lat="33.6733242" lon="-84.3978770"><time>2026-09-21T14:25:12.000Z</time></trkpt>
<trkpt lat="33.6731595" lon="-84.3977137"><time>2026-09-21T14:25:13.000Z</time></trkpt>
<trkpt lat="33.6730002" lon="-84.3978473"><time>2026-09-21T14:25:14.000Z</time></trkpt>
<trkpt lat="33.6727987" lon="-84.3977652"><time>2026-09-21T14:25:15.000Z</time></trkpt>
<trkpt lat="33.6726676" lon="-84.3978526"><time>2026-09-21T14:25:16.000Z</time></trkpt>
<trkpt lat="33.6724323" lon="-84.3978224"><time>2026-09-21T14:25:17.000Z</time></trkpt>
<trkpt lat="33.6723002" lon="-84.3977716"><time>2026-09-21T14:25:18.000Z</time></trkpt>
<trkpt lat="33.6721378" lon="-84.3978653"><time>2026-09-21T14:25:19.000Z</time></trkpt>
<trkpt lat="33.6719056" lon="-84.3977768"><time>2026-09-21T14:25:20.000Z</time></trkpt>
<trkpt lat="33.6717607" lon="-84.3979063"><time>2026-09-21T14:25:21.000Z</time></trkpt>
<trkpt lat="33.6715905" lon="-84.3977879"><time>2026-09-21T14:25:22.000Z</time></trkpt>
<trkpt lat="33.6714608" lon="-84.3978719"><time>2026-09-21T14:25:23.000Z</time></trkpt>
<trkpt lat="33.6712096" lon="-84.3978406"><time>2026-09-21T14:25:24.000Z</time></trkpt>
<trkpt lat="33.6709981" lon="-84.3978445"><time>2026-09-21T14:25:25.000Z</time></trkpt>
<trkpt lat="33.6708550" lon="-84.3978168"><time>2026-09-21T14:25:26.000Z</time></trkpt>
<trkpt lat="33.6706656" lon="-84.3979232"><time>2026-09-21T14:25:27.000Z</time></trkpt>
<trkpt lat="33.6705248" lon="-84.3978837"><time>2026-09-21T14:25:28.000Z</time></trkpt>
<trkpt lat="33.6703057" lon="-84.3978889"><time>2026-09-21T14:25:29.000Z</time></trkpt>
<trkpt lat="33.6701982" lon="-84.3979698"><time>2026-09-21T14:25:30.000Z</time></trkpt>
<trkpt lat="33.6699348" lon="-84.3979342"><time>2026-09-21T14:25:31.000Z</time></trkpt>
<trkpt lat="33.6697825" lon="-84.3978937"><time>2026-09-21T14:25:32.000Z</time></trkpt>
<trkpt lat="33.6696105" lon="-84.3979166"><time>2026-09-21T14:25:33.000Z</time></trkpt>
<trkpt lat="33.6694386" lon="-84.3979054"><time>2026-09-21T14:25:34.000Z</time></trkpt>
<trkpt lat="33.6692692" lon="-84.3979534"><time>2026-09-21T14:25:35.000Z</time></trkpt>
<trkpt lat="33.6691303" lon="-84.3978794"><time>2026-09-21T14:25:36.000Z</time></trkpt>
<trkpt lat="33.6689437" lon="-84.3978990"><time>2026-09-21T14:25:37.000Z</time></trkpt>
<trkpt lat="33.6686848" lon="-84.3977857"><time>2026-09-21T14:25:38.000Z</time></trkpt>
<trkpt lat="33.6685203" lon="-84.3977794"><time>2026-09-21T14:25:39.000Z</time></trkpt>
<trkpt lat="33.6683388" lon="-84.3977525"><time>2026-09-21T14:25:40.000Z</time></trkpt>
<trkpt lat="33.6681979" lon="-84.3977161"><time>2026-09-21T14:25:41.000Z</time></trkpt>
<trkpt lat="33.6680292" lon="-84.3975613"><time>2026-09-21T14:25:42.000Z</time></trkpt>
<trkpt lat="33.6678259" lon="-84.3976193"><time>2026-09-21T14:25:43.000Z</time></trkpt>
<trkpt lat="33.6677072" lon="-84.3974640"><time>2026-09-21T14:25:44.000Z</time></trkpt>
<trkpt lat="33.6675109" lon="-84.3974210"><time>2026-09-21T14:25:45.000Z</time></trkpt>
<trkpt lat="33.6673146" lon="-84.3974461"><time>2026-09-21T14:25:46.000Z</time></trkpt>
<trkpt lat="33.6671443" lon="-84.3973509"><time>2026-09-21T14:25:47.000Z</time></trkpt>
<trkpt lat="33.6669405" lon="-84.3972905"><time>2026-09-21T14:25:48.000Z</time></trkpt>
<trkpt lat="33.6667926" lon="-84.3972135"><time>2026-09-21T14:25:49.000Z</time></trkpt>
<trkpt lat="33.6666612" lon="-84.3971691"><time>2026-09-21T14:25:50.000Z</time></trkpt>
<trkpt lat="33.6664867" lon="-84.3970530"><time>2026-09-21T14:25:51.000Z</time></trkpt>
<trkpt lat="33.6662496" lon="-84.3969705"><time>2026-09-21T14:25:52.000Z</time></trkpt>
<trkpt lat="33.6661463" lon="-84.3969306"><time>2026-09-21T14:25:53.000Z</time></trkpt>
<trkpt lat="33.6659919" lon="-84.3968571"><time>2026-09-21T14:25:54.000Z</time></trkpt>
<trkpt lat="33.6657776" lon="-84.3968180"><time>2026-09-21T14:25:55.000Z</time></trkpt>
<trkpt lat="33.6655700" lon="-84.3967642"><time>2026-09-21T14:25:56.000Z</time></trkpt>
<trkpt lat="33.6654030" lon="-84.3966509"><time>2026-09-21T14:25:57.000Z</time></trkpt>
<trkpt lat="33.6652569" lon="-84.3966156"><time>2026-09-21T14:25:58.000Z</time></trkpt>
<trkpt lat="33.6651198" lon="-84.3964666"><time>2026-09-21T14:25:59.000Z</time></trkpt>
<trkpt lat="33.6649403" lon="-84.3965228"><time>2026-09-21T14:26:00.000Z</time></trkpt>
<trkpt lat="33.6648101" lon="-84.3963185"><time>2026-09-21T14:26:01.000Z</time></trkpt>
<trkpt lat="33.6646673" lon="-84.3963091"><time>2026-09-21T14:26:02.000Z</time></trkpt>
<trkpt lat="33.6644310" lon="-84.3963278"><time>2026-09-21T14:26:03.000Z</time></trkpt>
<trkpt lat="33.6642011" lon="-84.3961246"><time>2026-09-21T14:26:04.000Z</time></trkpt>
<trkpt lat="33.6640551" lon="-84.3961167"><time>2026-09-21T14:26:05.000Z</time></trkpt>
<trkpt lat="33.6639229" lon="-84.3960924"><time>2026-09-21T14:26:06.000Z</time></trkpt>
<trkpt lat="33.6637008" lon="-84.3960772"><time>2026-09-21T14:26:07.000Z</time></trkpt>
<trkpt lat="33.6635422" lon="-84.3960269"><time>2026-09-21T14:26:08.000Z</time></trkpt>
<trkpt lat="33.6634188" lon="-84.3959491"><time>2026-09-21T14:26:09.000Z</time></trkpt>
<trkpt lat="33.6631890" lon="-84.3958629"><time>2026-09-21T14:26:10.000Z</time></trkpt>
<trkpt lat="33.6629963" lon="-84.3956988"><time>2026-09-21T14:26:11.000Z</time></trkpt>
<trkpt lat="33.6627887" lon="-84.3957165"><time>2026-09-21T14:26:12.000Z</time></trkpt>
<trkpt lat="33.6626849" lon="-84.3955775"><time>2026-09-21T14:26:13.000Z</time></trkpt>
<trkpt lat="33.6625426" lon="-84.3956204"><time>2026-09-21T14:26:14.000Z</time></trkpt>
<trkpt lat="33.6624189" lon="-84.3956122"><time>2026-09-21T14:26:15.000Z</time></trkpt>
<trkpt lat="33.6621598" lon="-84.3955033"><time>2026-09-21T14:26:16.000Z</time></trkpt>
<trkpt lat="33.6620259" lon="-84.3953853"><time>2026-09-21T14:26:17.000Z</time></trkpt>
<trkpt lat="33.6618139" lon="-84.3953109"><time>2026-09-21T14:26:18.000Z</time></trkpt>
<trkpt lat="33.6615754" lon="-84.3953505"><time>2026-09-21T14:26:19.000Z</time></trkpt>
<trkpt lat="33.6614919" lon="-84.3953176"><time>2026-09-21T14:26:20.000Z</time></trkpt>
<trkpt lat="33.6612868" lon="-84.3952279"><time>2026-09-21T14:26:21.000Z</time></trkpt>
<trkpt lat="33.6611292" lon="-84.3951471"><time>2026-09-21T14:26:22.000Z</time></trkpt>
<trkpt lat="33.6610074" lon="-84.3951149"><time>2026-09-21T14:26:23.000Z</time></trkpt>
<trkpt lat="33.6607923" lon="-84.3951124"><time>2026-09-21T14:26:24.000Z</time></trkpt>
<trkpt lat="33.6606188" lon="-84.3951246"><time>2026-09-21T14:26:25.000Z</time></trkpt>
<trkpt lat="33.6603897" lon="-84.3950796"><time>2026-09-21T14:26:26.000Z</time></trkpt>
<trkpt lat="33.6602145" lon="-84.3950378"><time>2026-09-21T14:26:27.000Z</time></trkpt>
<trkpt lat="33.6601620" lon="-84.3950871"><time>2026-09-21T14:26:28.000Z</time></trkpt>
<trkpt lat="33.6598166" lon="-84.3950297"><time>2026-09-21T14:26:29.000Z</time></trkpt>
<trkpt lat="33.6597006" lon="-84.3950095"><time>2026-09-21T14:26:30.000Z</time></trkpt>
<trkpt lat="33.6595140" lon="-84.3950183"><time>2026-09-21T14:26:31.000Z</time></trkpt>
<trkpt lat="33.6593015" lon="-84.3949817"><time>2026-09-21T14:26:32.000Z</time></trkpt>
<trkpt lat="33.6591618" lon="-84.3950116"><time>2026-09-21T14:26:33.000Z</time></trkpt>
<trkpt lat="33.6589390" lon="-84.3950639"><time>2026-09-21T14:26:34.000Z</time></trkpt>
<trkpt lat="33.6588023" lon="-84.3950152"><time>2026-09-21T14:26:35.000Z</time></trkpt>
<trkpt lat="33.6585422" lon="-84.3950285"><time>2026-09-21T14:26:36.000Z</time></trkpt>
<trkpt lat="33.6583714" lon="-84.3950032"><time>2026-09-21T14:26:37.000Z</time></trkpt>
<trkpt lat="33.6582664" lon="-84.3950937"><time>2026-09-21T14:26:38.000Z</time></trkpt>
<trkpt lat="33.6580642" lon="-84.3951428"><time>2026-09-21T14:26:39.000Z</time></trkpt>
<trkpt lat="33.6578733" lon="-84.3950445"><time>2026-09-21T14:26:40.000Z</time></trkpt>
<trkpt lat="33.6576443" lon="-84.3951045"><time>2026-09-21T14:26:41.000Z</time></trkpt>
<trkpt lat="33.6575892" lon="-84.3951142"><time>2026-09-21T14:26:42.000Z</time></trkpt>
<trkpt lat="33.6573621" lon="-84.3950873"><time>2026-09-21T14:26:43.000Z</time></trkpt>
<trkpt lat="33.6571802" lon="-84.3951437"><time>2026-09-21T14:26:44.000Z</time></trkpt>
<trkpt lat="33.6570006" lon="-84.3951277"><time>2026-09-21T14:26:45.000Z</time></trkpt>
<trkpt lat="33.6569166" lon="-84.3951999"><time>2026-09-21T14:26:46.000Z</time></trkpt>
<trkpt lat="33.6565972" lon="-84.3952610"><time>2026-09-21T14:26:47.000Z</time></trkpt>
<trkpt lat="33.6564374" lon="-84.3952137"><time>2026-09-21T14:26:48.000Z</time></trkpt>
<trkpt lat="33.6563231" lon="-84.3952722"><time>2026-09-21T14:26:49.000Z</time></trkpt>
<trkpt lat="33.6561040" lon="-84.3952934"><time>2026-09-21T14:26:50.000Z</time></trkpt>
<trkpt lat="33.6559113" lon="-84.3954210"><time>2026-09-21T14:26:51.000Z</time></trkpt>
<trkpt lat="33.6557375" lon="-84.3954544"><time>2026-09-21T14:26:52.000Z</time></trkpt>
<trkpt lat="33.6555525" lon="-84.3955212"><time>2026-09-21T14:26:53.000Z</time></trkpt>
<trkpt lat="33.6553738" lon="-84.3954524"><time>2026-09-21T14:26:54.000Z</time></trkpt>
<trkpt lat="33.6552896" lon="-84.3955942"><time>2026-09-21T14:26:55.000Z</time></trkpt>
<trkpt lat="33.6549974" lon="-84.3956663"><time>2026-09-21T14:26:56.000Z</time></trkpt>
<trkpt lat="33.6548349" lon="-84.3956758"><time>2026-09-21T14:26:57.000Z</time></trkpt>
<trkpt lat="33.6547198" lon="-84.3955916"><time>2026-09-21T14:26:58.000Z</time></trkpt>
<trkpt lat="33.6544653" lon="-84.3957280"><time>2026-09-21T14:26:59.000Z</time></trkpt>
<trkpt lat="33.6543235" lon="-84.3958600"><time>2026-09-21T14:27:00.000Z</time></trkpt>
<trkpt lat="33.6541476" lon="-84.3959125"><time>2026-09-21T14:27:01.000Z</time></trkpt>
<trkpt lat="33.6539975" lon="-84.3959615"><time>2026-09-21T14:27:02.000Z</time></trkpt>
<trkpt lat="33.6537739" lon="-84.3959766"><time>2026-09-21T14:27:03.000Z</time></trkpt>
<trkpt lat="33.6536421" lon="-84.3960206"><time>2026-09-21T14:27:04.000Z</time></trkpt>
<trkpt lat="33.6535182" lon="-84.3960917"><time>2026-09-21T14:27:05.000Z</time></trkpt>
<trkpt lat="33.6532713" lon="-84.3962197"><time>2026-09-21T14:27:06.000Z</time></trkpt>
<trkpt lat="33.6530934" lon="-84.3962232"><time>2026-09-21T14:27:07.000Z</time></trkpt>
<trkpt lat="33.6529804" lon="-84.3962892"><time>2026-09-21T14:27:08.000Z</time></trkpt>
<trkpt lat="33.6527843" lon="-84.3963004"><time>2026-09-21T14:27:09.000Z</time></trkpt>
<trkpt lat="33.6526291" lon="-84.3964792"><time>2026-09-21T14:27:10.000Z</time></trkpt>
<trkpt lat="33.6525025" lon="-84.3964551"><time>2026-09-21T14:27:11.000Z</time></trkpt>
<trkpt lat="33.6522758" lon="-84.3964734"><time>2026-09-21T14:27:12.000Z</time></trkpt>
<trkpt lat="33.6521384" lon="-84.3965497"><time>2026-09-21T14:27:13.000Z</time></trkpt>
<trkpt lat="33.6519022" lon="-84.3966485"><time>2026-09-21T14:27:14.000Z</time></trkpt>
<trkpt lat="33.6517129" lon="-84.3966922"><time>2026-09-21T14:27:15.000Z</time></trkpt>
<trkpt lat="33.6515809" lon="-84.3967313"><time>2026-09-21T14:27:16.000Z</time></trkpt>
<trkpt lat="33.6514456" lon="-84.3968111"><time>2026-09-21T14:27:17.000Z</time></trkpt>
<trkpt lat="33.6511969" lon="-84.3969268"><time>2026-09-21T14:27:18.000Z</time></trkpt>
<trkpt lat="33.6511005" lon="-84.3969123"><time>2026-09-21T14:27:19.000Z</time></trkpt>
<trkpt lat="33.6508789" lon="-84.3970712"><time>2026-09-21T14:27:20.000Z</time></trkpt>
<trkpt lat="33.6507141" lon="-84.3970956"><time>2026-09-21T14:27:21.000Z</time></trkpt>
<trkpt lat="33.6505388" lon="-84.3971053"><time>2026-09-21T14:27:22.000Z</time></trkpt>
<trkpt lat="33.6503398" lon="-84.3971287"><time>2026-09-21T14:27:23.000Z</time></trkpt>
<trkpt lat="33.6501706" lon="-84.3972821"><time>2026-09-21T14:27:24.000Z</time></trkpt>
<trkpt lat="33.6500251" lon="-84.3972673"><time>2026-09-21T14:27:25.000Z</time></trkpt>
<trkpt lat="33.6498788" lon="-84.3974207"><time>2026-09-21T14:27:26.000Z</time></trkpt>
<trkpt lat="33.6496598" lon="-84.3974359"><time>2026-09-21T14:27:27.000Z</time></trkpt>
<trkpt lat="33.6494517" lon="-84.3975451"><time>2026-09-21T14:27:28.000Z</time></trkpt>
<trkpt lat="33.6493544" lon="-84.3975284"><time>2026-09-21T14:27:29.000Z</time></trkpt>
<trkpt lat="33.6491838" lon="-84.3976096"><time>2026-09-21T14:27:30.000Z</time></trkpt>
<trkpt lat="33.6490509" lon="-84.3976865"><time>2026-09-21T14:27:31.000Z</time></trkpt>
<trkpt lat="33.6488110" lon="-84.3977063"><time>2026-09-21T14:27:32.000Z</time></trkpt>
<trkpt lat="33.6486413" lon="-84.3978218"><time>2026-09-21T14:27:33.000Z</time></trkpt>
<trkpt lat="33.6484761" lon="-84.3978133"><time>2026-09-21T14:27:34.000Z</time></trkpt>
<trkpt lat="33.6482574" lon="-84.3979034"><time>2026-09-21T14:27:35.000Z</time></trkpt>
<trkpt lat="33.6481583" lon="-84.3980430"><time>2026-09-21T14:27:36.000Z</time></trkpt>
<trkpt lat="33.6478945" lon="-84.3980283"><time>2026-09-21T14:27:37.000Z</time></trkpt>
<trkpt lat="33.6477417" lon="-84.3980373"><time>2026-09-21T14:27:38.000Z</time></trkpt>
<trkpt lat="33.6476159" lon="-84.3981172"><time>2026-09-21T14:27:39.000Z</time></trkpt>
<trkpt lat="33.6474525" lon="-84.3982191"><time>2026-09-21T14:27:40.000Z</time></trkpt>
<trkpt lat="33.6472444" lon="-84.3982988"><time>2026-09-21T14:27:41.000Z</time></trkpt>
<trkpt lat="33.6471276" lon="-84.3982560"><time>2026-09-21T14:27:42.000Z</time></trkpt>
<trkpt lat="33.6469260" lon="-84.3984400"><time>2026-09-21T14:27:43.000Z</time></trkpt>
<trkpt lat="33.6467381" lon="-84.3984729"><time>2026-09-21T14:27:44.000Z</time></trkpt>
<trkpt lat="33.6465799" lon="-84.3985859"><time>2026-09-21T14:27:45.000Z</time></trkpt>
<trkpt lat="33.6464552" lon="-84.3986034"><time>2026-09-21T14:27:46.000Z</time></trkpt>
<trkpt lat="33.6462668" lon="-84.3987284"><time>2026-09-21T14:27:47.000Z</time></trkpt>
<trkpt lat="33.6461172" lon="-84.3987730"><time>2026-09-21T14:27:48.000Z</time></trkpt>
<trkpt lat="33.6459130" lon="-84.3989150"><time>2026-09-21T14:27:49.000Z</time></trkpt>
<trkpt lat="33.6457298" lon="-84.3990566"><time>2026-09-21T14:27:50.000Z</time></trkpt>
<trkpt lat="33.6456835" lon="-84.3991468"><time>2026-09-21T14:27:51.000Z</time></trkpt>
<trkpt lat="33.6455077" lon="-84.3993725"><time>2026-09-21T14:27:52.000Z</time></trkpt>
<trkpt lat="33.6453776" lon="-84.3994070"><time>2026-09-21T14:27:53.000Z</time></trkpt>
<trkpt lat="33.6452347" lon="-84.3995586"><time>2026-09-21T14:27:54.000Z</time></trkpt>
<trkpt lat="33.6450615" lon="-84.3995829"><time>2026-09-21T14:27:55.000Z</time></trkpt>
<trkpt lat="33.6449014" lon="-84.3998292"><time>2026-09-21T14:27:56.000Z</time></trkpt>
<trkpt lat="33.6447433" lon="-84.3998765"><time>2026-09-21T14:27:57.000Z</time></trkpt>
<trkpt lat="33.6445958" lon="-84.4001101"><time>2026-09-21T14:27:58.000Z</time></trkpt>
<trkpt lat="33.6444379" lon="-84.4002331"><time>2026-09-21T14:27:59.000Z</time></trkpt>
<trkpt lat="33.6443874" lon="-84.4003802"><time>2026-09-21T14:28:00.000Z</time></trkpt>
<trkpt lat="33.6441825" lon="-84.4004692"><time>2026-09-21T14:28:01.000Z</time></trkpt>
<trkpt lat="33.6440233" lon="-84.4005956"><time>2026-09-21T14:28:02.000Z</time></trkpt>
<trkpt lat="33.6439481" lon="-84.4007572"><time>2026-09-21T14:28:03.000Z</time></trkpt>
<trkpt lat="33.6436977" lon="-84.4008662"><time>2026-09-21T14:28:04.000Z</time></trkpt>
<trkpt lat="33.6436201" lon="-84.4009285"><time>2026-09-21T14:28:05.000Z</time></trkpt>
<trkpt lat="33.6434753" lon="-84.4010983"><time>2026-09-21T14:28:06.000Z</time></trkpt>
<trkpt lat="33.6433537" lon="-84.4012350"><time>2026-09-21T14:28:07.000Z</time></trkpt>
<trkpt lat="33.6431924" lon="-84.4012993"><time>2026-09-21T14:28:08.000Z</time></trkpt>
<trkpt lat="33.6429672" lon="-84.4013954"><time>2026-09-21T14:28:09.000Z</time></trkpt>
<trkpt lat="33.6428257" lon="-84.4014646"><time>2026-09-21T14:28:10.000Z</time></trkpt>
<trkpt lat="33.6426541" lon="-84.4015113"><time>2026-09-21T14:28:11.000Z</time></trkpt>
<trkpt lat="33.6424524" lon="-84.4015273"><time>2026-09-21T14:28:12.000Z</time></trkpt>
<trkpt lat="33.6422683" lon="-84.4015669"><time>2026-09-21T14:28:13.000Z</time></trkpt>
<trkpt lat="33.6421342" lon="-84.4015912"><time>2026-09-21T14:28:14.000Z</time></trkpt>
<trkpt lat="33.6419139" lon="-84.4015799"><time>2026-09-21T14:28:15.000Z</time></trkpt>
<trkpt lat="33.6417511" lon="-84.4016064"><time>2026-09-21T14:28:16.000Z</time></trkpt>
<trkpt lat="33.6416044" lon="-84.4017113"><time>2026-09-21T14:28:17.000Z</time></trkpt>
<trkpt lat="33.6414258" lon="-84.4017334"><time>2026-09-21T14:28:18.000Z</time></trkpt>
<trkpt lat="33.6411991" lon="-84.4017372"><time>2026-09-21T14:28:19.000Z</time></trkpt>
<trkpt lat="33.6411169" lon="-84.4018858"><time>2026-09-21T14:28:20.000Z</time></trkpt>
<trkpt lat="33.6410872" lon="-84.4020518"><time>2026-09-21T14:28:21.000Z</time></trkpt>
<trkpt lat="33.6409961" lon="-84.4022848"><time>2026-09-21T14:28:22.000Z</time></trkpt>
<trkpt lat="33.6410374" lon="-84.4025135"><time>2026-09-21T14:28:23.000Z</time></trkpt>
<trkpt lat="33.6412219" lon="-84.4026940"><time>2026-09-21T14:28:24.000Z</time></trkpt>
<trkpt lat="33.6410571" lon="-84.4028282"><time>2026-09-21T14:28:25.000Z</time></trkpt>
<trkpt lat="33.6411214" lon="-84.4031564"><time>2026-09-21T14:28:26.000Z</time></trkpt>
<trkpt lat="33.6411140" lon="-84.4033320"><time>2026-09-21T14:28:27.000Z</time></trkpt>
<trkpt lat="33.6411142" lon="-84.4035026"><time>2026-09-21T14:28:28.000Z</time></trkpt>
<trkpt lat="33.6411432" lon="-84.4038416"><time>2026-09-21T14:28:29.000Z</time></trkpt>
<trkpt lat="33.6411523" lon="-84.4039276"><time>2026-09-21T14:28:30.000Z</time></trkpt>
<trkpt lat="33.6410672" lon="-84.4041656"><time>2026-09-21T14:28:31.000Z</time></trkpt>
<trkpt lat="33.6411644" lon="-84.4043699"><time>2026-09-21T14:28:32.000Z</time></trkpt>
<trkpt lat="33.6410863" lon="-84.4045750"><time>2026-09-21T14:28:33.000Z</time></trkpt>
<trkpt lat="33.6411611" lon="-84.4048077"><time>2026-09-21T14:28:34.000Z</time></trkpt>
<trkpt lat="33.6411334" lon="-84.4049865"><time>2026-09-21T14:28:35.000Z</time></trkpt>
<trkpt lat="33.6411334" lon="-84.4052063"><time>2026-09-21T14:28:36.000Z</time></trkpt>
<trkpt lat="33.6411061" lon="-84.4055111"><time>2026-09-21T14:28:37.000Z</time></trkpt>
<trkpt lat="33.6411637" lon="-84.4056478"><time>2026-09-21T14:28:38.000Z</time></trkpt>
<trkpt lat="33.6411161" lon="-84.4059569"><time>2026-09-21T14:28:39.000Z</time></trkpt>
<trkpt lat="33.6411665" lon="-84.4061552"><time>2026-09-21T14:28:40.000Z</time></trkpt>
<trkpt lat="33.6411128" lon="-84.4063333"><time>2026-09-21T14:28:41.000Z</time></trkpt>
<trkpt lat="33.6410489" lon="-84.4065533"><time>2026-09-21T14:28:42.000Z</time></trkpt>
<trkpt lat="33.6410609" lon="-84.4067534"><time>2026-09-21T14:28:43.000Z</time></trkpt>
<trkpt lat="33.6410346" lon="-84.4069809"><time>2026-09-21T14:28:44.000Z</time></trkpt>
<trkpt lat="33.6410727" lon="-84.4071290"><time>2026-09-21T14:28:45.000Z</time></trkpt>
<trkpt lat="33.6410199" lon="-84.4073591"><time>2026-09-21T14:28:46.000Z</time></trkpt>
<trkpt lat="33.6411273" lon="-84.4075910"><time>2026-09-21T14:28:47.000Z</time></trkpt>
<trkpt lat="33.6411013" lon="-84.4078451"><time>2026-09-21T14:28:48.000Z</time></trkpt>
<trkpt lat="33.6410474" lon="-84.4080367"><time>2026-09-21T14:28:49.000Z</time></trkpt>
<trkpt lat="33.6410844" lon="-84.4082159"><time>2026-09-21T14:28:50.000Z</time></trkpt>
<trkpt lat="33.6411505" lon="-84.4085112"><time>2026-09-21T14:28:51.000Z</time></trkpt>
<trkpt lat="33.6410326" lon="-84.4086585"><time>2026-09-21T14:28:52.000Z</time></trkpt>
<trkpt lat="33.6411489" lon="-84.4089634"><time>2026-09-21T14:28:53.000Z</time></trkpt>
<trkpt lat="33.6410755" lon="-84.4090795"><time>2026-09-21T14:28:54.000Z</time></trkpt>
<trkpt lat="33.6410951" lon="-84.4093746"><time>2026-09-21T14:28:55.000Z</time></trkpt>
<trkpt lat="33.6411721" lon="-84.4095470"><time>2026-09-21T14:28:56.000Z</time></trkpt>
<trkpt lat="33.6411142" lon="-84.4097581"><time>2026-09-21T14:28:57.000Z</time></trkpt>
<trkpt lat="33.6411371" lon="-84.4100383"><time>2026-09-21T14:28:58.000Z</time></trkpt>
<trkpt lat="33.6411384" lon="-84.4102594"><time>2026-09-21T14:28:59.000Z</time></trkpt>
<trkpt lat="33.6411590" lon="-84.4103491"><time>2026-09-21T14:29:00.000Z</time></trkpt>
<trkpt lat="33.6411404" lon="-84.4105668"><time>2026-09-21T14:29:01.000Z</time></trkpt>
<trkpt lat="33.6411778" lon="-84.4108636"><time>2026-09-21T14:29:02.000Z</time></trkpt>
<trkpt lat="33.6411575" lon="-84.4110964"><time>2026-09-21T14:29:03.000Z</time></trkpt>
<trkpt lat="33.6410621" lon="-84.4112471"><time>2026-09-21T14:29:04.000Z</time></trkpt>
<trkpt lat="33.6411799" lon="-84.4115662"><time>2026-09-21T14:29:05.000Z</time></trkpt>
<trkpt lat="33.6411714" lon="-84.4117410"><time>2026-09-21T14:29:06.000Z</time></trkpt>
<trkpt lat="33.6411181" lon="-84.4118968"><time>2026-09-21T14:29:07.000Z</time></trkpt>
<trkpt lat="33.6411421" lon="-84.4121721"><time>2026-09-21T14:29:08.000Z</time></trkpt>
<trkpt lat="33.6411581" lon="-84.4122860"><time>2026-09-21T14:29:09.000Z</time></trkpt>
<trkpt lat="33.6412090" lon="-84.4126239"><time>2026-09-21T14:29:10.000Z</time></trkpt>
<trkpt lat="33.6411284" lon="-84.4127648"><time>2026-09-21T14:29:11.000Z</time></trkpt>
<trkpt lat="33.6412099" lon="-84.4129514"><time>2026-09-21T14:29:12.000Z</time></trkpt>
<trkpt lat="33.6412824" lon="-84.4132128"><time>2026-09-21T14:29:13.000Z</time></trkpt>
<trkpt lat="33.6412157" lon="-84.4134544"><time>2026-09-21T14:29:14.000Z</time></trkpt>
<trkpt lat="33.6413245" lon="-84.4137292"><time>2026-09-21T14:29:15.000Z</time></trkpt>
<trkpt lat="33.6412835" lon="-84.4138937"><time>2026-09-21T14:29:16.000Z</time></trkpt>
<trkpt lat="33.6412898" lon="-84.4140701"><time>2026-09-21T14:29:17.000Z</time></trkpt>
<trkpt lat="33.6412755" lon="-84.4143217"><time>2026-09-21T14:29:18.000Z</time></trkpt>
<trkpt lat="33.6413050" lon="-84.4145371"><time>2026-09-21T14:29:19.000Z</time></trkpt>
<trkpt lat="33.6413100" lon="-84.4147570"><time>2026-09-21T14:29:20.000Z</time></trkpt>
<trkpt lat="33.6413093" lon="-84.4149232"><time>2026-09-21T14:29:21.000Z</time></trkpt>
<trkpt lat="33.6413500" lon="-84.4151571"><time>2026-09-21T14:29:22.000Z</time></trkpt>
<trkpt lat="33.6411719" lon="-84.4153645"><time>2026-09-21T14:29:23.000Z</time></trkpt>
<trkpt lat="33.6411464" lon="-84.4156082"><time>2026-09-21T14:29:24.000Z</time></trkpt>
<trkpt lat="33.6409297" lon="-84.4155723"><time>2026-09-21T14:29:25.000Z</time></trkpt>
<trkpt lat="33.6408657" lon="-84.4154215"><time>2026-09-21T14:29:26.000Z</time></trkpt>
<trkpt lat="33.6407529" lon="-84.4152413"><time>2026-09-21T14:29:27.000Z</time></trkpt>
<trkpt lat="33.6408072" lon="-84.4150205"><time>2026-09-21T14:29:28.000Z</time></trkpt>
<trkpt lat="33.6407691" lon="-84.4148305"><time>2026-09-21T14:29:29.000Z</time></trkpt>
<trkpt lat="33.6408186" lon="-84.4145700"><time>2026-09-21T14:29:30.000Z</time></trkpt>
<trkpt lat="33.6408397" lon="-84.4143121"><time>2026-09-21T14:29:31.000Z</time></trkpt>
<trkpt lat="33.6408001" lon="-84.4141294"><time>2026-09-21T14:29:32.000Z</time></trkpt>
<trkpt lat="33.6408082" lon="-84.4139487"><time>2026-09-21T14:29:33.000Z</time></trkpt>
<trkpt lat="33.6408572" lon="-84.4137251"><time>2026-09-21T14:29:34.000Z</time></trkpt>
<trkpt lat="33.6408178" lon="-84.4134428"><time>2026-09-21T14:29:35.000Z</time></trkpt>
<trkpt lat="33.6408422" lon="-84.4131962"><time>2026-09-21T14:29:36.000Z</time></trkpt>
<trkpt lat="33.6408099" lon="-84.4130753"><time>2026-09-21T14:29:37.000Z</time></trkpt>
<trkpt lat="33.6408215" lon="-84.4128248"><time>2026-09-21T14:29:38.000Z</time></trkpt>
<trkpt lat="33.6408302" lon="-84.4125730"><time>2026-09-21T14:29:39.000Z</time></trkpt>
<trkpt lat="33.6407983" lon="-84.4123966"><time>2026-09-21T14:29:40.000Z</time></trkpt>
<trkpt lat="33.6408343" lon="-84.4123028"><time>2026-09-21T14:29:41.000Z</time></trkpt>
<trkpt lat="33.6408772" lon="-84.4119902"><time>2026-09-21T14:29:42.000Z</time></trkpt>
<trkpt lat="33.6408063" lon="-84.4117664"><time>2026-09-21T14:29:43.000Z</time></trkpt>
<trkpt lat="33.6408314" lon="-84.4114769"><time>2026-09-21T14:29:44.000Z</time></trkpt>
<trkpt lat="33.6408241" lon="-84.4114055"><time>2026-09-21T14:29:45.000Z</time></trkpt>
<trkpt lat="33.6407846" lon="-84.4110945"><time>2026-09-21T14:29:46.000Z</time></trkpt>
<trkpt lat="33.6408018" lon="-84.4109462"><time>2026-09-21T14:29:47.000Z</time></trkpt>
<trkpt lat="33.6408131" lon="-84.4106112"><time>2026-09-21T14:29:48.000Z</time></trkpt>
<trkpt lat="33.6408638" lon="-84.4104278"><time>2026-09-21T14:29:49.000Z</time></trkpt>
<trkpt lat="33.6407760" lon="-84.4102524"><time>2026-09-21T14:29:50.000Z</time></trkpt>
<trkpt lat="33.6407651" lon="-84.4100930"><time>2026-09-21T14:29:51.000Z</time></trkpt>
<trkpt lat="33.6408393" lon="-84.4097964"><time>2026-09-21T14:29:52.000Z</time></trkpt>
<trkpt lat="33.6408080" lon="-84.4095698"><time>2026-09-21T14:29:53.000Z</time></trkpt>
<trkpt lat="33.6408490" lon="-84.4093985"><time>2026-09-21T14:29:54.000Z</time></trkpt>
<trkpt lat="33.6408669" lon="-84.4090877"><time>2026-09-21T14:29:55.000Z</time></trkpt>
<trkpt lat="33.6408534" lon="-84.4089896"><time>2026-09-21T14:29:56.000Z</time></trkpt>
<trkpt lat="33.6408417" lon="-84.4087946"><time>2026-09-21T14:29:57.000Z</time></trkpt>
<trkpt lat="33.6407589" lon="-84.4086828"><time>2026-09-21T14:29:58.000Z</time></trkpt>
<trkpt lat="33.6405540" lon="-84.4084075"><time>2026-09-21T14:29:59.000Z</time></trkpt>
<trkpt lat="33.6403798" lon="-84.4084437"><time>2026-09-21T14:30:00.000Z</time></trkpt>
<trkpt lat="33.6401777" lon="-84.4084537"><time>2026-09-21T14:30:01.000Z</time></trkpt>
<trkpt lat="33.6400101" lon="-84.4085328"><time>2026-09-21T14:30:02.000Z</time></trkpt>
<trkpt lat="33.6398960" lon="-84.4085612"><time>2026-09-21T14:30:03.000Z</time></trkpt>
<trkpt lat="33.6396357" lon="-84.4085509"><time>2026-09-21T14:30:04.000Z</time></trkpt>
<trkpt lat="33.6395325" lon="-84.4084628"><time>2026-09-21T14:30:05.000Z</time></trkpt>
<trkpt lat="33.6392867" lon="-84.4084461"><time>2026-09-21T14:30:06.000Z</time></trkpt>
<trkpt lat="33.6392771" lon="-84.4085730"><time>2026-09-21T14:30:07.000Z</time></trkpt>
<trkpt lat="33.6392790" lon="-84.4088419"><time>2026-09-21T14:30:08.000Z</time></trkpt>
<trkpt lat="33.6391978" lon="-84.4090587"><time>2026-09-21T14:30:09.000Z</time></trkpt>
<trkpt lat="33.6391893" lon="-84.4092070"><time>2026-09-21T14:30:10.000Z</time></trkpt>
<trkpt lat="33.6391538" lon="-84.4094777"><time>2026-09-21T14:30:11.000Z</time></trkpt>
<trkpt lat="33.6392293" lon="-84.4097254"><time>2026-09-21T14:30:12.000Z</time></trkpt>
<trkpt lat="33.6392715" lon="-84.4098752"><time>2026-09-21T14:30:13.000Z</time></trkpt>
<trkpt lat="33.6392470" lon="-84.4100446"><time>2026-09-21T14:30:14.000Z</time></trkpt>
<trkpt lat="33.6391415" lon="-84.4103389"><time>2026-09-21T14:30:15.000Z</time></trkpt>
<trkpt lat="33.6392487" lon="-84.4105091"><time>2026-09-21T14:30:16.000Z</time></trkpt>
<trkpt lat="33.6391586" lon="-84.4108033"><time>2026-09-21T14:30:17.000Z</time></trkpt>
<trkpt lat="33.6392389" lon="-84.4109572"><time>2026-09-21T14:30:18.000Z</time></trkpt>
<trkpt lat="33.6392732" lon="-84.4111596"><time>2026-09-21T14:30:19.000Z</time></trkpt>
<trkpt lat="33.6392048" lon="-84.4113877"><time>2026-09-21T14:30:20.000Z</time></trkpt>
<trkpt lat="33.6392150" lon="-84.4116407"><time>2026-09-21T14:30:21.000Z</time></trkpt>
<trkpt lat="33.6391959" lon="-84.4118259"><time>2026-09-21T14:30:22.000Z</time></trkpt>
<trkpt lat="33.6391997" lon="-84.4120856"><time>2026-09-21T14:30:23.000Z</time></trkpt>
<trkpt lat="33.6390615" lon="-84.4121250"><time>2026-09-21T14:30:24.000Z</time></trkpt>
<trkpt lat="33.6388596" lon="-84.4121108"><time>2026-09-21T14:30:25.000Z</time></trkpt>
<trkpt lat="33.6387420" lon="-84.4121597"><time>2026-09-21T14:30:26.000Z</time></trkpt>
<trkpt lat="33.6384940" lon="-84.4121114"><time>2026-09-21T14:30:27.000Z</time></trkpt>
<trkpt lat="33.6383735" lon="-84.4120329"><time>2026-09-21T14:30:28.000Z</time></trkpt>
<trkpt lat="33.6381627" lon="-84.4120485"><time>2026-09-21T14:30:29.000Z</time></trkpt>
<trkpt lat="33.6379852" lon="-84.4120937"><time>2026-09-21T14:30:30.000Z</time></trkpt>
<trkpt lat="33.6377907" lon="-84.4120632"><time>2026-09-21T14:30:31.000Z</time></trkpt>
<trkpt lat="33.6376409" lon="-84.4121355"><time>2026-09-21T14:30:32.000Z</time></trkpt>
<trkpt lat="33.6374211" lon="-84.4120752"><time>2026-09-21T14:30:33.000Z</time></trkpt>
<trkpt lat="33.6372558" lon="-84.4119807"><time>2026-09-21T14:30:34.000Z</time></trkpt>
<trkpt lat="33.6372265" lon="-84.4122230"><time>2026-09-21T14:30:35.000Z</time></trkpt>
<trkpt lat="33.6372289" lon="-84.4124215"><time>2026-09-21T14:30:36.000Z</time></trkpt>
<trkpt lat="33.6371310" lon="-84.4127245"><time>2026-09-21T14:30:37.000Z</time></trkpt>
<trkpt lat="33.6371707" lon="-84.4129263"><time>2026-09-21T14:30:38.000Z</time></trkpt>
<trkpt lat="33.6371741" lon="-84.4131793"><time>2026-09-21T14:30:39.000Z</time></trkpt>
<trkpt lat="33.6372184" lon="-84.4133017"><time>2026-09-21T14:30:40.000Z</time></trkpt>
<trkpt lat="33.6372458" lon="-84.4135648"><time>2026-09-21T14:30:41.000Z</time></trkpt>
<trkpt lat="33.6372126" lon="-84.4137322"><time>2026-09-21T14:30:42.000Z</time></trkpt>
<trkpt lat="33.6372061" lon="-84.4139907"><time>2026-09-21T14:30:43.000Z</time></trkpt>
<trkpt lat="33.6372266" lon="-84.4142450"><time>2026-09-21T14:30:44.000Z</time></trkpt>
<trkpt lat="33.6372023" lon="-84.4144250"><time>2026-09-21T14:30:45.000Z</time></trkpt>
<trkpt lat="33.6371481" lon="-84.4146150"><time>2026-09-21T14:30:46.000Z</time></trkpt>
<trkpt lat="33.6372035" lon="-84.4148643"><time>2026-09-21T14:30:47.000Z</time></trkpt>
<trkpt lat="33.6371789" lon="-84.4149863"><time>2026-09-21T14:30:48.000Z</time></trkpt>
<trkpt lat="33.6371228" lon="-84.4153203"><time>2026-09-21T14:30:49.000Z</time></trkpt>
<trkpt lat="33.6371053" lon="-84.4154396"><time>2026-09-21T14:30:50.000Z</time></trkpt>
<trkpt lat="33.6370879" lon="-84.4157437"><time>2026-09-21T14:30:51.000Z</time></trkpt>
<trkpt lat="33.6371111" lon="-84.4159508"><time>2026-09-21T14:30:52.000Z</time></trkpt>
<trkpt lat="33.6370644" lon="-84.4161799"><time>2026-09-21T14:30:53.000Z</time></trkpt>
<trkpt lat="33.6370208" lon="-84.4163362"><time>2026-09-21T14:30:54.000Z</time></trkpt>
<trkpt lat="33.6370279" lon="-84.4165344"><time>2026-09-21T14:30:55.000Z</time></trkpt>
<trkpt lat="33.6370009" lon="-84.4168067"><time>2026-09-21T14:30:56.000Z</time></trkpt>
<trkpt lat="33.6370241" lon="-84.4170013"><time>2026-09-21T14:30:57.000Z</time></trkpt>
<trkpt lat="33.6370180" lon="-84.4172571"><time>2026-09-21T14:30:58.000Z</time></trkpt>
<trkpt lat="33.6369848" lon="-84.4174424"><time>2026-09-21T14:30:59.000Z</time></trkpt>
<trkpt lat="33.6370061" lon="-84.4177007"><time>2026-09-21T14:31:00.000Z</time></trkpt>
<trkpt lat="33.6370640" lon="-84.4178633"><time>2026-09-21T14:31:01.000Z</time></trkpt>
<trkpt lat="33.6370044" lon="-84.4180431"><time>2026-09-21T14:31:02.000Z</time></trkpt>
<trkpt lat="33.6370161" lon="-84.4183380"><time>2026-09-21T14:31:03.000Z</time></trkpt>
<trkpt lat="33.6370397" lon="-84.4185027"><time>2026-09-21T14:31:04.000Z</time></trkpt>
<trkpt lat="33.6370227" lon="-84.4187141"><time>2026-09-21T14:31:05.000Z</time></trkpt>
<trkpt lat="33.6370335" lon="-84.4188593"><time>2026-09-21T14:31:06.000Z</time></trkpt>
<trkpt lat="33.6370454" lon="-84.4190531"><time>2026-09-21T14:31:07.000Z</time></trkpt>
<trkpt lat="33.6370181" lon="-84.4193593"><time>2026-09-21T14:31:08.000Z</time></trkpt>
<trkpt lat="33.6369951" lon="-84.4195993"><time>2026-09-21T14:31:09.000Z</time></trkpt>
<trkpt lat="33.6370105" lon="-84.4197669"><time>2026-09-21T14:31:10.000Z</time></trkpt>
<trkpt lat="33.6370118" lon="-84.4201296"><time>2026-09-21T14:31:11.000Z</time></trkpt>
<trkpt lat="33.6369761" lon="-84.4202423"><time>2026-09-21T14:31:12.000Z</time></trkpt>
<trkpt lat="33.6370008" lon="-84.4204454"><time>2026-09-21T14:31:13.000Z</time></trkpt>
<trkpt lat="33.6370152" lon="-84.4207064"><time>2026-09-21T14:31:14.000Z</time></trkpt>
<trkpt lat="33.6370507" lon="-84.4209131"><time>2026-09-21T14:31:15.000Z</time></trkpt>
<trkpt lat="33.6369655" lon="-84.4210735"><time>2026-09-21T14:31:16.000Z</time></trkpt>
<trkpt lat="33.6370398" lon="-84.4213738"><time>2026-09-21T14:31:17.000Z</time></trkpt>
<trkpt lat="33.6369809" lon="-84.4215301"><time>2026-09-21T14:31:18.000Z</time></trkpt>
<trkpt lat="33.6370144" lon="-84.4217353"><time>2026-09-21T14:31:19.000Z</time></trkpt>
<trkpt lat="33.6370273" lon="-84.4220038"><time>2026-09-21T14:31:20.000Z</time></trkpt>
<trkpt lat="33.6370782" lon="-84.4221525"><time>2026-09-21T14:31:21.000Z</time></trkpt>
<trkpt lat="33.6370305" lon="-84.4224493"><time>2026-09-21T14:31:22.000Z</time></trkpt>
<trkpt lat="33.6370646" lon="-84.4225552"><time>2026-09-21T14:31:23.000Z</time></trkpt>
<trkpt lat="33.6370142" lon="-84.4228035"><time>2026-09-21T14:31:24.000Z</time></trkpt>
<trkpt lat="33.6369594" lon="-84.4230688"><time>2026-09-21T14:31:25.000Z</time></trkpt>
<trkpt lat="33.6370249" lon="-84.4232245"><time>2026-09-21T14:31:26.000Z</time></trkpt>
<trkpt lat="33.6370384" lon="-84.4235384"><time>2026-09-21T14:31:27.000Z</time></trkpt>
<trkpt lat="33.6370011" lon="-84.4236470"><time>2026-09-21T14:31:28.000Z</time></trkpt>
<trkpt lat="33.6369914" lon="-84.4239089"><time>2026-09-21T14:31:29.000Z</time></trkpt>
<trkpt lat="33.6370031" lon="-84.4241497"><time>2026-09-21T14:31:30.000Z</time></trkpt>
<trkpt lat="33.6370259" lon="-84.4243757"><time>2026-09-21T14:31:31.000Z</time></trkpt>
<trkpt lat="33.6370535" lon="-84.4245972"><time>2026-09-21T14:31:32.000Z</time></trkpt>
<trkpt lat="33.6369688" lon="-84.4248439"><time>2026-09-21T14:31:33.000Z</time></trkpt>
<trkpt lat="33.6369710" lon="-84.4249677"><time>2026-09-21T14:31:34.000Z</time></trkpt>
<trkpt lat="33.6369871" lon="-84.4252294"><time>2026-09-21T14:31:35.000Z</time></trkpt>
<trkpt lat="33.6370219" lon="-84.4254314"><time>2026-09-21T14:31:36.000Z</time></trkpt>
<trkpt lat="33.6370076" lon="-84.4257039"><time>2026-09-21T14:31:37.000Z</time></trkpt>
<trkpt lat="33.6370521" lon="-84.4258842"><time>2026-09-21T14:31:38.000Z</time></trkpt>
<trkpt lat="33.6369680" lon="-84.4260905"><time>2026-09-21T14:31:39.000Z</time></trkpt>
<trkpt lat="33.6370164" lon="-84.4262495"><time>2026-09-21T14:31:40.000Z</time></trkpt>
<trkpt lat="33.6369945" lon="-84.4265800"><time>2026-09-21T14:31:41.000Z</time></trkpt>
<trkpt lat="33.6370391" lon="-84.4267042"><time>2026-09-21T14:31:42.000Z</time></trkpt>
<trkpt lat="33.6370632" lon="-84.4269263"><time>2026-09-21T14:31:43.000Z</time></trkpt>
<trkpt lat="33.6370373" lon="-84.4271880"><time>2026-09-21T14:31:44.000Z</time></trkpt>
<trkpt lat="33.6370452" lon="-84.4274268"><time>2026-09-21T14:31:45.000Z</time></trkpt>
<trkpt lat="33.6371286" lon="-84.4275628"><time>2026-09-21T14:31:46.000Z</time></trkpt>
<trkpt lat="33.6371584" lon="-84.4277745"><time>2026-09-21T14:31:47.000Z</time></trkpt>
<trkpt lat="33.6371619" lon="-84.4280460"><time>2026-09-21T14:31:48.000Z</time></trkpt>
<trkpt lat="33.6371447" lon="-84.4280489"><time>2026-09-21T14:31:49.000Z</time></trkpt>
<trkpt lat="33.6371318" lon="-84.4280588"><time>2026-09-21T14:31:50.000Z</time></trkpt>
<trkpt lat="33.6371338" lon="-84.4280034"><time>2026-09-21T14:31:51.000Z</time></trkpt>
<trkpt lat="33.6371800" lon="-84.4280910"><time>2026-09-21T14:31:52.000Z</time></trkpt>
<trkpt lat="33.6371751" lon="-84.4280468"><time>2026-09-21T14:31:53.000Z</time></trkpt>
</trkseg></trk>
</gpx>
